{"type":"FeatureCollection","features":[{"type":"Feature","properties":{"id":0,"name":"Arthur Kill Anchorage Area Number 41","kind":"anchorage","source":"NOAA ENC Anchorage Areas (ENCDirect)"},"geometry":{"type":"Polygon","coordinates":[[[-74.198361,40.613208],[-74.198571,40.61232],[-74.199617,40.61097],[-74.200353,40.609319],[-74.200718,40.609173],[-74.200516,40.608765],[-74.20075,40.607304],[-74.200236,40.60573],[-74.198606,40.603573],[-74.199278,40.603442],[-74.19855,40.603278],[-74.198316,40.602883],[-74.198805,40.601739],[-74.197503,40.597447],[-74.197468,40.598425],[-74.197018,40.598591],[-74.197283,40.59985],[-74.197003,40.601004],[-74.196427,40.601266],[-74.196274,40.601766],[-74.197026,40.601666],[-74.196011,40.602326],[-74.195975,40.60339],[-74.196281,40.603431],[-74.196078,40.603884],[-74.196772,40.605354],[-74.19853,40.606927],[-74.198602,40.607418],[-74.198079,40.609322],[-74.197079,40.610097],[-74.195865,40.612081],[-74.195671,40.613671],[-74.1942,40.613716],[-74.193781,40.613111],[-74.194189,40.613875],[-74.195873,40.614117],[-74.196179,40.614904],[-74.196161,40.615385],[-74.195298,40.616316],[-74.194728,40.616196],[-74.195093,40.615374],[-74.194626,40.616022],[-74.194152,40.616102],[-74.195023,40.616512],[-74.196623,40.615487],[-74.197323,40.616195],[-74.199725,40.616895],[-74.201728,40.614015],[-74.20045,40.613428],[-74.19869,40.613931],[-74.198361,40.613208]]]}},{"type":"Feature","properties":{"id":1,"name":"Lower Bay Anchorage Number 26","kind":"anchorage","source":"NOAA ENC Anchorage Areas (ENCDirect)"},"geometry":{"type":"Polygon","coordinates":[[[-74.083334,40.479139],[-74.083334,40.483166],[-74.126638,40.492741],[-74.126638,40.48483],[-74.083334,40.479139]]]}},{"type":"Feature","properties":{"id":2,"name":"Lower Bay Anchorage Area Number 28","kind":"anchorage","source":"NOAA ENC Anchorage Areas (ENCDirect)"},"geometry":{"type":"Polygon","coordinates":[[[-74.072866,40.516667],[-74.046024,40.516667],[-74.044417,40.53136],[-74.056972,40.533251],[-74.061306,40.524609],[-74.072866,40.516667]]]}},{"type":"Feature","properties":{"id":3,"name":"Upper Bay Anchorage Number 20B","kind":"anchorage","source":"NOAA ENC Anchorage Areas (ENCDirect)"},"geometry":{"type":"Polygon","coordinates":[[[-74.041395,40.694887],[-74.035166,40.691719],[-74.034152,40.693217],[-74.033513,40.6951],[-74.03961,40.696119],[-74.041395,40.694887]]]}},{"type":"Feature","properties":{"id":4,"name":"Hudson River Anchorage Area Number 19 West","kind":"anchorage","source":"NOAA ENC Anchorage Areas (ENCDirect)"},"geometry":{"type":"Polygon","coordinates":[[[-73.999273,40.7841],[-73.995056,40.782306],[-73.962167,40.825361],[-73.960444,40.827833],[-73.960444,40.831222],[-73.963139,40.832694],[-73.97025,40.825611],[-73.981611,40.807972],[-73.999273,40.7841]]]}},{"type":"Feature","properties":{"id":5,"name":"Lower Bay Anchorage Number 28","kind":"anchorage","source":"NOAA ENC Anchorage Areas (ENCDirect)"},"geometry":{"type":"Polygon","coordinates":[[[-74.083251,40.486138],[-74.049389,40.486111],[-74.046027,40.516667],[-74.072876,40.516667],[-74.086527,40.507277],[-74.105947,40.505277],[-74.126638,40.505634],[-74.126638,40.495851],[-74.083251,40.486138]]]}},{"type":"Feature","properties":{"id":6,"name":"Naval Anchorage Number 49G","kind":"anchorage","source":"NOAA ENC Anchorage Areas (ENCDirect)"},"geometry":{"type":"Polygon","coordinates":[[[-74.050535,40.465606],[-74.044723,40.463256],[-74.038093,40.473059],[-74.050054,40.47594],[-74.050535,40.465606]]]}},{"type":"Feature","properties":{"id":7,"name":"Port of New York Anchorage Number 9","kind":"anchorage","source":"NOAA ENC Anchorage Areas (ENCDirect)"},"geometry":{"type":"Polygon","coordinates":[[[-73.836692,40.792515],[-73.83674,40.791764],[-73.837709,40.791015],[-73.837449,40.789718],[-73.837169,40.789454],[-73.835497,40.789456],[-73.835497,40.799044],[-73.85089,40.797607],[-73.853544,40.794126],[-73.852584,40.794417],[-73.848827,40.793126],[-73.848791,40.795279],[-73.846278,40.796057],[-73.844729,40.794787],[-73.842769,40.794865],[-73.842912,40.795422],[-73.842243,40.795574],[-73.84235,40.795887],[-73.841379,40.794874],[-73.841283,40.79589],[-73.841091,40.795632],[-73.841311,40.796198],[-73.840131,40.796874],[-73.840413,40.797664],[-73.839221,40.797827],[-73.838431,40.798371],[-73.837912,40.798506],[-73.839199,40.797776],[-73.840281,40.797598],[-73.839979,40.796902],[-73.839079,40.797045],[-73.838419,40.79673],[-73.836692,40.792515]]]}},{"type":"Feature","properties":{"id":8,"name":"Raritan Bay Anchorage Area Number 45","kind":"anchorage","source":"NOAA ENC Anchorage Areas (ENCDirect)"},"geometry":{"type":"Polygon","coordinates":[[[-74.269145,40.490175],[-74.260602,40.485405],[-74.259539,40.485105],[-74.248802,40.485262],[-74.247506,40.486457],[-74.248274,40.487583],[-74.256524,40.487461],[-74.263015,40.496999],[-74.269145,40.490175]]]}},{"type":"Feature","properties":{"id":9,"name":"Upper Bay Anchorage Area Number 20G","kind":"anchorage","source":"NOAA ENC Anchorage Areas (ENCDirect)"},"geometry":{"type":"Polygon","coordinates":[[[-74.072694,40.652724],[-74.063764,40.653672],[-74.061387,40.657714],[-74.064484,40.658949],[-74.068508,40.658441],[-74.072694,40.652724]],[[-74.064612,40.658309],[-74.064811,40.658368],[-74.064623,40.658371],[-74.064612,40.658309]]]}},{"type":"Feature","properties":{"id":10,"name":"Upper Bay Anchorage Number 20C","kind":"anchorage","source":"NOAA ENC Anchorage Areas (ENCDirect)"},"geometry":{"type":"Polygon","coordinates":[[[-74.049409,40.688954],[-74.044503,40.685928],[-74.040231,40.683908],[-74.035948,40.690475],[-74.044895,40.695058],[-74.046834,40.692435],[-74.045627,40.69258],[-74.041295,40.690413],[-74.042282,40.687713],[-74.044804,40.687],[-74.047721,40.688404],[-74.048792,40.689747],[-74.049409,40.688954]]]}},{"type":"Feature","properties":{"id":11,"name":"Port of New York Anchorage Number 11","kind":"anchorage","source":"NOAA ENC Anchorage Areas (ENCDirect)"},"geometry":{"type":"Polygon","coordinates":[[[-73.871278,40.790033],[-73.871051,40.787804],[-73.870403,40.787804],[-73.865676,40.794527],[-73.888404,40.798556],[-73.888231,40.798235],[-73.886853,40.797997],[-73.883635,40.795508],[-73.883677,40.795882],[-73.88294,40.795257],[-73.878806,40.794591],[-73.876702,40.793607],[-73.87482,40.792021],[-73.872009,40.790838],[-73.871278,40.790033]]]}},{"type":"Feature","properties":{"id":12,"name":"Lower Bay, Raritan Bay, Sandy Hook Bay and Atlantic Ocean Anchorage Area Number 28","kind":"anchorage","source":"NOAA ENC Anchorage Areas (ENCDirect)"},"geometry":{"type":"Polygon","coordinates":[[[-74.126638,40.495855],[-74.126638,40.505637],[-74.146166,40.505972],[-74.147977,40.50064],[-74.126638,40.495855]]]}},{"type":"Feature","properties":{"id":13,"name":"Upper Bay Anchorage Area Number 23B","kind":"anchorage","source":"NOAA ENC Anchorage Areas (ENCDirect)"},"geometry":{"type":"Polygon","coordinates":[[[-74.062355,40.627171],[-74.067378,40.625083],[-74.065955,40.623107],[-74.054577,40.624261],[-74.056668,40.630497],[-74.0635,40.630636],[-74.062355,40.627171]]]}},{"type":"Feature","properties":{"id":14,"name":"Upper Bay Anchorage Area Number 20E","kind":"anchorage","source":"NOAA ENC Anchorage Areas (ENCDirect)"},"geometry":{"type":"Polygon","coordinates":[[[-74.056431,40.673522],[-74.049818,40.669287],[-74.044351,40.677638],[-74.049549,40.677357],[-74.056431,40.673522]],[[-74.049443,40.675898],[-74.048955,40.676425],[-74.048856,40.676343],[-74.049443,40.675898]],[[-74.053244,40.674236],[-74.052874,40.67464],[-74.0528,40.674588],[-74.053244,40.674236]]]}},{"type":"Feature","properties":{"id":15,"name":"Upper Bay Anchorage Number 20A","kind":"anchorage","source":"NOAA ENC Anchorage Areas (ENCDirect)"},"geometry":{"type":"Polygon","coordinates":[[[-74.038571,40.701771],[-74.035278,40.699311],[-74.036502,40.698318],[-74.032786,40.698592],[-74.032524,40.701454],[-74.038571,40.701771]]]}},{"type":"Feature","properties":{"id":16,"name":"Upper Bay Anchorage Area Number 21B","kind":"anchorage","source":"NOAA ENC Anchorage Areas (ENCDirect)"},"geometry":{"type":"Polygon","coordinates":[[[-74.040214,40.650931],[-74.026073,40.672974],[-74.030041,40.674],[-74.036025,40.673327],[-74.040072,40.671864],[-74.050245,40.656319],[-74.050532,40.655474],[-74.041343,40.645577],[-74.038208,40.64861],[-74.040214,40.650931]]]}},{"type":"Feature","properties":{"id":17,"name":"Emergency Naval Anchorage Number 49F","kind":"anchorage","source":"NOAA ENC Anchorage Areas (ENCDirect)"},"geometry":{"type":"Polygon","coordinates":[[[-74.028914,40.46434],[-74.021804,40.433491],[-74.016485,40.434205],[-74.023596,40.465047],[-74.028914,40.46434]]]}},{"type":"Feature","properties":{"id":18,"name":"Port of New York Anchorage Number 8","kind":"anchorage","source":"NOAA ENC Anchorage Areas (ENCDirect)"},"geometry":{"type":"Polygon","coordinates":[[[-73.846975,40.810565],[-73.847625,40.811587],[-73.849407,40.81115],[-73.849262,40.810828],[-73.850147,40.809641],[-73.850184,40.809127],[-73.849742,40.808043],[-73.848453,40.807125],[-73.848539,40.806214],[-73.847607,40.805973],[-73.847647,40.805278],[-73.848661,40.804713],[-73.848826,40.805093],[-73.848924,40.804796],[-73.850032,40.805305],[-73.850432,40.804525],[-73.855457,40.804499],[-73.855639,40.805105],[-73.856227,40.805399],[-73.857312,40.805323],[-73.856808,40.804925],[-73.858843,40.805881],[-73.858294,40.806032],[-73.858509,40.806649],[-73.859032,40.806593],[-73.858942,40.805962],[-73.859347,40.806673],[-73.85933,40.807568],[-73.859075,40.806816],[-73.85845,40.806927],[-73.858387,40.807313],[-73.858979,40.810337],[-73.859115,40.809956],[-73.860135,40.809591],[-73.859359,40.808974],[-73.859365,40.808151],[-73.860047,40.809356],[-73.861939,40.80998],[-73.867072,40.810627],[-73.869904,40.809989],[-73.868159,40.806841],[-73.86852,40.806031],[-73.867704,40.80569],[-73.870703,40.801729],[-73.8707,40.799266],[-73.835497,40.804164],[-73.835497,40.805551],[-73.837327,40.806132],[-73.838011,40.807189],[-73.838048,40.808076],[-73.840147,40.811108],[-73.845122,40.812391],[-73.845371,40.811839],[-73.845956,40.811641],[-73.846235,40.810744],[-73.846975,40.810565]],[[-73.85609,40.804621],[-73.856425,40.804875],[-73.855726,40.804572],[-73.85609,40.804621]],[[-73.849856,40.809234],[-73.849832,40.809274],[-73.849827,40.809236],[-73.849856,40.809234]]]}},{"type":"Feature","properties":{"id":19,"name":"Raritan Bay Anchorage Area Number 44","kind":"anchorage","source":"NOAA ENC Anchorage Areas (ENCDirect)"},"geometry":{"type":"Polygon","coordinates":[[[-74.263015,40.496999],[-74.256524,40.487461],[-74.248289,40.487579],[-74.249934,40.489995],[-74.251346,40.490841],[-74.257837,40.500296],[-74.258393,40.502215],[-74.263015,40.496999]]]}},{"type":"Feature","properties":{"id":20,"name":"Arthur Kill Anchorage Area Number 42","kind":"anchorage","source":"NOAA ENC Anchorage Areas (ENCDirect)"},"geometry":{"type":"Polygon","coordinates":[[[-74.242043,40.534279],[-74.242753,40.535594],[-74.243507,40.536045],[-74.244218,40.537085],[-74.245289,40.536709],[-74.244424,40.537905],[-74.244516,40.538883],[-74.244867,40.539606],[-74.245047,40.539396],[-74.244713,40.538855],[-74.245263,40.539343],[-74.246307,40.542114],[-74.248007,40.543178],[-74.24622,40.545694],[-74.243699,40.547712],[-74.242467,40.546824],[-74.240452,40.547713],[-74.238202,40.549495],[-74.237693,40.550257],[-74.236324,40.550747],[-74.236013,40.551529],[-74.236458,40.552212],[-74.235565,40.552827],[-74.23464,40.553104],[-74.233636,40.55259],[-74.232523,40.553271],[-74.231634,40.554682],[-74.230889,40.555266],[-74.229143,40.555581],[-74.228685,40.556242],[-74.226352,40.556068],[-74.226263,40.556283],[-74.232664,40.556946],[-74.2412,40.554067],[-74.250886,40.546301],[-74.244322,40.525038],[-74.24715,40.51824],[-74.245921,40.516944],[-74.245196,40.517302],[-74.245887,40.518037],[-74.244326,40.518526],[-74.242613,40.518345],[-74.241862,40.518899],[-74.242343,40.519238],[-74.241782,40.519026],[-74.241438,40.519304],[-74.242063,40.519979],[-74.241981,40.520712],[-74.241533,40.52072],[-74.240776,40.520104],[-74.239775,40.520014],[-74.241407,40.52098],[-74.243083,40.521237],[-74.242549,40.522897],[-74.242848,40.523369],[-74.242596,40.523573],[-74.243836,40.52507],[-74.242921,40.527625],[-74.243155,40.528051],[-74.24267,40.528439],[-74.241508,40.531274],[-74.241638,40.532102],[-74.242421,40.533323],[-74.240248,40.53335],[-74.242031,40.533682],[-74.242043,40.534279]],[[-74.246733,40.518523],[-74.246506,40.518681],[-74.246029,40.518298],[-74.246252,40.518132],[-74.246733,40.518523]]]}},{"type":"Feature","properties":{"id":21,"name":"Upper Bay Anchorage Area Number 24","kind":"anchorage","source":"NOAA ENC Anchorage Areas (ENCDirect)"},"geometry":{"type":"Polygon","coordinates":[[[-74.052779,40.605993],[-74.048611,40.607157],[-74.054577,40.624261],[-74.065955,40.623107],[-74.054453,40.607045],[-74.052779,40.605993]]]}},{"type":"Feature","properties":{"id":22,"name":"Upper Bay Anchorage Area Number 21C","kind":"anchorage","source":"NOAA ENC Anchorage Areas (ENCDirect)"},"geometry":{"type":"Polygon","coordinates":[[[-74.053906,40.644076],[-74.050543,40.63427],[-74.046389,40.634261],[-74.041915,40.64503],[-74.041343,40.645577],[-74.050532,40.655474],[-74.053906,40.644076]]]}},{"type":"Feature","properties":{"id":23,"name":"Upper Bay Anchorage Area Number 21A","kind":"anchorage","source":"NOAA ENC Anchorage Areas (ENCDirect)"},"geometry":{"type":"Polygon","coordinates":[[[-74.040214,40.650931],[-74.038208,40.64861],[-74.022493,40.663652],[-74.023961,40.672436],[-74.026073,40.672974],[-74.040214,40.650931]]]}},{"type":"Feature","properties":{"id":24,"name":"Lower Bay Anchorage Area Number 25","kind":"anchorage","source":"NOAA ENC Anchorage Areas (ENCDirect)"},"geometry":{"type":"Polygon","coordinates":[[[-74.037944,40.599534],[-74.034194,40.590203],[-74.031778,40.581539],[-74.016966,40.578051],[-74.006541,40.582801],[-74.014133,40.60093],[-74.015297,40.601213],[-74.031955,40.601213],[-74.037944,40.599534]]]}},{"type":"Feature","properties":{"id":25,"name":"East River Anchorage Area Number 9","kind":"anchorage","source":"NOAA ENC Anchorage Areas (ENCDirect)"},"geometry":{"type":"Polygon","coordinates":[[[-73.835498,40.799302],[-73.835469,40.789151],[-73.834209,40.789012],[-73.833699,40.788467],[-73.83286,40.788526],[-73.831726,40.789209],[-73.83218,40.789962],[-73.83147,40.791171],[-73.830812,40.79154],[-73.829503,40.791556],[-73.828329,40.792339],[-73.829256,40.792985],[-73.828212,40.792412],[-73.827821,40.792898],[-73.827993,40.794971],[-73.829037,40.796469],[-73.82704,40.796822],[-73.827164,40.797585],[-73.826707,40.797743],[-73.826253,40.797245],[-73.824254,40.797353],[-73.820933,40.800421],[-73.819908,40.800894],[-73.835498,40.799302]],[[-73.828077,40.799084],[-73.827792,40.799315],[-73.827745,40.799232],[-73.828077,40.799084]]]}},{"type":"Feature","properties":{"id":26,"name":"Upper Bay Anchorage Area Number 23A","kind":"anchorage","source":"NOAA ENC Anchorage Areas (ENCDirect)"},"geometry":{"type":"Polygon","coordinates":[[[-74.056668,40.630497],[-74.059863,40.639874],[-74.063187,40.643681],[-74.070047,40.64353],[-74.068184,40.631475],[-74.0635,40.630636],[-74.056668,40.630497]]]}},{"type":"Feature","properties":{"id":27,"name":"Upper Bay Anchorage Area Number 20F","kind":"anchorage","source":"NOAA ENC Anchorage Areas (ENCDirect)"},"geometry":{"type":"Polygon","coordinates":[[[-74.064908,40.664861],[-74.055415,40.660806],[-74.052664,40.664977],[-74.06108,40.670057],[-74.064908,40.664861]],[[-74.056667,40.665639],[-74.05612,40.666566],[-74.056009,40.66651],[-74.056667,40.665639]],[[-74.058472,40.663972],[-74.05825,40.664556],[-74.058083,40.664472],[-74.058472,40.663972]]]}},{"type":"Feature","properties":{"id":28,"name":"Lower Bay Anchorage Area Number 25","kind":"anchorage","source":"NOAA ENC Anchorage Areas (ENCDirect)"},"geometry":{"type":"Polygon","coordinates":[[[-74.015121,40.601213],[-74.024244,40.603466],[-74.032516,40.601213],[-74.031271,40.601213],[-74.015121,40.601213]]]}},{"type":"Feature","properties":{"id":29,"name":"Upper Bay Anchorage Area Number 20D","kind":"anchorage","source":"NOAA ENC Anchorage Areas (ENCDirect)"},"geometry":{"type":"Polygon","coordinates":[[[-74.046926,40.685752],[-74.040749,40.683096],[-74.040697,40.683189],[-74.046731,40.686015],[-74.046926,40.685752]]]}},{"type":"Feature","properties":{"id":30,"name":"Port of New York Anchorage Number 14","kind":"anchorage","source":"NOAA ENC Anchorage Areas (ENCDirect)"},"geometry":{"type":"Polygon","coordinates":[[[-73.935247,40.770652],[-73.934475,40.771099],[-73.93435,40.771439],[-73.93725,40.772487],[-73.939458,40.768128],[-73.938998,40.76793],[-73.93771,40.768899],[-73.936795,40.768901],[-73.936347,40.769501],[-73.935275,40.76963],[-73.934747,40.77038],[-73.935247,40.770652]],[[-73.934847,40.77131],[-73.934911,40.77145],[-73.934803,40.771421],[-73.934847,40.77131]]]}},{"type":"Feature","properties":{"id":31,"name":"Port of New York Anchorage Number 10","kind":"anchorage","source":"NOAA ENC Anchorage Areas (ENCDirect)"},"geometry":{"type":"Polygon","coordinates":[[[-73.859529,40.785523],[-73.858929,40.785567],[-73.85944,40.786194],[-73.85373,40.793938],[-73.86487,40.788908],[-73.872016,40.780343],[-73.870175,40.77949],[-73.865644,40.783882],[-73.860587,40.783883],[-73.862542,40.787271],[-73.861561,40.7876],[-73.859377,40.783837],[-73.858147,40.783857],[-73.857803,40.784286],[-73.857965,40.784687],[-73.858481,40.785219],[-73.859272,40.785109],[-73.859082,40.785425],[-73.859529,40.785523]],[[-73.868615,40.783614],[-73.868598,40.783786],[-73.868493,40.783705],[-73.868615,40.783614]]]}},{"type":"Feature","properties":{"id":32,"name":"Lower Bay, Raritan Bay, Sandy Hook Bay and Atlantic Ocean Anchorage Area Number 26","kind":"anchorage","source":"NOAA ENC Anchorage Areas (ENCDirect)"},"geometry":{"type":"Polygon","coordinates":[[[-74.126638,40.484842],[-74.126638,40.492742],[-74.168058,40.501861],[-74.171253,40.488195],[-74.126638,40.484842]]]}},{"type":"Feature","properties":{"id":33,"name":"Upper Bay Anchorage Area Number 20D","kind":"anchorage","source":"NOAA ENC Anchorage Areas (ENCDirect)"},"geometry":{"type":"Polygon","coordinates":[[[-74.051759,40.678586],[-74.043347,40.679082],[-74.040749,40.683096],[-74.046926,40.685752],[-74.051759,40.678586]]]}},{"type":"Feature","properties":{"id":34,"name":"Sandy Hook Bay Anchorage Number 27","kind":"anchorage","source":"NOAA ENC Anchorage Areas (ENCDirect)"},"geometry":{"type":"Polygon","coordinates":[[[-73.975915,40.408225],[-73.975086,40.404167],[-73.93625,40.404167],[-73.93625,40.447118],[-73.981105,40.478026],[-74.000157,40.481143],[-74.003731,40.480269],[-74.001741,40.476084],[-74.000439,40.474113],[-73.997274,40.471808],[-73.99459,40.470646],[-73.992753,40.468372],[-73.99006,40.463478],[-73.988409,40.459237],[-73.985578,40.453962],[-73.983538,40.44888],[-73.982537,40.442116],[-73.983152,40.4346],[-73.981993,40.426296],[-73.981267,40.424396],[-73.981262,40.420158],[-73.979462,40.41725],[-73.978846,40.414266],[-73.975915,40.408225]]]}},{"type":"Feature","properties":{"id":35,"name":"Sandy Hook Bay Anchorage","kind":"anchorage","source":"NOAA ENC Anchorage Areas (ENCDirect)"},"geometry":{"type":"Polygon","coordinates":[[[-73.981275,40.424435],[-73.981167,40.419887],[-73.979436,40.417165],[-73.978812,40.41416],[-73.975921,40.408228],[-73.975124,40.405327],[-73.974937,40.395954],[-73.91526,40.396059],[-73.915441,40.432653],[-73.981021,40.478123],[-74.00032,40.481203],[-74.003635,40.480108],[-74.001753,40.476106],[-74.000496,40.474177],[-73.997029,40.471662],[-73.99457,40.470629],[-73.992394,40.467826],[-73.989685,40.462696],[-73.988084,40.458497],[-73.985544,40.453872],[-73.983542,40.44891],[-73.982548,40.441835],[-73.983151,40.434643],[-73.982015,40.426419],[-73.981275,40.424435]]]}},{"type":"Feature","properties":{"id":36,"name":"Raritan River Channel (maintained channel)","kind":"channel","source":"NOAA ENC Coastal Maintained Channels (ENCDirect)"},"geometry":{"type":"Polygon","coordinates":[[[-74.26052,40.484162],[-74.282786,40.496599],[-74.28547,40.500252],[-74.286387,40.504021],[-74.287579,40.506117],[-74.288965,40.507257],[-74.293802,40.509732],[-74.297338,40.510643],[-74.302422,40.510334],[-74.306675,40.509066],[-74.31022,40.506496],[-74.311764,40.50655],[-74.312424,40.507319],[-74.308285,40.509528],[-74.303769,40.511172],[-74.29722,40.511573],[-74.294193,40.511038],[-74.28717,40.507419],[-74.285466,40.505135],[-74.284555,40.501385],[-74.283823,40.499809],[-74.282442,40.497991],[-74.280966,40.496737],[-74.260747,40.485415],[-74.259462,40.485101],[-74.249082,40.485212],[-74.247554,40.486588],[-74.246376,40.485233],[-74.245121,40.484379],[-74.26052,40.484162]],[[-74.280406,40.495899],[-74.281503,40.49642],[-74.280384,40.49586],[-74.280406,40.495899]]]}},{"type":"Feature","properties":{"id":37,"name":"Lower Bay , Raritan Bay Channel and Arthur Kill Channel (maintained channel)","kind":"channel","source":"NOAA ENC Coastal Maintained Channels (ENCDirect)"},"geometry":{"type":"MultiPolygon","coordinates":[[[[-74.258392,40.501997],[-74.26925,40.490089],[-74.27248,40.491874],[-74.269132,40.493247],[-74.262289,40.500754],[-74.259785,40.506755],[-74.260078,40.507794],[-74.25714,40.513254],[-74.249836,40.520741],[-74.249035,40.523174],[-74.253742,40.547132],[-74.251419,40.551024],[-74.242707,40.555918],[-74.234002,40.558385],[-74.221042,40.558562],[-74.219712,40.558863],[-74.216057,40.561321],[-74.212502,40.570281],[-74.211348,40.575021],[-74.209444,40.575041],[-74.210652,40.569942],[-74.215088,40.558752],[-74.217461,40.557145],[-74.232206,40.556938],[-74.234988,40.556537],[-74.241806,40.554606],[-74.248109,40.55107],[-74.251214,40.545894],[-74.2464,40.521369],[-74.255178,40.512387],[-74.25688,40.509161],[-74.257242,40.506022],[-74.256562,40.503658],[-74.254841,40.499971],[-74.257679,40.499956],[-74.258392,40.501997]]],[[[-74.238274,40.484052],[-74.240242,40.483547],[-74.242647,40.483547],[-74.244864,40.484179],[-74.246438,40.485154],[-74.250046,40.490039],[-74.250041,40.492879],[-74.247997,40.491751],[-74.242629,40.490044],[-74.238172,40.489745],[-74.232694,40.490558],[-74.229901,40.491716],[-74.207345,40.508695],[-74.205977,40.509128],[-74.193654,40.509637],[-74.190843,40.509421],[-74.174952,40.505942],[-74.175001,40.504158],[-74.184525,40.506278],[-74.195933,40.507251],[-74.203199,40.506915],[-74.209047,40.504903],[-74.230356,40.488923],[-74.232251,40.488271],[-74.23683,40.484807],[-74.238274,40.484052]],[[-74.247688,40.489168],[-74.245681,40.486354],[-74.244506,40.485461],[-74.242926,40.484859],[-74.241264,40.484681],[-74.238653,40.485238],[-74.234988,40.487863],[-74.238138,40.487395],[-74.243357,40.487805],[-74.247688,40.489168]]]]}},{"type":"Feature","properties":{"id":38,"name":"Arthur Kill Channel (maintained channel)","kind":"channel","source":"NOAA ENC Coastal Maintained Channels (ENCDirect)"},"geometry":{"type":"Polygon","coordinates":[[[-74.209429,40.574975],[-74.211352,40.575002],[-74.20775,40.589809],[-74.201355,40.597409],[-74.200843,40.600763],[-74.205608,40.606137],[-74.204357,40.617607],[-74.204474,40.622932],[-74.20334,40.630112],[-74.201889,40.633189],[-74.19859,40.635256],[-74.194769,40.640033],[-74.191239,40.642754],[-74.185094,40.646695],[-74.177131,40.647324],[-74.159238,40.647806],[-74.155572,40.646982],[-74.156281,40.646281],[-74.155726,40.643855],[-74.158665,40.645285],[-74.161027,40.645823],[-74.168228,40.645713],[-74.166591,40.645095],[-74.160063,40.641218],[-74.154747,40.641303],[-74.154285,40.64208],[-74.150683,40.640171],[-74.160383,40.640017],[-74.162419,40.640892],[-74.167428,40.644079],[-74.170654,40.645295],[-74.173626,40.64563],[-74.18259,40.645274],[-74.186623,40.643807],[-74.194636,40.637336],[-74.197143,40.634273],[-74.198843,40.633178],[-74.200637,40.631415],[-74.200962,40.630771],[-74.202211,40.622836],[-74.202455,40.617555],[-74.203446,40.608476],[-74.202214,40.604901],[-74.198567,40.600797],[-74.199075,40.597431],[-74.204983,40.590405],[-74.206278,40.587911],[-74.209429,40.574975]]]}},{"type":"Feature","properties":{"id":39,"name":"Lower Bay, Raritan Bay Channel (maintained channel)","kind":"channel","source":"NOAA ENC Coastal Maintained Channels (ENCDirect)"},"geometry":{"type":"Polygon","coordinates":[[[-74.099951,40.487604],[-74.175011,40.504159],[-74.175048,40.505942],[-74.09999,40.489371],[-74.099951,40.487604]]]}},{"type":"Feature","properties":{"id":40,"name":"Sandy Hook and Raritan Bay Channels (maintained channel)","kind":"channel","source":"NOAA ENC Coastal Maintained Channels (ENCDirect)"},"geometry":{"type":"Polygon","coordinates":[[[-74.010419,40.481027],[-74.036628,40.472921],[-74.049788,40.475846],[-74.056486,40.477906],[-74.100011,40.487558],[-74.10005,40.489327],[-74.036775,40.475343],[-74.015903,40.481761],[-74.010419,40.481027]]]}},{"type":"Feature","properties":{"id":41,"name":"Sandy Hook Channel (maintained channel)","kind":"channel","source":"NOAA ENC Coastal Maintained Channels (ENCDirect)"},"geometry":{"type":"Polygon","coordinates":[[[-74.000687,40.482615],[-73.987727,40.485779],[-73.918646,40.444284],[-73.920493,40.442535],[-73.981622,40.479205],[-74.000687,40.482615]]]}},{"type":"Feature","properties":{"id":42,"name":"Port Newark Channel (maintained channel)","kind":"channel","source":"NOAA ENC Coastal Maintained Channels (ENCDirect)"},"geometry":{"type":"Polygon","coordinates":[[[-74.135639,40.689301],[-74.140209,40.694156],[-74.153693,40.698869],[-74.153044,40.699892],[-74.139208,40.695121],[-74.133381,40.688934],[-74.132294,40.688249],[-74.130747,40.686606],[-74.129256,40.686205],[-74.132137,40.681735],[-74.132179,40.684211],[-74.134896,40.687098],[-74.136007,40.686996],[-74.141708,40.680648],[-74.141692,40.67881],[-74.14417,40.679419],[-74.135639,40.689301]]]}},{"type":"Feature","properties":{"id":43,"name":"Newark Bay Channel (maintained channel)","kind":"channel","source":"NOAA ENC Coastal Maintained Channels (ENCDirect)"},"geometry":{"type":"Polygon","coordinates":[[[-74.148578,40.647366],[-74.147794,40.644301],[-74.155651,40.646948],[-74.149697,40.652167],[-74.147786,40.655277],[-74.149835,40.65792],[-74.148638,40.659011],[-74.136882,40.675852],[-74.134488,40.676664],[-74.132176,40.681808],[-74.131089,40.683499],[-74.120595,40.698806],[-74.119846,40.699419],[-74.119644,40.700187],[-74.121935,40.70148],[-74.121455,40.702428],[-74.118661,40.70248],[-74.120437,40.706644],[-74.11665,40.706555],[-74.115424,40.703087],[-74.118171,40.699171],[-74.119165,40.698585],[-74.1192,40.697655],[-74.126897,40.686621],[-74.133248,40.67225],[-74.148578,40.647366]]]}},{"type":"Feature","properties":{"id":44,"name":"Hackensack River Channel (maintained channel)","kind":"channel","source":"NOAA ENC Coastal Maintained Channels (ENCDirect)"},"geometry":{"type":"Polygon","coordinates":[[[-74.103804,40.717449],[-74.11391,40.71103],[-74.115096,40.709935],[-74.116218,40.708137],[-74.116634,40.706476],[-74.118153,40.70652],[-74.118115,40.707864],[-74.116191,40.710933],[-74.106274,40.71729],[-74.104665,40.718898],[-74.102657,40.721499],[-74.099359,40.727602],[-74.097201,40.732899],[-74.092915,40.737476],[-74.087559,40.739791],[-74.083411,40.74017],[-74.081996,40.740593],[-74.07887,40.742138],[-74.077336,40.743293],[-74.077332,40.743668],[-74.075939,40.745054],[-74.075392,40.747081],[-74.075755,40.748176],[-74.07932,40.749104],[-74.07946,40.750009],[-74.078976,40.750822],[-74.07803,40.751332],[-74.076108,40.750397],[-74.074702,40.748667],[-74.074174,40.747112],[-74.074847,40.744649],[-74.078057,40.741487],[-74.079736,40.740583],[-74.084015,40.73928],[-74.087213,40.738895],[-74.089552,40.738043],[-74.091036,40.73731],[-74.093478,40.7354],[-74.096545,40.731564],[-74.101632,40.721019],[-74.103804,40.717449]],[[-74.0988,40.727193],[-74.098725,40.727492],[-74.098905,40.727179],[-74.0988,40.727193]]]}},{"type":"Feature","properties":{"id":45,"name":"Port Jersey Channel (maintained channel)","kind":"channel","source":"NOAA ENC Coastal Maintained Channels (ENCDirect)"},"geometry":{"type":"Polygon","coordinates":[[[-74.057705,40.656107],[-74.068798,40.664484],[-74.086421,40.672032],[-74.085566,40.673135],[-74.0556,40.660352],[-74.057052,40.65813],[-74.057705,40.656107]]]}},{"type":"Feature","properties":{"id":46,"name":"Lower Bay - Ambrose Channel (maintained channel)","kind":"channel","source":"NOAA ENC Coastal Maintained Channels (ENCDirect)"},"geometry":{"type":"Polygon","coordinates":[[[-74.026832,40.537142],[-74.041275,40.588685],[-74.050212,40.611303],[-74.043217,40.612762],[-74.0342,40.590087],[-74.020017,40.539448],[-74.009441,40.528111],[-73.874982,40.475769],[-73.874954,40.469538],[-74.014327,40.523742],[-74.026832,40.537142]]]}},{"type":"Feature","properties":{"id":47,"name":"Newtown Creek Channel (maintained channel)","kind":"channel","source":"NOAA ENC Coastal Maintained Channels (ENCDirect)"},"geometry":{"type":"Polygon","coordinates":[[[-73.931359,40.714078],[-73.93189,40.7151],[-73.929494,40.715733],[-73.929308,40.716021],[-73.929723,40.716955],[-73.929566,40.717219],[-73.924495,40.71865],[-73.924889,40.720625],[-73.926384,40.721978],[-73.927459,40.72439],[-73.927726,40.725979],[-73.92928,40.727526],[-73.936984,40.729223],[-73.939761,40.731093],[-73.941084,40.734222],[-73.942438,40.735559],[-73.952083,40.738904],[-73.953816,40.739213],[-73.957072,40.738972],[-73.965125,40.734915],[-73.964803,40.736082],[-73.95767,40.739345],[-73.953766,40.739671],[-73.951922,40.739344],[-73.942108,40.735936],[-73.940708,40.734647],[-73.939277,40.731349],[-73.936715,40.729631],[-73.929419,40.728185],[-73.928884,40.727858],[-73.927244,40.726224],[-73.924309,40.720851],[-73.923858,40.718712],[-73.922637,40.717093],[-73.922363,40.716038],[-73.923967,40.71538],[-73.924204,40.715114],[-73.923833,40.714272],[-73.924379,40.71427],[-73.924807,40.715198],[-73.924332,40.715728],[-73.923064,40.71627],[-73.92322,40.716862],[-73.924202,40.717928],[-73.928821,40.716949],[-73.929008,40.716662],[-73.92874,40.715472],[-73.930923,40.714899],[-73.931082,40.714479],[-73.930498,40.713199],[-73.932013,40.712788],[-73.930519,40.709443],[-73.930905,40.709289],[-73.93259,40.712987],[-73.931387,40.713344],[-73.931359,40.714078]],[[-73.92279,40.716818],[-73.922647,40.716227],[-73.922609,40.716232],[-73.92279,40.716818]]]}},{"type":"Feature","properties":{"id":48,"name":"South Brother Island Channel (maintained channel)","kind":"channel","source":"NOAA ENC Coastal Maintained Channels (ENCDirect)"},"geometry":{"type":"Polygon","coordinates":[[[-73.894773,40.784584],[-73.897038,40.787424],[-73.89691,40.787791],[-73.895215,40.788571],[-73.894751,40.797406],[-73.896087,40.80266],[-73.890817,40.800651],[-73.89321,40.797298],[-73.893665,40.788637],[-73.891018,40.785279],[-73.893141,40.784283],[-73.894773,40.784584]]]}},{"type":"Feature","properties":{"id":49,"name":"Flushing Bay (maintained channel)","kind":"channel","source":"NOAA ENC Coastal Maintained Channels (ENCDirect)"},"geometry":{"type":"Polygon","coordinates":[[[-73.849818,40.761197],[-73.852893,40.760064],[-73.853293,40.760287],[-73.853388,40.760902],[-73.84958,40.763374],[-73.850127,40.765764],[-73.862558,40.787319],[-73.861518,40.787625],[-73.848362,40.764987],[-73.84577,40.764032],[-73.844781,40.764303],[-73.847614,40.762282],[-73.847855,40.762437],[-73.849818,40.761197]]]}},{"type":"Feature","properties":{"id":50,"name":"Lower Bay, Raritan Bay Channel and Arthur Kill Channel (maintained channel)","kind":"channel","source":"NOAA ENC Coastal Maintained Channels (ENCDirect)"},"geometry":{"type":"Polygon","coordinates":[[[-74.249951,40.490049],[-74.251449,40.490882],[-74.257688,40.500038],[-74.254843,40.50003],[-74.254072,40.498419],[-74.250472,40.493182],[-74.249956,40.492874],[-74.249951,40.490049]]]}},{"type":"Feature","properties":{"id":51,"name":"Navy Terminal Channel (maintained channel)","kind":"channel","source":"NOAA ENC Coastal Maintained Channels (ENCDirect)"},"geometry":{"type":"Polygon","coordinates":[[[-74.045375,40.461944],[-74.037642,40.473229],[-74.036624,40.473023],[-74.027778,40.47571],[-74.038923,40.468874],[-74.044023,40.461392],[-74.045375,40.461944]]]}},{"type":"Feature","properties":{"id":52,"name":"Port Elizabeth Branch Reach Channel (maintained channel)","kind":"channel","source":"NOAA ENC Coastal Maintained Channels (ENCDirect)"},"geometry":{"type":"Polygon","coordinates":[[[-74.138212,40.673967],[-74.159738,40.687293],[-74.159755,40.68736],[-74.158828,40.688617],[-74.144128,40.679511],[-74.141703,40.678892],[-74.136792,40.675824],[-74.138212,40.673967]]]}},{"type":"Feature","properties":{"id":53,"name":"Kill Van Kull Channel (maintained channel)","kind":"channel","source":"NOAA ENC Coastal Maintained Channels (ENCDirect)"},"geometry":{"type":"Polygon","coordinates":[[[-74.155433,40.642556],[-74.156386,40.646301],[-74.155604,40.646991],[-74.147788,40.644395],[-74.144822,40.642825],[-74.133706,40.644677],[-74.130661,40.644296],[-74.12571,40.64434],[-74.121759,40.644908],[-74.110595,40.648748],[-74.099118,40.648131],[-74.095592,40.648338],[-74.092328,40.649356],[-74.08474,40.652916],[-74.074378,40.652633],[-74.059645,40.649444],[-74.061286,40.644036],[-74.077178,40.649265],[-74.08206,40.649727],[-74.086899,40.649216],[-74.092711,40.646486],[-74.097097,40.645722],[-74.107187,40.646264],[-74.11268,40.645516],[-74.120868,40.6427],[-74.128143,40.641656],[-74.131848,40.642119],[-74.135378,40.642046],[-74.147783,40.639958],[-74.150734,40.640167],[-74.155433,40.642556]]]}},{"type":"Feature","properties":{"id":54,"name":"Main Ship Channel (maintained channel)","kind":"channel","source":"NOAA ENC Coastal Maintained Channels (ENCDirect)"},"geometry":{"type":"Polygon","coordinates":[[[-74.040104,40.521393],[-74.046115,40.477372],[-74.046171,40.477329],[-74.049722,40.47816],[-74.043765,40.521804],[-74.033551,40.56139],[-74.031583,40.554459],[-74.040104,40.521393]]]}},{"type":"Feature","properties":{"id":55,"name":"Passaic River Channel (maintained channel)","kind":"channel","source":"NOAA ENC Coastal Maintained Channels (ENCDirect)"},"geometry":{"type":"Polygon","coordinates":[[[-74.120754,40.722393],[-74.121885,40.717495],[-74.121722,40.712401],[-74.119234,40.706537],[-74.120436,40.706588],[-74.122895,40.712228],[-74.123065,40.717583],[-74.121805,40.723028],[-74.118853,40.730583],[-74.117706,40.730537],[-74.120471,40.723262],[-74.121104,40.723298],[-74.121465,40.722667],[-74.120754,40.722393]]]}},{"type":"Feature","properties":{"id":56,"name":"Ambrose Channel (maintained channel)","kind":"channel","source":"NOAA ENC Coastal Maintained Channels (ENCDirect)"},"geometry":{"type":"Polygon","coordinates":[[[-73.875018,40.46951],[-73.875001,40.475772],[-73.829785,40.458075],[-73.833119,40.453153],[-73.875018,40.46951]]]}},{"type":"Feature","properties":{"id":57,"name":"Verrazzano-Narrows Bridge span (approx.)","kind":"gate","source":"hand-drawn, approximate (not an official boundary)"},"geometry":{"type":"Polygon","coordinates":[[[-74.032,40.602],[-74.032,40.611],[-74.062,40.611],[-74.062,40.602],[-74.032,40.602]]]}},{"type":"Feature","properties":{"id":58,"name":"Port Newark-Elizabeth terminals (approx.)","kind":"terminal","source":"hand-drawn, approximate (not an official boundary)"},"geometry":{"type":"Polygon","coordinates":[[[-74.135,40.665],[-74.135,40.705],[-74.175,40.705],[-74.175,40.665],[-74.135,40.665]]]}},{"type":"Feature","properties":{"id":59,"name":"Red Hook container terminal (approx.)","kind":"terminal","source":"hand-drawn, approximate (not an official boundary)"},"geometry":{"type":"Polygon","coordinates":[[[-74.008,40.672],[-74.008,40.684],[-74.022,40.684],[-74.022,40.672],[-74.008,40.672]]]}},{"type":"Feature","properties":{"id":60,"name":"Bayonne-Port Jersey terminals (approx.)","kind":"terminal","source":"hand-drawn, approximate (not an official boundary)"},"geometry":{"type":"Polygon","coordinates":[[[-74.052,40.645],[-74.052,40.68],[-74.085,40.68],[-74.085,40.645],[-74.052,40.645]]]}},{"type":"Feature","properties":{"id":61,"name":"Statue of Liberty / Ellis Island tour area (approx.)","kind":"tourist","source":"hand-drawn, approximate (not an official boundary)"},"geometry":{"type":"Polygon","coordinates":[[[-74.032,40.682],[-74.032,40.696],[-74.057,40.696],[-74.057,40.682],[-74.032,40.682]]]}},{"type":"Feature","properties":{"id":62,"name":"Staten Island Ferry lane, St George-Whitehall (approx.)","kind":"ferry","source":"hand-drawn, approximate (not an official boundary)"},"geometry":{"type":"Polygon","coordinates":[[[-74.014048,40.702192],[-74.013824,40.702382],[-74.013581,40.702549],[-74.013324,40.702692],[-74.013053,40.702809],[-74.012773,40.702899],[-74.012485,40.70296],[-74.012193,40.702994],[-74.011898,40.702998],[-74.011605,40.702974],[-74.011315,40.702921],[-74.011032,40.70284],[-74.010759,40.702731],[-74.010497,40.702596],[-74.01025,40.702437],[-74.010019,40.702253],[-74.009808,40.702048],[-74.009618,40.701824],[-74.009451,40.701581],[-74.009308,40.701324],[-74.009191,40.701053],[-74.009101,40.700773],[-74.00904,40.700485],[-74.009006,40.700193],[-74.009002,40.699898],[-74.009026,40.699605],[-74.009079,40.699315],[-74.00916,40.699032],[-74.009269,40.698759],[-74.009404,40.698497],[-74.009563,40.69825],[-74.009747,40.698019],[-74.009952,40.697808],[-74.070952,40.640808],[-74.071176,40.640618],[-74.071419,40.640451],[-74.071676,40.640308],[-74.071947,40.640191],[-74.072227,40.640101],[-74.072515,40.64004],[-74.072807,40.640006],[-74.073102,40.640002],[-74.073395,40.640026],[-74.073685,40.640079],[-74.073968,40.64016],[-74.074241,40.640269],[-74.074503,40.640404],[-74.07475,40.640563],[-74.074981,40.640747],[-74.075192,40.640952],[-74.075382,40.641176],[-74.075549,40.641419],[-74.075692,40.641676],[-74.075809,40.641947],[-74.075899,40.642227],[-74.07596,40.642515],[-74.075994,40.642807],[-74.075998,40.643102],[-74.075974,40.643395],[-74.075921,40.643685],[-74.07584,40.643968],[-74.075731,40.644241],[-74.075596,40.644503],[-74.075437,40.64475],[-74.075253,40.644981],[-74.075048,40.645192],[-74.014048,40.702192]]]}}]}