{"type":"FeatureCollection","features":[{"type":"Feature","properties":{"name":"City of Chicago","areaKm2":597.694},"geometry":{"type":"MultiPolygon","coordinates":[[[[-87.69661,41.68798],[-87.69947,41.68793],[-87.6994,41.68615],[-87.70062,41.68614],[-87.70055,41.68426],[-87.70542,41.68419],[-87.70528,41.68058],[-87.70993,41.68055],[-87.71013,41.68046],[-87.71136,41.68044],[-87.71139,41.68127],[-87.71158,41.68127],[-87.7116,41.68183],[-87.71141,41.68184],[-87.71151,41.68409],[-87.72728,41.68386],[-87.73945,41.68363],[-87.73974,41.69086],[-87.73639,41.69103],[-87.72053,41.69132],[-87.72032,41.69128],[-87.72088,41.70501],[-87.72113,41.71317],[-87.71258,41.7133],[-87.71252,41.71147],[-87.7113,41.71149],[-87.71112,41.70607],[-87.70132,41.70618],[-87.70137,41.70705],[-87.7012,41.70708],[-87.69152,41.7072],[-87.69173,41.71357],[-87.68184,41.71366],[-87.68251,41.73553],[-87.71278,41.73502],[-87.72596,41.73478],[-87.72716,41.73473],[-87.74107,41.73452],[-87.74095,41.73556],[-87.74093,41.73687],[-87.7412,41.74433],[-87.74132,41.74872],[-87.74139,41.74952],[-87.7415,41.75267],[-87.74153,41.7547],[-87.74187,41.76297],[-87.74203,41.7704],[-87.74217,41.77478],[-87.7819,41.774],[-87.80081,41.7737],[-87.80082,41.77405],[-87.80078,41.7742],[-87.80085,41.77634],[-87.80089,41.77657],[-87.80087,41.77695],[-87.80101,41.77913],[-87.80102,41.78022],[-87.80154,41.7922],[-87.80162,41.79481],[-87.80163,41.798],[-87.79719,41.7994],[-87.79462,41.79946],[-87.79282,41.79946],[-87.78794,41.79961],[-87.78179,41.79967],[-87.77566,41.79979],[-87.77208,41.79989],[-87.76428,41.80005],[-87.76223,41.80005],[-87.75274,41.80019],[-87.75308,41.81331],[-87.74465,41.81596],[-87.74476,41.82203],[-87.73849,41.82212],[-87.73881,41.83673],[-87.73893,41.83672],[-87.73899,41.83855],[-87.73911,41.83855],[-87.73998,41.86596],[-87.77414,41.86546],[-87.77427,41.86925],[-87.77428,41.87073],[-87.77442,41.873],[-87.7756,41.90925],[-87.80257,41.90893],[-87.80575,41.90884],[-87.80662,41.93451],[-87.81639,41.93431],[-87.81652,41.93794],[-87.84962,41.93729],[-87.85019,41.93775],[-87.85066,41.93808],[-87.85141,41.9387],[-87.85164,41.93895],[-87.85181,41.93917],[-87.85211,41.93979],[-87.85253,41.94126],[-87.85308,41.9426],[-87.8531,41.94288],[-87.85302,41.94311],[-87.85301,41.94335],[-87.85326,41.94376],[-87.85358,41.94504],[-87.85382,41.94584],[-87.85408,41.94656],[-87.85487,41.9478],[-87.85498,41.94803],[-87.85502,41.94863],[-87.85494,41.94948],[-87.85433,41.95073],[-87.85407,41.95145],[-87.84661,41.95164],[-87.8466,41.95569],[-87.85808,41.95544],[-87.85825,41.95558],[-87.85845,41.95586],[-87.85859,41.95614],[-87.85878,41.95693],[-87.85876,41.95742],[-87.85868,41.95761],[-87.85813,41.95834],[-87.85758,41.95919],[-87.85742,41.95956],[-87.85703,41.9602],[-87.8563,41.96159],[-87.85582,41.96241],[-87.85568,41.96284],[-87.85551,41.96446],[-87.8553,41.96512],[-87.85497,41.96595],[-87.85487,41.96636],[-87.85477,41.96691],[-87.85478,41.9672],[-87.85498,41.96793],[-87.85504,41.96833],[-87.85503,41.96871],[-87.85478,41.96943],[-87.85432,41.9703],[-87.85417,41.97078],[-87.85413,41.97117],[-87.85427,41.97162],[-87.85447,41.9719],[-87.8546,41.97204],[-87.85516,41.97246],[-87.85536,41.97252],[-87.85584,41.97259],[-87.85606,41.97258],[-87.85659,41.97246],[-87.85746,41.97215],[-87.85783,41.97197],[-87.85839,41.97161],[-87.85868,41.97147],[-87.8588,41.97143],[-87.85903,41.97143],[-87.85941,41.9715],[-87.85975,41.9716],[-87.86043,41.97193],[-87.86134,41.97261],[-87.8617,41.97299],[-87.8619,41.97332],[-87.86883,41.97317],[-87.86989,41.97312],[-87.88077,41.97285],[-87.88084,41.9655],[-87.88079,41.9572],[-87.88163,41.95711],[-87.88383,41.95736],[-87.88385,41.9573],[-87.88563,41.95754],[-87.88563,41.95749],[-87.89027,41.9581],[-87.8929,41.95805],[-87.89288,41.95079],[-87.90378,41.95062],[-87.9123,41.95237],[-87.91228,41.95143],[-87.91473,41.95203],[-87.9148,41.95471],[-87.91496,41.95583],[-87.91523,41.95684],[-87.91578,41.95713],[-87.91656,41.9574],[-87.91727,41.95755],[-87.92,41.95801],[-87.92,41.95815],[-87.92038,41.9582],[-87.92217,41.95838],[-87.92217,41.95387],[-87.92475,41.9545],[-87.92635,41.95486],[-87.92636,41.95902],[-87.93208,41.95994],[-87.93225,41.9648],[-87.93477,41.9648],[-87.93476,41.96682],[-87.9368,41.96541],[-87.93813,41.96428],[-87.93972,41.96428],[-87.93971,41.97864],[-87.93982,41.9878],[-87.93993,41.99349],[-87.9388,41.99353],[-87.93865,41.99425],[-87.93839,41.99518],[-87.93792,41.9964],[-87.93762,41.99703],[-87.93708,41.99797],[-87.93653,41.99879],[-87.93591,41.9996],[-87.93541,42.00017],[-87.93429,42.00124],[-87.93377,42.00166],[-87.9304,42.00413],[-87.93036,42.00221],[-87.92546,42.00226],[-87.92545,42.00105],[-87.92052,42.00113],[-87.92052,42.0012],[-87.92044,42.0012],[-87.92051,42.00495],[-87.91377,42.00507],[-87.91377,42.0087],[-87.91331,42.00872],[-87.91331,42.00626],[-87.91303,42.00627],[-87.91303,42.00509],[-87.91134,42.00512],[-87.91133,42.0051],[-87.90767,42.00525],[-87.90768,42.00892],[-87.90575,42.00899],[-87.90238,42.00809],[-87.90238,42.00792],[-87.89916,42.00705],[-87.89835,42.00679],[-87.89718,42.00633],[-87.89598,42.00578],[-87.89598,42.00565],[-87.89576,42.00565],[-87.89576,42.00588],[-87.89531,42.00567],[-87.89429,42.0057],[-87.89435,42.00271],[-87.89355,42.00274],[-87.89358,42.00333],[-87.89323,42.00334],[-87.89326,42.00394],[-87.89189,42.00399],[-87.89,42.00323],[-87.89026,42.00285],[-87.89038,42.00285],[-87.89039,42.0023],[-87.89436,42.00217],[-87.89436,42.00206],[-87.89924,42.0019],[-87.90241,42.00361],[-87.9024,42.00403],[-87.90406,42.00397],[-87.90406,42.00356],[-87.90312,42.00342],[-87.89954,42.00148],[-87.89744,42.00155],[-87.89746,42.00053],[-87.89297,41.99991],[-87.89081,41.99957],[-87.89075,41.99961],[-87.8894,41.99939],[-87.8873,41.99898],[-87.88496,41.99846],[-87.88496,41.9983],[-87.88453,41.9982],[-87.88454,41.9951],[-87.88035,41.99523],[-87.87691,41.98567],[-87.87586,41.9857],[-87.87586,41.98294],[-87.87489,41.98025],[-87.87502,41.98024],[-87.87373,41.97666],[-87.87588,41.9766],[-87.87589,41.97388],[-87.87301,41.97395],[-87.87298,41.97386],[-87.87258,41.97387],[-87.87265,41.97396],[-87.8686,41.97405],[-87.86861,41.9738],[-87.86784,41.97382],[-87.86784,41.97398],[-87.86749,41.97399],[-87.86749,41.97373],[-87.86201,41.97386],[-87.86201,41.97431],[-87.86176,41.97517],[-87.86155,41.97556],[-87.86124,41.976],[-87.86067,41.97654],[-87.85996,41.97699],[-87.85938,41.97757],[-87.85846,41.97866],[-87.85627,41.98046],[-87.85588,41.9811],[-87.85578,41.9817],[-87.85578,41.98216],[-87.85597,41.9828],[-87.85623,41.98348],[-87.85664,41.98432],[-87.85664,41.98466],[-87.85631,41.98615],[-87.85558,41.98774],[-87.85554,41.98794],[-87.85568,41.98866],[-87.85584,41.98905],[-87.85461,41.98872],[-87.85386,41.98862],[-87.85161,41.98851],[-87.8499,41.98835],[-87.8444,41.98752],[-87.84399,41.98748],[-87.83892,41.98673],[-87.83747,41.98649],[-87.83658,41.9864],[-87.82333,41.98451],[-87.82216,41.99311],[-87.82181,41.99522],[-87.8214,41.99692],[-87.82132,42.00748],[-87.82125,42.01136],[-87.81973,42.01139],[-87.81973,42.01193],[-87.8201,42.01193],[-87.82007,42.01557],[-87.82123,42.01554],[-87.82121,42.01864],[-87.80655,42.01896],[-87.80676,42.00084],[-87.80539,42.00086],[-87.80531,42.0009],[-87.80529,42.0015],[-87.80108,42.00154],[-87.80109,42.00087],[-87.79966,42.00087],[-87.79948,41.99999],[-87.79714,42.00001],[-87.79712,42.00094],[-87.79117,42.00098],[-87.79065,42.0004],[-87.782,42.0045],[-87.78255,42.00489],[-87.7831,42.00542],[-87.78872,42.012],[-87.78109,42.01201],[-87.77927,42.01199],[-87.77915,42.01357],[-87.7791,42.01544],[-87.77697,42.01539],[-87.77705,42.01198],[-87.77335,42.01196],[-87.77036,42.00619],[-87.76995,42.00638],[-87.76917,42.00486],[-87.76785,42.00425],[-87.76772,42.00423],[-87.76579,42.00333],[-87.76547,42.00374],[-87.76754,42.00471],[-87.76746,42.00832],[-87.76166,42.00827],[-87.76186,42.00354],[-87.76195,42.00266],[-87.76227,42.00169],[-87.75865,42.00002],[-87.7529,41.9973],[-87.74094,41.99725],[-87.72903,41.99724],[-87.71603,41.99729],[-87.70945,41.99739],[-87.70948,42.00452],[-87.70932,42.01054],[-87.70918,42.01195],[-87.70901,42.01913],[-87.68999,42.01953],[-87.67312,42.01939],[-87.67624,42.02193],[-87.67706,42.02304],[-87.66513,42.02295],[-87.66527,42.02275],[-87.66527,42.02262],[-87.66505,42.02236],[-87.66479,42.02222],[-87.66463,42.02187],[-87.66465,42.02179],[-87.66472,42.02173],[-87.66465,42.02161],[-87.66419,42.02125],[-87.66401,42.02133],[-87.66381,42.02045],[-87.66374,42.02039],[-87.66375,42.02035],[-87.66393,42.02032],[-87.66388,42.02018],[-87.66401,42.02018],[-87.66385,42.01966],[-87.66393,42.01964],[-87.66388,42.01952],[-87.66364,42.0195],[-87.66364,42.01937],[-87.66383,42.01936],[-87.66387,42.01933],[-87.66387,42.0192],[-87.66397,42.01919],[-87.66398,42.01908],[-87.66372,42.01874],[-87.66357,42.01863],[-87.66342,42.01862],[-87.66336,42.01858],[-87.66328,42.01843],[-87.66328,42.01832],[-87.66333,42.0183],[-87.66333,42.01815],[-87.66341,42.01815],[-87.66329,42.01792],[-87.66327,42.01776],[-87.66314,42.01772],[-87.66313,42.01729],[-87.66319,42.01729],[-87.66315,42.01717],[-87.66302,42.01715],[-87.66299,42.01709],[-87.66309,42.01685],[-87.66301,42.01674],[-87.66281,42.01665],[-87.66272,42.01619],[-87.66255,42.01605],[-87.66254,42.01595],[-87.66258,42.01586],[-87.66247,42.01543],[-87.66222,42.01511],[-87.66217,42.01498],[-87.66209,42.01496],[-87.662,42.01458],[-87.6619,42.01443],[-87.66178,42.01404],[-87.6617,42.01397],[-87.66157,42.01373],[-87.6615,42.01347],[-87.66162,42.01332],[-87.6615,42.01312],[-87.66133,42.01295],[-87.66125,42.01277],[-87.66119,42.01277],[-87.66118,42.01259],[-87.66094,42.01224],[-87.66094,42.01221],[-87.66107,42.01217],[-87.66103,42.01205],[-87.66079,42.01175],[-87.66038,42.01145],[-87.66015,42.01124],[-87.66014,42.01122],[-87.66028,42.01116],[-87.66012,42.01098],[-87.65922,42.01024],[-87.6589,42.00985],[-87.65889,42.00978],[-87.65895,42.00976],[-87.65884,42.00975],[-87.65879,42.00971],[-87.65866,42.00954],[-87.65831,42.00924],[-87.65752,42.00845],[-87.65698,42.008],[-87.65674,42.00768],[-87.65646,42.00742],[-87.65537,42.00671],[-87.6551,42.00692],[-87.65506,42.0069],[-87.65584,42.00631],[-87.65739,42.00628],[-87.65742,42.00562],[-87.65731,42.00507],[-87.65707,42.00462],[-87.65702,42.00459],[-87.65703,42.00453],[-87.65697,42.00442],[-87.65682,42.00424],[-87.65671,42.00422],[-87.65729,42.00421],[-87.65729,42.00392],[-87.65724,42.00371],[-87.65711,42.00356],[-87.65698,42.0032],[-87.65701,42.00313],[-87.65692,42.00295],[-87.65687,42.00252],[-87.65656,42.00212],[-87.65645,42.00206],[-87.65604,42.00122],[-87.65597,42.00093],[-87.65604,42.00079],[-87.65601,42.00066],[-87.65562,41.99955],[-87.65531,41.99911],[-87.65521,41.99906],[-87.65483,41.9985],[-87.6546,41.99824],[-87.6545,41.99799],[-87.65443,41.99759],[-87.65444,41.99728],[-87.65426,41.99599],[-87.65432,41.99597],[-87.65435,41.99608],[-87.65445,41.99609],[-87.65464,41.99604],[-87.65464,41.99568],[-87.65448,41.99537],[-87.65448,41.99513],[-87.65456,41.99496],[-87.6546,41.99453],[-87.65439,41.99453],[-87.65436,41.9943],[-87.65428,41.99421],[-87.65428,41.99388],[-87.65443,41.99386],[-87.65451,41.99366],[-87.65447,41.99363],[-87.65445,41.99346],[-87.65451,41.99346],[-87.6545,41.99336],[-87.65429,41.99308],[-87.6541,41.99305],[-87.65409,41.99301],[-87.6543,41.99181],[-87.65432,41.991],[-87.65441,41.99099],[-87.65438,41.99092],[-87.65424,41.99087],[-87.65419,41.99022],[-87.65423,41.99015],[-87.6543,41.99013],[-87.65421,41.98998],[-87.65423,41.98953],[-87.6542,41.98946],[-87.65423,41.98853],[-87.6543,41.9885],[-87.65431,41.98841],[-87.65354,41.98757],[-87.65309,41.9873],[-87.65106,41.98576],[-87.65074,41.98563],[-87.65014,41.98551],[-87.64989,41.98542],[-87.6494,41.9864],[-87.64935,41.98639],[-87.65037,41.98434],[-87.65062,41.98352],[-87.65068,41.98319],[-87.65074,41.98248],[-87.65067,41.98066],[-87.65059,41.98035],[-87.65022,41.97972],[-87.65038,41.97962],[-87.65048,41.97946],[-87.65028,41.97939],[-87.64988,41.97901],[-87.64877,41.97815],[-87.64865,41.978],[-87.6486,41.97784],[-87.64729,41.97775],[-87.64682,41.97756],[-87.64669,41.97747],[-87.64614,41.97784],[-87.64611,41.97781],[-87.64666,41.97744],[-87.64648,41.97723],[-87.64639,41.97705],[-87.64636,41.97684],[-87.64623,41.97322],[-87.64601,41.9725],[-87.64532,41.97125],[-87.64503,41.9708],[-87.64424,41.96983],[-87.64367,41.96924],[-87.64263,41.96835],[-87.64274,41.96827],[-87.64301,41.96849],[-87.64327,41.96831],[-87.64297,41.96806],[-87.6428,41.96805],[-87.64262,41.96817],[-87.64267,41.96822],[-87.64256,41.9683],[-87.64153,41.96752],[-87.64049,41.96692],[-87.639,41.96657],[-87.63743,41.96604],[-87.63644,41.96578],[-87.63587,41.96567],[-87.63509,41.96554],[-87.6341,41.96548],[-87.63298,41.96536],[-87.63199,41.96507],[-87.63202,41.96562],[-87.63198,41.96608],[-87.63184,41.96669],[-87.63169,41.96711],[-87.63147,41.96757],[-87.63097,41.96838],[-87.63097,41.9685],[-87.63106,41.96866],[-87.63123,41.96876],[-87.63139,41.96879],[-87.63154,41.96878],[-87.63168,41.96874],[-87.63188,41.96855],[-87.6319,41.96843],[-87.63187,41.96832],[-87.63175,41.96819],[-87.63182,41.96815],[-87.63192,41.96825],[-87.63198,41.96841],[-87.63197,41.96854],[-87.63187,41.9687],[-87.63168,41.96881],[-87.63146,41.96886],[-87.63123,41.96883],[-87.63101,41.96872],[-87.63087,41.9685],[-87.63091,41.96829],[-87.63117,41.96793],[-87.63157,41.96717],[-87.6318,41.96653],[-87.63189,41.96608],[-87.63193,41.96562],[-87.63191,41.9651],[-87.63181,41.96449],[-87.63167,41.96404],[-87.63141,41.96387],[-87.63122,41.96368],[-87.63104,41.9634],[-87.631,41.96323],[-87.63101,41.96298],[-87.63107,41.96284],[-87.63131,41.96255],[-87.63153,41.96241],[-87.63173,41.96232],[-87.63206,41.96224],[-87.63251,41.96208],[-87.63289,41.96191],[-87.63339,41.96177],[-87.63369,41.96164],[-87.63385,41.96153],[-87.63422,41.96138],[-87.63448,41.96122],[-87.63485,41.96091],[-87.63529,41.96046],[-87.63599,41.9599],[-87.63664,41.95954],[-87.6369,41.95946],[-87.63746,41.95937],[-87.63794,41.95934],[-87.63895,41.95942],[-87.6401,41.95967],[-87.6403,41.95919],[-87.64037,41.95921],[-87.64016,41.95969],[-87.64047,41.95978],[-87.6408,41.95998],[-87.64094,41.96023],[-87.64097,41.96037],[-87.64095,41.96049],[-87.64074,41.96079],[-87.64051,41.96088],[-87.64038,41.9609],[-87.64026,41.96089],[-87.64012,41.96083],[-87.63932,41.9604],[-87.63882,41.96029],[-87.63847,41.96028],[-87.63764,41.9604],[-87.63703,41.9606],[-87.63639,41.96094],[-87.63607,41.96117],[-87.63583,41.96138],[-87.63544,41.96187],[-87.63535,41.96204],[-87.63533,41.96231],[-87.63537,41.96243],[-87.63551,41.96261],[-87.63573,41.96277],[-87.63592,41.96284],[-87.63631,41.96289],[-87.63685,41.96288],[-87.63791,41.96275],[-87.63789,41.96269],[-87.63836,41.96264],[-87.63838,41.9627],[-87.64119,41.96235],[-87.64146,41.96229],[-87.64185,41.9621],[-87.64206,41.96191],[-87.64217,41.96176],[-87.64228,41.96152],[-87.6423,41.96137],[-87.6422,41.96096],[-87.64195,41.96068],[-87.64167,41.96044],[-87.64153,41.96018],[-87.64161,41.95939],[-87.64102,41.95935],[-87.64103,41.9593],[-87.64163,41.95933],[-87.64175,41.95836],[-87.64162,41.95784],[-87.64153,41.95715],[-87.64129,41.95586],[-87.64102,41.9548],[-87.64085,41.95425],[-87.64078,41.95418],[-87.64059,41.95361],[-87.64049,41.9536],[-87.63984,41.95202],[-87.63864,41.94943],[-87.63791,41.94801],[-87.63755,41.94743],[-87.63625,41.94576],[-87.63584,41.94531],[-87.63471,41.94414],[-87.63305,41.94262],[-87.633,41.94248],[-87.63303,41.94233],[-87.63315,41.94221],[-87.63345,41.94214],[-87.63364,41.94218],[-87.63384,41.94232],[-87.63406,41.94291],[-87.63427,41.94311],[-87.63449,41.94319],[-87.63469,41.94321],[-87.6349,41.94316],[-87.63536,41.94292],[-87.63548,41.9429],[-87.63573,41.94291],[-87.6359,41.94297],[-87.63607,41.9431],[-87.63618,41.94324],[-87.63696,41.9449],[-87.63682,41.94505],[-87.63731,41.94575],[-87.63742,41.94582],[-87.6387,41.9462],[-87.63868,41.94624],[-87.63889,41.94631],[-87.63964,41.94633],[-87.63979,41.94636],[-87.63997,41.94645],[-87.64002,41.9464],[-87.64026,41.94652],[-87.6401,41.94672],[-87.6402,41.94676],[-87.64027,41.9467],[-87.64041,41.94683],[-87.64089,41.94743],[-87.64103,41.94755],[-87.64143,41.94781],[-87.64187,41.948],[-87.64201,41.94801],[-87.64211,41.94797],[-87.64213,41.94786],[-87.64202,41.94768],[-87.64163,41.94728],[-87.6401,41.94601],[-87.64003,41.94591],[-87.64004,41.94577],[-87.6402,41.94552],[-87.64012,41.94538],[-87.6402,41.94529],[-87.64041,41.94524],[-87.6405,41.94506],[-87.64046,41.94483],[-87.63959,41.9436],[-87.63933,41.94352],[-87.63911,41.94337],[-87.63897,41.94325],[-87.63867,41.94286],[-87.63851,41.94251],[-87.63843,41.94212],[-87.6384,41.94143],[-87.63835,41.94129],[-87.63826,41.94114],[-87.63754,41.94028],[-87.63712,41.93983],[-87.63704,41.93981],[-87.63695,41.94026],[-87.63673,41.94023],[-87.63682,41.93976],[-87.63631,41.93974],[-87.63584,41.93978],[-87.6358,41.93961],[-87.6355,41.93971],[-87.63517,41.93995],[-87.63499,41.94015],[-87.63478,41.94069],[-87.63517,41.94071],[-87.63515,41.94086],[-87.6351,41.94085],[-87.63511,41.94075],[-87.63478,41.94073],[-87.6347,41.94141],[-87.6346,41.94154],[-87.63445,41.94159],[-87.63445,41.94186],[-87.63434,41.94186],[-87.63433,41.94173],[-87.63412,41.9417],[-87.634,41.94162],[-87.6339,41.9415],[-87.63385,41.94134],[-87.63386,41.94038],[-87.63355,41.93936],[-87.63317,41.93843],[-87.63299,41.93808],[-87.63237,41.93738],[-87.63229,41.93724],[-87.63243,41.93718],[-87.63233,41.937],[-87.63224,41.9367],[-87.6321,41.93584],[-87.63192,41.93548],[-87.63187,41.93545],[-87.63145,41.93481],[-87.63071,41.93391],[-87.63044,41.93367],[-87.63042,41.9335],[-87.63047,41.93333],[-87.63053,41.93321],[-87.63071,41.93306],[-87.63071,41.93252],[-87.63076,41.93257],[-87.63077,41.93303],[-87.63091,41.93298],[-87.63138,41.93297],[-87.6314,41.93269],[-87.63144,41.93264],[-87.6316,41.93258],[-87.63182,41.93258],[-87.63182,41.93244],[-87.63128,41.93242],[-87.63115,41.93258],[-87.63107,41.93259],[-87.63124,41.93239],[-87.63085,41.93217],[-87.63069,41.93187],[-87.6307,41.9316],[-87.63095,41.93081],[-87.631,41.93041],[-87.63101,41.93008],[-87.63091,41.92932],[-87.63069,41.9286],[-87.6304,41.92808],[-87.63061,41.928],[-87.63033,41.92763],[-87.62979,41.92708],[-87.62964,41.9268],[-87.6296,41.92658],[-87.6296,41.92635],[-87.62971,41.92609],[-87.62988,41.92616],[-87.63018,41.92589],[-87.63027,41.92575],[-87.63019,41.92468],[-87.63008,41.92404],[-87.62994,41.92355],[-87.62971,41.9233],[-87.62927,41.923],[-87.629,41.92275],[-87.62838,41.92312],[-87.62834,41.92307],[-87.62927,41.92252],[-87.6293,41.92255],[-87.62949,41.92244],[-87.62943,41.92229],[-87.62868,41.92129],[-87.62854,41.92103],[-87.62776,41.9214],[-87.6277,41.92136],[-87.62876,41.92086],[-87.62879,41.92089],[-87.62893,41.92082],[-87.62892,41.92073],[-87.62856,41.92012],[-87.62823,41.91983],[-87.62796,41.9195],[-87.62735,41.9198],[-87.62733,41.91975],[-87.62837,41.91924],[-87.62844,41.91924],[-87.62841,41.91914],[-87.62829,41.91902],[-87.62815,41.9188],[-87.62789,41.91853],[-87.62749,41.91822],[-87.62735,41.918],[-87.62683,41.9183],[-87.6268,41.91825],[-87.62791,41.9176],[-87.62758,41.91721],[-87.62708,41.91684],[-87.62671,41.91644],[-87.62609,41.91684],[-87.62604,41.91679],[-87.62681,41.91629],[-87.62629,41.91576],[-87.62609,41.91563],[-87.6258,41.91553],[-87.62501,41.91483],[-87.62402,41.91418],[-87.62327,41.91381],[-87.62291,41.91368],[-87.62243,41.91357],[-87.62173,41.91353],[-87.62109,41.9136],[-87.62077,41.91377],[-87.62059,41.91379],[-87.62052,41.91371],[-87.62049,41.91358],[-87.62057,41.91337],[-87.62037,41.91358],[-87.62026,41.91378],[-87.6202,41.91397],[-87.6202,41.9145],[-87.62024,41.91463],[-87.62034,41.91473],[-87.62047,41.91479],[-87.62064,41.91482],[-87.62079,41.91481],[-87.62096,41.91475],[-87.62099,41.91479],[-87.62088,41.91484],[-87.62055,41.91486],[-87.62033,41.91478],[-87.6202,41.91466],[-87.62014,41.9145],[-87.62013,41.91406],[-87.62022,41.91372],[-87.62044,41.91341],[-87.62078,41.91318],[-87.62105,41.91306],[-87.62159,41.91293],[-87.62209,41.9129],[-87.62263,41.91279],[-87.62303,41.91263],[-87.62329,41.91247],[-87.62466,41.91142],[-87.62469,41.91085],[-87.6248,41.91062],[-87.62504,41.91039],[-87.62512,41.91018],[-87.62514,41.90982],[-87.62509,41.90911],[-87.62502,41.90854],[-87.62481,41.90753],[-87.62357,41.90408],[-87.62372,41.90405],[-87.62356,41.90392],[-87.62317,41.90372],[-87.62287,41.90348],[-87.62259,41.90319],[-87.62195,41.9024],[-87.62185,41.90217],[-87.62187,41.90205],[-87.62127,41.90188],[-87.62057,41.90175],[-87.61992,41.90156],[-87.61964,41.90142],[-87.61923,41.9011],[-87.61898,41.90077],[-87.6172,41.89806],[-87.61636,41.89688],[-87.61491,41.89467],[-87.61369,41.89313],[-87.61287,41.89336],[-87.61255,41.89341],[-87.61203,41.89333],[-87.61018,41.89621],[-87.61003,41.89624],[-87.60882,41.89627],[-87.60785,41.89625],[-87.60681,41.89627],[-87.60669,41.89623],[-87.60655,41.89624],[-87.60655,41.89628],[-87.60587,41.8963],[-87.60586,41.89625],[-87.60573,41.89625],[-87.60567,41.89629],[-87.60541,41.89628],[-87.605,41.89633],[-87.60243,41.89637],[-87.60237,41.89634],[-87.60234,41.89622],[-87.60229,41.89331],[-87.60235,41.89326],[-87.60982,41.89315],[-87.6098,41.89222],[-87.60091,41.89237],[-87.60091,41.89241],[-87.60078,41.89244],[-87.60059,41.89242],[-87.60058,41.89224],[-87.59855,41.89227],[-87.59852,41.89145],[-87.60057,41.89142],[-87.60056,41.89111],[-87.60072,41.89107],[-87.60089,41.89111],[-87.60089,41.89115],[-87.60954,41.89101],[-87.60949,41.88939],[-87.60769,41.88937],[-87.60764,41.88935],[-87.60767,41.88923],[-87.60765,41.88867],[-87.60751,41.88864],[-87.60544,41.88867],[-87.60543,41.88871],[-87.6052,41.88872],[-87.60515,41.88868],[-87.60474,41.88868],[-87.60468,41.88864],[-87.60473,41.88857],[-87.60513,41.88856],[-87.60521,41.88845],[-87.60513,41.88835],[-87.60252,41.88839],[-87.60247,41.88836],[-87.60247,41.8883],[-87.60252,41.88827],[-87.60514,41.88823],[-87.60518,41.88819],[-87.60541,41.88819],[-87.60541,41.88822],[-87.60599,41.88822],[-87.60751,41.88819],[-87.60756,41.88816],[-87.60781,41.88815],[-87.60781,41.88818],[-87.60985,41.88797],[-87.60988,41.88716],[-87.60994,41.88709],[-87.60999,41.88408],[-87.61274,41.88406],[-87.61276,41.88368],[-87.61283,41.88348],[-87.61303,41.88321],[-87.61325,41.88302],[-87.61371,41.88276],[-87.61422,41.88259],[-87.61467,41.88252],[-87.61546,41.88249],[-87.61579,41.88244],[-87.616,41.88236],[-87.61624,41.88221],[-87.61636,41.88208],[-87.61651,41.88173],[-87.6165,41.88141],[-87.61575,41.88142],[-87.61572,41.88057],[-87.61648,41.88056],[-87.61646,41.87978],[-87.61637,41.87978],[-87.61634,41.87783],[-87.6163,41.87782],[-87.61624,41.87702],[-87.61618,41.87567],[-87.61619,41.87463],[-87.61622,41.87395],[-87.61625,41.87395],[-87.6162,41.87197],[-87.61628,41.87197],[-87.61627,41.87178],[-87.61623,41.87171],[-87.61627,41.87156],[-87.61621,41.8689],[-87.61586,41.86875],[-87.61571,41.86865],[-87.61535,41.8683],[-87.61474,41.86832],[-87.6144,41.86845],[-87.61381,41.86851],[-87.6133,41.86849],[-87.61306,41.86844],[-87.61277,41.86831],[-87.6125,41.86807],[-87.61235,41.86776],[-87.61234,41.86751],[-87.6124,41.86733],[-87.61249,41.86717],[-87.61269,41.86697],[-87.61269,41.86675],[-87.61066,41.86678],[-87.61058,41.86682],[-87.60775,41.86686],[-87.60753,41.86704],[-87.60724,41.86717],[-87.60701,41.86723],[-87.60684,41.86724],[-87.60651,41.86722],[-87.60628,41.86716],[-87.606,41.86702],[-87.60575,41.86678],[-87.60565,41.86661],[-87.60561,41.86642],[-87.60564,41.86618],[-87.60584,41.86584],[-87.60605,41.86568],[-87.60605,41.86479],[-87.60629,41.86479],[-87.60634,41.865],[-87.60659,41.86521],[-87.60667,41.86523],[-87.60687,41.86518],[-87.60699,41.86513],[-87.6073,41.86487],[-87.60747,41.86465],[-87.60757,41.86436],[-87.60758,41.8641],[-87.60753,41.86385],[-87.60698,41.86241],[-87.60692,41.86235],[-87.60681,41.86231],[-87.60677,41.86221],[-87.60662,41.86216],[-87.60653,41.8622],[-87.60641,41.86207],[-87.60609,41.86207],[-87.60602,41.86201],[-87.60596,41.86008],[-87.60684,41.86006],[-87.60707,41.85996],[-87.6066,41.85341],[-87.60651,41.85342],[-87.60651,41.85336],[-87.60876,41.85317],[-87.609,41.85318],[-87.60932,41.85326],[-87.60953,41.85335],[-87.60985,41.85366],[-87.60991,41.85383],[-87.60992,41.85398],[-87.60945,41.85641],[-87.60934,41.85667],[-87.60934,41.85687],[-87.60946,41.85708],[-87.60977,41.85738],[-87.60992,41.85766],[-87.60997,41.85783],[-87.60999,41.85813],[-87.60989,41.85844],[-87.60988,41.85859],[-87.60994,41.85879],[-87.61007,41.85895],[-87.61042,41.85919],[-87.61048,41.85931],[-87.61036,41.85975],[-87.61037,41.85992],[-87.61043,41.86008],[-87.61055,41.86018],[-87.61067,41.86021],[-87.61067,41.86065],[-87.61053,41.86069],[-87.61045,41.86075],[-87.61042,41.86085],[-87.61035,41.86085],[-87.61036,41.8614],[-87.61028,41.8614],[-87.61004,41.8618],[-87.60988,41.86215],[-87.60978,41.86249],[-87.60961,41.86351],[-87.60965,41.86351],[-87.60979,41.86425],[-87.60996,41.86463],[-87.61037,41.86532],[-87.61045,41.86532],[-87.61048,41.86586],[-87.61267,41.86584],[-87.61265,41.86528],[-87.61274,41.86529],[-87.61321,41.86425],[-87.61342,41.86346],[-87.61346,41.86309],[-87.61343,41.86285],[-87.61335,41.86261],[-87.6131,41.86206],[-87.61265,41.86137],[-87.61256,41.86137],[-87.61255,41.86082],[-87.61247,41.86083],[-87.61242,41.86071],[-87.61232,41.86065],[-87.6122,41.86063],[-87.61221,41.86046],[-87.61239,41.86045],[-87.61239,41.86035],[-87.61215,41.86035],[-87.61219,41.86027],[-87.61218,41.86018],[-87.61232,41.86015],[-87.61241,41.86008],[-87.61244,41.85999],[-87.61235,41.85964],[-87.6122,41.85927],[-87.61217,41.85893],[-87.61219,41.85858],[-87.61227,41.85851],[-87.61254,41.85849],[-87.61272,41.85836],[-87.61284,41.85819],[-87.61304,41.85761],[-87.61307,41.85711],[-87.61285,41.85636],[-87.61263,41.856],[-87.6124,41.85578],[-87.61149,41.8552],[-87.6112,41.85493],[-87.61104,41.85458],[-87.61096,41.85384],[-87.61072,41.85308],[-87.61037,41.8525],[-87.60944,41.85135],[-87.60924,41.85099],[-87.60919,41.85069],[-87.6092,41.85045],[-87.60954,41.8487],[-87.60949,41.84807],[-87.60943,41.84785],[-87.6093,41.8476],[-87.6085,41.84651],[-87.60841,41.84607],[-87.60847,41.84574],[-87.60855,41.84559],[-87.609,41.84501],[-87.60911,41.8448],[-87.60917,41.84446],[-87.60915,41.84424],[-87.60907,41.84419],[-87.60892,41.84396],[-87.60877,41.84336],[-87.60802,41.84231],[-87.60798,41.8414],[-87.60785,41.84103],[-87.60753,41.84056],[-87.60698,41.84067],[-87.60668,41.84056],[-87.60671,41.8405],[-87.60699,41.8406],[-87.6075,41.8405],[-87.60743,41.84039],[-87.60745,41.84035],[-87.60721,41.83965],[-87.6071,41.83951],[-87.60676,41.83934],[-87.60658,41.83921],[-87.60645,41.83908],[-87.60616,41.83864],[-87.60471,41.83896],[-87.60428,41.83958],[-87.60427,41.83983],[-87.60419,41.83983],[-87.6042,41.83955],[-87.60467,41.83888],[-87.60613,41.83855],[-87.60608,41.83802],[-87.6061,41.83765],[-87.60607,41.83729],[-87.60585,41.83644],[-87.60566,41.83612],[-87.60531,41.83568],[-87.60456,41.83499],[-87.60454,41.83481],[-87.60473,41.83459],[-87.60503,41.83442],[-87.60487,41.8338],[-87.60455,41.83335],[-87.60435,41.8332],[-87.60392,41.83304],[-87.60349,41.83301],[-87.60323,41.83291],[-87.60301,41.83273],[-87.6027,41.83233],[-87.60276,41.83185],[-87.60271,41.83137],[-87.60259,41.83102],[-87.60239,41.83069],[-87.60172,41.83006],[-87.60148,41.82979],[-87.6003,41.82827],[-87.60016,41.82816],[-87.59997,41.82793],[-87.59921,41.82739],[-87.59826,41.8268],[-87.59795,41.82656],[-87.59775,41.82634],[-87.59758,41.82605],[-87.59748,41.82564],[-87.59748,41.8255],[-87.5977,41.82457],[-87.59763,41.82403],[-87.59726,41.82292],[-87.59725,41.8228],[-87.59733,41.82285],[-87.59733,41.82274],[-87.59726,41.8227],[-87.59727,41.82262],[-87.59711,41.82252],[-87.59702,41.82223],[-87.59687,41.82205],[-87.59684,41.82196],[-87.5962,41.82133],[-87.59606,41.82114],[-87.59569,41.82053],[-87.59573,41.82043],[-87.59565,41.82032],[-87.59512,41.81981],[-87.59462,41.8197],[-87.59433,41.81943],[-87.5937,41.81904],[-87.59349,41.81881],[-87.59296,41.81857],[-87.59262,41.81834],[-87.59239,41.81805],[-87.59219,41.81768],[-87.59216,41.81658],[-87.59199,41.81629],[-87.59171,41.81603],[-87.59161,41.81598],[-87.5915,41.81598],[-87.59142,41.81592],[-87.5912,41.81545],[-87.59111,41.81536],[-87.59089,41.815],[-87.59069,41.81483],[-87.59062,41.81471],[-87.59046,41.81465],[-87.59037,41.8145],[-87.59035,41.81438],[-87.59037,41.81435],[-87.5905,41.81437],[-87.5905,41.8143],[-87.59032,41.81414],[-87.59029,41.81394],[-87.59013,41.81362],[-87.58966,41.81313],[-87.58913,41.81282],[-87.58891,41.81255],[-87.58876,41.81228],[-87.58844,41.81209],[-87.5883,41.81204],[-87.58766,41.81197],[-87.58734,41.81184],[-87.58732,41.81173],[-87.58719,41.81159],[-87.58721,41.81149],[-87.58707,41.81143],[-87.58699,41.81133],[-87.58699,41.81123],[-87.58693,41.81117],[-87.58695,41.81109],[-87.587,41.81108],[-87.58699,41.81091],[-87.58704,41.81064],[-87.58702,41.81044],[-87.58692,41.81011],[-87.58675,41.80979],[-87.58664,41.80971],[-87.58645,41.80944],[-87.58644,41.80937],[-87.58648,41.80931],[-87.58627,41.8092],[-87.58629,41.8091],[-87.58622,41.80908],[-87.58611,41.80884],[-87.58615,41.80872],[-87.58571,41.80807],[-87.58563,41.80785],[-87.58559,41.80785],[-87.58516,41.80722],[-87.58452,41.80662],[-87.5839,41.80624],[-87.58365,41.80603],[-87.58225,41.80512],[-87.58151,41.80455],[-87.58137,41.80438],[-87.58117,41.80425],[-87.58103,41.80421],[-87.58089,41.80419],[-87.58067,41.80421],[-87.58018,41.80397],[-87.58005,41.80384],[-87.58002,41.80359],[-87.58045,41.80293],[-87.58029,41.80287],[-87.58045,41.80213],[-87.5805,41.8011],[-87.58042,41.80038],[-87.58028,41.79963],[-87.58011,41.79912],[-87.57979,41.79844],[-87.57994,41.79837],[-87.57961,41.79803],[-87.57914,41.79763],[-87.57821,41.79701],[-87.57799,41.79694],[-87.57755,41.79686],[-87.57732,41.79686],[-87.57651,41.79705],[-87.57614,41.79703],[-87.57588,41.79698],[-87.57562,41.79687],[-87.57548,41.79674],[-87.57531,41.79665],[-87.57523,41.79651],[-87.57516,41.79624],[-87.5752,41.79605],[-87.57533,41.79581],[-87.57544,41.79544],[-87.57573,41.79536],[-87.5761,41.79511],[-87.57622,41.79507],[-87.57646,41.7951],[-87.57662,41.79505],[-87.57691,41.79511],[-87.57739,41.79504],[-87.57783,41.79492],[-87.5783,41.79473],[-87.57857,41.79456],[-87.57901,41.7942],[-87.57908,41.79395],[-87.5793,41.79355],[-87.57928,41.79285],[-87.57932,41.79257],[-87.57952,41.79231],[-87.57963,41.79204],[-87.57927,41.79143],[-87.57868,41.79067],[-87.57842,41.7901],[-87.57827,41.78994],[-87.57782,41.78955],[-87.57725,41.78914],[-87.57632,41.78857],[-87.57632,41.78851],[-87.57668,41.78847],[-87.57668,41.78842],[-87.57715,41.7884],[-87.57719,41.78836],[-87.57733,41.78838],[-87.57767,41.78836],[-87.57767,41.78831],[-87.57776,41.7883],[-87.57775,41.7882],[-87.57766,41.7882],[-87.57764,41.78815],[-87.57732,41.78817],[-87.5773,41.7882],[-87.5772,41.78821],[-87.57715,41.78818],[-87.57715,41.7881],[-87.57727,41.78808],[-87.57733,41.78757],[-87.57731,41.78681],[-87.57724,41.78648],[-87.57682,41.78521],[-87.5761,41.78365],[-87.57605,41.7836],[-87.57556,41.78337],[-87.57421,41.78263],[-87.5731,41.78213],[-87.57213,41.78178],[-87.57135,41.78156],[-87.5705,41.78137],[-87.56986,41.78128],[-87.56901,41.78145],[-87.5684,41.78161],[-87.56764,41.78462],[-87.56753,41.7846],[-87.56831,41.78154],[-87.57128,41.78084],[-87.57308,41.78025],[-87.57293,41.77989],[-87.57295,41.77982],[-87.57411,41.77953],[-87.57444,41.77937],[-87.57473,41.77911],[-87.57494,41.77881],[-87.57493,41.77872],[-87.575,41.77868],[-87.5751,41.77845],[-87.57528,41.77787],[-87.5753,41.77766],[-87.5753,41.77741],[-87.57519,41.77701],[-87.57492,41.77655],[-87.57461,41.77615],[-87.57461,41.77608],[-87.5747,41.77599],[-87.57508,41.77593],[-87.57504,41.77579],[-87.57481,41.77577],[-87.57412,41.77553],[-87.57348,41.77551],[-87.5734,41.77548],[-87.57337,41.77538],[-87.57331,41.77538],[-87.5733,41.77555],[-87.57322,41.77559],[-87.57284,41.77561],[-87.572,41.77582],[-87.57194,41.77588],[-87.57184,41.77607],[-87.57175,41.7766],[-87.57193,41.77688],[-87.57231,41.77734],[-87.57237,41.77733],[-87.57245,41.77741],[-87.57265,41.77733],[-87.57287,41.77762],[-87.57279,41.77767],[-87.57316,41.778],[-87.57336,41.77831],[-87.57332,41.77842],[-87.57338,41.77862],[-87.57336,41.7789],[-87.5733,41.77908],[-87.57321,41.77919],[-87.57292,41.77925],[-87.57275,41.77932],[-87.57248,41.77931],[-87.57224,41.77923],[-87.57217,41.77918],[-87.57209,41.77901],[-87.57208,41.7789],[-87.57182,41.77858],[-87.57167,41.77854],[-87.57157,41.77846],[-87.57114,41.77805],[-87.57033,41.77742],[-87.5699,41.777],[-87.56969,41.77697],[-87.56919,41.77669],[-87.56881,41.7764],[-87.56813,41.7757],[-87.56686,41.77407],[-87.56681,41.77396],[-87.56645,41.77379],[-87.56631,41.77367],[-87.56629,41.77347],[-87.56594,41.77313],[-87.56565,41.77292],[-87.565,41.77253],[-87.5649,41.77252],[-87.56407,41.77211],[-87.56364,41.77208],[-87.56358,41.77203],[-87.56359,41.77184],[-87.56352,41.77171],[-87.56348,41.77135],[-87.56342,41.77118],[-87.56342,41.77111],[-87.56347,41.77106],[-87.56331,41.77053],[-87.56313,41.7702],[-87.56252,41.76943],[-87.56234,41.769],[-87.56154,41.76863],[-87.56092,41.76844],[-87.56053,41.7684],[-87.56032,41.76844],[-87.56017,41.76855],[-87.55981,41.76897],[-87.55954,41.76918],[-87.55952,41.76894],[-87.55943,41.76872],[-87.55941,41.76852],[-87.55945,41.76806],[-87.55952,41.76798],[-87.55952,41.76785],[-87.55944,41.76775],[-87.55939,41.76678],[-87.55954,41.76671],[-87.55953,41.7666],[-87.55964,41.76655],[-87.56018,41.76644],[-87.56044,41.76625],[-87.56055,41.76609],[-87.56062,41.76581],[-87.56061,41.76564],[-87.56051,41.76539],[-87.56043,41.76529],[-87.56036,41.76532],[-87.56014,41.76509],[-87.56022,41.76504],[-87.56012,41.76494],[-87.56002,41.7649],[-87.55994,41.76495],[-87.55984,41.76496],[-87.55959,41.76471],[-87.5596,41.76463],[-87.55952,41.76453],[-87.55974,41.76439],[-87.55961,41.76422],[-87.55944,41.76408],[-87.55928,41.76404],[-87.55898,41.76375],[-87.55846,41.76402],[-87.55757,41.76312],[-87.5577,41.76305],[-87.55765,41.763],[-87.55764,41.76285],[-87.55687,41.76243],[-87.55672,41.76227],[-87.55654,41.76214],[-87.55626,41.76199],[-87.55608,41.76182],[-87.55573,41.76163],[-87.55559,41.76158],[-87.55527,41.76162],[-87.55488,41.76179],[-87.55477,41.76173],[-87.55467,41.76149],[-87.55435,41.76105],[-87.55425,41.76103],[-87.55411,41.76081],[-87.55403,41.76076],[-87.55225,41.75998],[-87.55107,41.75952],[-87.54955,41.75896],[-87.54871,41.75873],[-87.54797,41.75867],[-87.54754,41.75872],[-87.54725,41.75872],[-87.54694,41.75877],[-87.54685,41.75882],[-87.54659,41.75888],[-87.54551,41.75936],[-87.5445,41.76007],[-87.54425,41.76019],[-87.54416,41.7602],[-87.54403,41.76011],[-87.54385,41.76011],[-87.54434,41.76058],[-87.54446,41.76062],[-87.54644,41.76062],[-87.54641,41.76066],[-87.54443,41.76068],[-87.54429,41.76062],[-87.54328,41.7597],[-87.54318,41.7597],[-87.54304,41.7596],[-87.54256,41.75913],[-87.54252,41.75903],[-87.54253,41.75893],[-87.54263,41.75874],[-87.54165,41.75782],[-87.54138,41.75784],[-87.54115,41.75779],[-87.54061,41.75731],[-87.54062,41.75723],[-87.54093,41.75703],[-87.541,41.75704],[-87.54395,41.75526],[-87.54398,41.75515],[-87.54393,41.75505],[-87.54418,41.7548],[-87.54415,41.75462],[-87.54421,41.75458],[-87.54421,41.75452],[-87.54431,41.75432],[-87.54434,41.75432],[-87.54441,41.75413],[-87.54415,41.75344],[-87.54372,41.75253],[-87.54351,41.75225],[-87.54328,41.75205],[-87.54303,41.75192],[-87.54094,41.75192],[-87.54065,41.75186],[-87.54049,41.75186],[-87.54022,41.75177],[-87.53992,41.75163],[-87.53891,41.75131],[-87.5385,41.75112],[-87.53759,41.75077],[-87.53735,41.75071],[-87.53732,41.75067],[-87.53715,41.75062],[-87.53689,41.7505],[-87.53684,41.75045],[-87.53675,41.75045],[-87.53624,41.75024],[-87.53621,41.7502],[-87.53601,41.75016],[-87.53549,41.74988],[-87.53526,41.74979],[-87.5352,41.7498],[-87.53438,41.74945],[-87.5339,41.74931],[-87.53274,41.74882],[-87.53208,41.74859],[-87.53138,41.74828],[-87.53095,41.74803],[-87.53076,41.74729],[-87.53076,41.74711],[-87.53057,41.74604],[-87.53004,41.7422],[-87.53008,41.74211],[-87.53006,41.74203],[-87.52999,41.74197],[-87.53004,41.74192],[-87.53004,41.74179],[-87.52998,41.7416],[-87.52985,41.74146],[-87.52973,41.74141],[-87.5295,41.7414],[-87.52448,41.74145],[-87.52446,41.74139],[-87.52989,41.74133],[-87.53011,41.74124],[-87.53019,41.74126],[-87.53069,41.74112],[-87.53133,41.7411],[-87.53986,41.74101],[-87.53983,41.7405],[-87.52986,41.74061],[-87.52955,41.73809],[-87.52949,41.73771],[-87.52943,41.73755],[-87.52943,41.73716],[-87.52929,41.73609],[-87.52924,41.73601],[-87.52928,41.73594],[-87.52912,41.73497],[-87.52915,41.7349],[-87.52906,41.73415],[-87.52901,41.73379],[-87.52896,41.73379],[-87.52949,41.73237],[-87.52946,41.73231],[-87.52927,41.73228],[-87.52918,41.73213],[-87.52911,41.73208],[-87.52895,41.73205],[-87.52526,41.73153],[-87.52495,41.73141],[-87.52473,41.73122],[-87.52469,41.73109],[-87.52455,41.7232],[-87.52447,41.7232],[-87.52447,41.7219],[-87.5245,41.72188],[-87.5245,41.72179],[-87.52468,41.7218],[-87.52484,41.72169],[-87.525,41.72152],[-87.5247,41.72125],[-87.52482,41.72118],[-87.52509,41.72142],[-87.52541,41.72092],[-87.52508,41.72085],[-87.52514,41.72073],[-87.52545,41.7208],[-87.52556,41.72037],[-87.52561,41.71955],[-87.52555,41.71899],[-87.52529,41.71849],[-87.52491,41.71805],[-87.5245,41.71799],[-87.52447,41.7174],[-87.52555,41.71737],[-87.52581,41.71733],[-87.52642,41.71711],[-87.52652,41.71727],[-87.52661,41.71724],[-87.52652,41.71708],[-87.5268,41.71699],[-87.52677,41.71692],[-87.52684,41.71687],[-87.527,41.71695],[-87.5273,41.71682],[-87.5281,41.71631],[-87.52857,41.71585],[-87.52867,41.71569],[-87.5287,41.71548],[-87.52862,41.71502],[-87.52856,41.71487],[-87.52813,41.71424],[-87.52792,41.71376],[-87.52777,41.71351],[-87.52742,41.71308],[-87.52649,41.71235],[-87.52523,41.71337],[-87.52517,41.71333],[-87.52643,41.71231],[-87.52841,41.7108],[-87.5272,41.71003],[-87.5269,41.70991],[-87.52669,41.70986],[-87.52624,41.70982],[-87.5259,41.71014],[-87.52602,41.71025],[-87.526,41.71035],[-87.52578,41.71042],[-87.52565,41.71036],[-87.52547,41.71013],[-87.52536,41.7101],[-87.52536,41.71006],[-87.52516,41.71],[-87.52496,41.70989],[-87.52459,41.70959],[-87.52419,41.70943],[-87.52414,41.70933],[-87.52423,41.70928],[-87.52449,41.70925],[-87.52473,41.70935],[-87.52476,41.70933],[-87.52488,41.7094],[-87.52488,41.70944],[-87.52512,41.70974],[-87.52526,41.70971],[-87.52553,41.70994],[-87.52559,41.70994],[-87.52622,41.70954],[-87.52577,41.70916],[-87.52531,41.70946],[-87.52534,41.70951],[-87.52513,41.70934],[-87.52523,41.70937],[-87.52568,41.70909],[-87.52543,41.70885],[-87.52537,41.70883],[-87.52486,41.70915],[-87.52478,41.70908],[-87.52502,41.70892],[-87.52493,41.7087],[-87.52454,41.70848],[-87.52453,41.7026],[-87.52461,41.69542],[-87.52464,41.69529],[-87.52466,41.69228],[-87.52462,41.6918],[-87.52465,41.68818],[-87.52517,41.64454],[-87.52994,41.64457],[-87.5498,41.64457],[-87.56237,41.64466],[-87.57487,41.64468],[-87.57725,41.64471],[-87.57838,41.64469],[-87.58567,41.6447],[-87.59618,41.64459],[-87.61399,41.64461],[-87.61722,41.64458],[-87.61723,41.65028],[-87.61803,41.65037],[-87.62032,41.65089],[-87.61982,41.65183],[-87.61945,41.65266],[-87.6189,41.65409],[-87.61848,41.65555],[-87.61771,41.6591],[-87.61845,41.65911],[-87.61866,41.65908],[-87.61968,41.65906],[-87.61946,41.65954],[-87.61939,41.66006],[-87.61951,41.66079],[-87.61986,41.66114],[-87.62025,41.66137],[-87.62202,41.66213],[-87.62204,41.66241],[-87.62329,41.6624],[-87.62349,41.66233],[-87.62381,41.66227],[-87.62407,41.66224],[-87.6242,41.66228],[-87.62442,41.66226],[-87.62476,41.66209],[-87.62555,41.66189],[-87.62566,41.66184],[-87.62573,41.66185],[-87.6259,41.66181],[-87.62627,41.66166],[-87.62644,41.66149],[-87.62754,41.66076],[-87.62875,41.65964],[-87.62915,41.65932],[-87.62973,41.65901],[-87.63076,41.65827],[-87.63084,41.65811],[-87.63082,41.65796],[-87.63108,41.65783],[-87.63126,41.65782],[-87.63139,41.658],[-87.63154,41.65792],[-87.63217,41.65787],[-87.63233,41.65788],[-87.63227,41.6578],[-87.63265,41.65773],[-87.63264,41.65762],[-87.633,41.65753],[-87.63538,41.65735],[-87.63629,41.65739],[-87.63856,41.65771],[-87.64042,41.65779],[-87.64105,41.65777],[-87.64106,41.6581],[-87.64143,41.65809],[-87.64142,41.65777],[-87.64475,41.65772],[-87.64591,41.65778],[-87.64699,41.65763],[-87.64722,41.66316],[-87.64142,41.66325],[-87.64167,41.67054],[-87.65865,41.67029],[-87.65879,41.67033],[-87.66115,41.67034],[-87.66137,41.67754],[-87.66677,41.67744],[-87.66732,41.67596],[-87.6684,41.67619],[-87.66795,41.67742],[-87.6785,41.67723],[-87.68038,41.67724],[-87.68169,41.6773],[-87.68621,41.67721],[-87.68578,41.6782],[-87.68565,41.67867],[-87.68558,41.67915],[-87.68572,41.68448],[-87.69563,41.68433],[-87.69577,41.68808],[-87.69605,41.68808],[-87.69615,41.68803],[-87.69661,41.68798]],[[-87.6921,41.6922],[-87.69171,41.69221],[-87.69171,41.69227],[-87.69101,41.69228],[-87.69124,41.69898],[-87.69602,41.69893],[-87.69576,41.69172],[-87.69209,41.69176],[-87.6921,41.6922]],[[-87.83209,41.95707],[-87.83182,41.95567],[-87.83179,41.95216],[-87.80727,41.95276],[-87.80729,41.95387],[-87.79473,41.95987],[-87.79433,41.96003],[-87.7942,41.96006],[-87.78681,41.96022],[-87.78689,41.96269],[-87.78696,41.96314],[-87.78705,41.9633],[-87.78678,41.96347],[-87.78677,41.96355],[-87.78674,41.9664],[-87.78677,41.96843],[-87.78801,41.96841],[-87.78801,41.96889],[-87.8024,41.96878],[-87.80252,41.96877],[-87.80254,41.9683],[-87.80716,41.96827],[-87.80706,41.9732],[-87.80707,41.97454],[-87.81692,41.97429],[-87.81695,41.97066],[-87.81899,41.97061],[-87.81897,41.97322],[-87.81943,41.97322],[-87.81943,41.97403],[-87.8194,41.97422],[-87.82674,41.97403],[-87.82674,41.97314],[-87.83173,41.97306],[-87.83172,41.97395],[-87.83342,41.97392],[-87.83341,41.97492],[-87.83363,41.97491],[-87.83363,41.97537],[-87.83663,41.97531],[-87.83663,41.97477],[-87.84155,41.97469],[-87.84155,41.97379],[-87.83793,41.97384],[-87.83795,41.97135],[-87.83665,41.97137],[-87.83665,41.97023],[-87.84159,41.97014],[-87.84158,41.97198],[-87.84653,41.97189],[-87.84657,41.96641],[-87.83668,41.9666],[-87.8367,41.95936],[-87.83268,41.95944],[-87.83209,41.95707]],[[-87.8351,41.98084],[-87.8351,41.9805],[-87.82886,41.9806],[-87.82886,41.98033],[-87.82869,41.98033],[-87.8287,41.97929],[-87.82808,41.97929],[-87.82808,41.97912],[-87.8287,41.97912],[-87.8287,41.97884],[-87.82864,41.97884],[-87.82864,41.97844],[-87.82972,41.97842],[-87.82971,41.97813],[-87.83002,41.97813],[-87.83005,41.97806],[-87.83004,41.97733],[-87.82961,41.97734],[-87.8296,41.97696],[-87.83362,41.97689],[-87.83362,41.97592],[-87.82443,41.97607],[-87.82352,41.98309],[-87.8253,41.98307],[-87.82527,41.98196],[-87.82814,41.98192],[-87.82818,41.98384],[-87.82831,41.98379],[-87.82857,41.98377],[-87.8332,41.9837],[-87.83321,41.98357],[-87.83358,41.98357],[-87.8336,41.98267],[-87.83507,41.98267],[-87.83509,41.98115],[-87.83435,41.98116],[-87.83436,41.98085],[-87.8351,41.98084]]],[[[-87.93708,41.99859],[-87.94002,41.99811],[-87.94011,42.00079],[-87.93514,42.00089],[-87.9359,42.0001],[-87.93633,41.9996],[-87.93708,41.99859]]],[[[-87.93529,42.00815],[-87.93358,42.00817],[-87.93348,42.00542],[-87.93361,42.00488],[-87.93437,42.00498],[-87.9343,42.00196],[-87.93389,42.00197],[-87.9343,42.00165],[-87.9343,42.00173],[-87.93509,42.00094],[-87.93529,42.00815]]]]}}]}