{"type":"FeatureCollection","features":[{"type":"Feature","properties":{"name":"Land within region"},"geometry":{"type":"MultiPolygon","coordinates":[[[[-88.0,41.55],[-88.0,42.15],[-87.75935,42.15],[-87.75789,42.14717],[-87.75583,42.13657],[-87.75156,42.12509],[-87.74214,42.11597],[-87.73272,42.10831],[-87.72845,42.10213],[-87.72301,42.09683],[-87.68754,42.08506],[-87.68062,42.07858],[-87.67561,42.07064],[-87.66708,42.0515],[-87.66134,42.03296],[-87.64839,41.94465],[-87.61851,41.89343],[-87.59466,41.82013],[-87.57759,41.78863],[-87.4937,41.69797],[-87.45882,41.67854],[-87.42673,41.68796],[-87.43012,41.66677],[-87.42305,41.65382],[-87.40774,41.64616],[-87.38581,41.63998],[-87.29191,41.62791],[-87.20169,41.63498],[-87.2,41.63543],[-87.2,41.55],[-88.0,41.55]]]]}}]}