{"type":"FeatureCollection","features":[{"type":"Feature","properties":{"name":"Ahuntsic-Cartierville","kind":"borough","stationBoroughName":"Ahuntsic-Cartierville","areaKm2":25.58},"geometry":{"type":"MultiPolygon","coordinates":[[[[-73.65248,45.58286],[-73.65256,45.58269],[-73.64717,45.58043],[-73.64394,45.5791],[-73.63651,45.576],[-73.63624,45.57589],[-73.64266,45.56821],[-73.64466,45.56579],[-73.64536,45.56478],[-73.63152,45.55876],[-73.62393,45.55547],[-73.62174,45.5545],[-73.62327,45.55378],[-73.62731,45.55157],[-73.62939,45.55063],[-73.63071,45.55028],[-73.63228,45.55003],[-73.63406,45.54954],[-73.63519,45.54902],[-73.63643,45.54809],[-73.63996,45.54403],[-73.64079,45.54291],[-73.64653,45.53396],[-73.64775,45.53221],[-73.64862,45.53084],[-73.64819,45.53072],[-73.65075,45.5263],[-73.66956,45.53178],[-73.67139,45.53219],[-73.67276,45.53233],[-73.67441,45.53235],[-73.67706,45.53198],[-73.68498,45.53016],[-73.6871,45.52867],[-73.68846,45.5288],[-73.69062,45.52881],[-73.69329,45.52851],[-73.69493,45.52814],[-73.69606,45.52779],[-73.70921,45.52306],[-73.71113,45.52427],[-73.71309,45.52516],[-73.71463,45.52399],[-73.7173,45.52569],[-73.71852,45.52474],[-73.72169,45.52675],[-73.72286,45.52579],[-73.72806,45.52135],[-73.73174,45.52367],[-73.7359,45.52073],[-73.72851,45.51611],[-73.75517,45.50649],[-73.76369,45.51191],[-73.76123,45.51318],[-73.76032,45.51386],[-73.7597,45.51449],[-73.75919,45.51538],[-73.75814,45.51647],[-73.75701,45.51743],[-73.75588,45.51814],[-73.75464,45.51865],[-73.75358,45.51894],[-73.75255,45.51906],[-73.74974,45.51914],[-73.74868,45.51933],[-73.74762,45.51975],[-73.74663,45.5204],[-73.74474,45.52228],[-73.74314,45.52477],[-73.74264,45.52586],[-73.74125,45.52745],[-73.73987,45.52847],[-73.73812,45.5296],[-73.73647,45.53045],[-73.73436,45.53113],[-73.73242,45.53152],[-73.72979,45.5322],[-73.728,45.53324],[-73.72538,45.53551],[-73.72403,45.53643],[-73.72129,45.53793],[-73.72012,45.53827],[-73.71756,45.53847],[-73.71613,45.53869],[-73.71332,45.53988],[-73.71199,45.54053],[-73.71108,45.54123],[-73.71017,45.54212],[-73.70927,45.54318],[-73.70786,45.54229],[-73.70692,45.54371],[-73.70621,45.54383],[-73.70556,45.54414],[-73.70505,45.54399],[-73.70419,45.54427],[-73.7035,45.54477],[-73.70276,45.54468],[-73.70237,45.54486],[-73.70268,45.54522],[-73.70199,45.54594],[-73.70124,45.54598],[-73.7005,45.54663],[-73.70007,45.54648],[-73.69813,45.54692],[-73.69741,45.5469],[-73.69467,45.54743],[-73.69316,45.54737],[-73.69265,45.54718],[-73.69136,45.54729],[-73.68914,45.5477],[-73.68854,45.54773],[-73.68776,45.54857],[-73.6866,45.54916],[-73.68563,45.54934],[-73.68469,45.54918],[-73.68389,45.54879],[-73.6821,45.54904],[-73.68014,45.54942],[-73.68003,45.54902],[-73.67944,45.54864],[-73.67911,45.54895],[-73.67934,45.54935],[-73.6791,45.55014],[-73.67805,45.551],[-73.67712,45.55192],[-73.67649,45.55278],[-73.67474,45.55449],[-73.67399,45.55565],[-73.67374,45.55739],[-73.67304,45.55883],[-73.67192,45.56016],[-73.66945,45.562],[-73.66847,45.56259],[-73.66737,45.56341],[-73.66665,45.56372],[-73.66562,45.56374],[-73.66435,45.56434],[-73.66344,45.56545],[-73.6632,45.56643],[-73.66359,45.56795],[-73.66295,45.56836],[-73.66264,45.56893],[-73.66247,45.56991],[-73.66257,45.57052],[-73.66216,45.57087],[-73.66176,45.57213],[-73.66194,45.57221],[-73.66181,45.57326],[-73.6612,45.5747],[-73.66241,45.57499],[-73.6639,45.57301],[-73.66503,45.57277],[-73.66544,45.5729],[-73.66611,45.57379],[-73.66578,45.57437],[-73.66498,45.57526],[-73.66396,45.57676],[-73.66236,45.57786],[-73.66216,45.5784],[-73.66149,45.57896],[-73.66115,45.57992],[-73.66042,45.58066],[-73.65902,45.58099],[-73.65714,45.58209],[-73.65759,45.58128],[-73.65846,45.58105],[-73.65968,45.58044],[-73.66061,45.57927],[-73.66062,45.57879],[-73.66137,45.57796],[-73.66165,45.57728],[-73.66144,45.57707],[-73.66173,45.57622],[-73.66173,45.57512],[-73.66116,45.575],[-73.66125,45.57528],[-73.6606,45.57619],[-73.66078,45.57712],[-73.66064,45.5776],[-73.66003,45.57792],[-73.66018,45.5781],[-73.65974,45.57883],[-73.65902,45.5792],[-73.65897,45.57949],[-73.6571,45.58093],[-73.65619,45.58125],[-73.65522,45.58191],[-73.65476,45.58293],[-73.6543,45.58363],[-73.65248,45.58286]]]]}},{"type":"Feature","properties":{"name":"Anjou","kind":"borough","stationBoroughName":"Anjou","areaKm2":13.9},"geometry":{"type":"MultiPolygon","coordinates":[[[[-73.55965,45.63046],[-73.55676,45.62924],[-73.54394,45.62367],[-73.5355,45.6199],[-73.53626,45.61846],[-73.53719,45.61584],[-73.53787,45.61391],[-73.54383,45.61495],[-73.5441,45.61505],[-73.5454,45.61411],[-73.54576,45.61332],[-73.54632,45.6127],[-73.54459,45.6122],[-73.54534,45.61074],[-73.54431,45.61031],[-73.54108,45.60951],[-73.54157,45.60816],[-73.54083,45.60784],[-73.54158,45.60693],[-73.53755,45.60518],[-73.53777,45.60478],[-73.53716,45.60459],[-73.53652,45.60263],[-73.53659,45.60214],[-73.5393,45.60326],[-73.53949,45.60304],[-73.54218,45.60418],[-73.54295,45.6032],[-73.5398,45.60181],[-73.5407,45.60068],[-73.54473,45.60191],[-73.54525,45.6011],[-73.54448,45.60065],[-73.54483,45.59955],[-73.54454,45.59941],[-73.54423,45.59821],[-73.54385,45.59809],[-73.54581,45.59489],[-73.54731,45.59542],[-73.54815,45.59457],[-73.54646,45.59399],[-73.54895,45.59031],[-73.56426,45.59541],[-73.56941,45.59714],[-73.5697,45.5966],[-73.5729,45.59791],[-73.57531,45.59901],[-73.57609,45.59924],[-73.57731,45.59937],[-73.5771,45.59978],[-73.58328,45.60245],[-73.5917,45.60613],[-73.59325,45.60685],[-73.60314,45.61113],[-73.60166,45.61197],[-73.60232,45.6126],[-73.60066,45.61317],[-73.5986,45.61403],[-73.59685,45.61495],[-73.59547,45.61582],[-73.57401,45.63049],[-73.56834,45.63421],[-73.55965,45.63046]]]]}},{"type":"Feature","properties":{"name":"Baie-D'Urfé","kind":"linked city","stationBoroughName":"Baie-D'Urfé","areaKm2":8.03},"geometry":{"type":"MultiPolygon","coordinates":[[[[-73.9337,45.40514],[-73.93155,45.41859],[-73.93149,45.41999],[-73.92968,45.42054],[-73.92822,45.42121],[-73.90593,45.43317],[-73.90473,45.43377],[-73.90273,45.43462],[-73.90128,45.43512],[-73.89875,45.42556],[-73.89563,45.41446],[-73.89567,45.41444],[-73.89344,45.41024],[-73.89464,45.41014],[-73.89613,45.40985],[-73.89963,45.40879],[-73.90473,45.40658],[-73.90881,45.40395],[-73.91349,45.40024],[-73.9151,45.3994],[-73.9164,45.3989],[-73.91888,45.39835],[-73.92335,45.39824],[-73.92668,45.39829],[-73.92907,45.3984],[-73.93359,45.39878],[-73.9337,45.40514]]]]}},{"type":"Feature","properties":{"name":"Beaconsfield","kind":"linked city","stationBoroughName":"Beaconsfield","areaKm2":24.68},"geometry":{"type":"MultiPolygon","coordinates":[[[[-73.81626,45.39201],[-73.82218,45.3854],[-73.83182,45.39035],[-73.83687,45.39282],[-73.84293,45.39574],[-73.84501,45.39671],[-73.84832,45.39813],[-73.85621,45.40126],[-73.86657,45.40485],[-73.8684,45.40543],[-73.87613,45.40771],[-73.87913,45.40846],[-73.88379,45.40949],[-73.88622,45.40989],[-73.88882,45.41018],[-73.89202,45.41037],[-73.89344,45.41024],[-73.89567,45.41444],[-73.89563,45.41446],[-73.89875,45.42556],[-73.90128,45.43512],[-73.90132,45.4353],[-73.90023,45.43562],[-73.90011,45.43518],[-73.89392,45.4366],[-73.89352,45.43539],[-73.89132,45.43592],[-73.88587,45.43702],[-73.88598,45.43733],[-73.88519,45.43747],[-73.8837,45.43742],[-73.88324,45.43614],[-73.88114,45.43669],[-73.8819,45.43884],[-73.87983,45.43976],[-73.87935,45.43847],[-73.87874,45.43817],[-73.87822,45.43823],[-73.87706,45.43798],[-73.87663,45.4384],[-73.87616,45.43844],[-73.87601,45.4388],[-73.87686,45.44145],[-73.87525,45.44176],[-73.8728,45.44256],[-73.87159,45.44134],[-73.86851,45.44286],[-73.86826,45.44264],[-73.86485,45.43905],[-73.86179,45.44061],[-73.85955,45.44166],[-73.85297,45.44501],[-73.85204,45.44553],[-73.84299,45.44546],[-73.83833,45.44545],[-73.83546,45.43851],[-73.8319,45.4298],[-73.83227,45.42974],[-73.83181,45.4286],[-73.81573,45.39257],[-73.81626,45.39201]]]]}},{"type":"Feature","properties":{"name":"Côte-Saint-Luc","kind":"linked city","stationBoroughName":"Côte-Saint-Luc","areaKm2":6.81},"geometry":{"type":"MultiPolygon","coordinates":[[[[-73.68165,45.46751],[-73.68,45.47352],[-73.67997,45.47351],[-73.67794,45.48094],[-73.67721,45.48369],[-73.67464,45.48196],[-73.66976,45.48371],[-73.66181,45.48024],[-73.66097,45.48115],[-73.65596,45.47896],[-73.64886,45.47584],[-73.64446,45.47397],[-73.64592,45.47328],[-73.64589,45.47309],[-73.64933,45.47033],[-73.64945,45.47038],[-73.65035,45.46873],[-73.65221,45.46763],[-73.65331,45.46631],[-73.65576,45.46295],[-73.65747,45.462],[-73.65827,45.46145],[-73.65771,45.46125],[-73.65766,45.46057],[-73.6572,45.46013],[-73.65796,45.45953],[-73.65965,45.45843],[-73.65989,45.45816],[-73.66132,45.45722],[-73.65799,45.45594],[-73.65956,45.45458],[-73.664,45.45631],[-73.66732,45.45757],[-73.66817,45.45655],[-73.66851,45.45616],[-73.66942,45.45563],[-73.67006,45.45502],[-73.67127,45.45356],[-73.67179,45.45269],[-73.67299,45.45281],[-73.67751,45.45273],[-73.6819,45.45405],[-73.68723,45.4554],[-73.6865,45.45676],[-73.68566,45.45743],[-73.68302,45.46003],[-73.68319,45.4601],[-73.6828,45.46101],[-73.68183,45.46136],[-73.68129,45.46215],[-73.68281,45.46318],[-73.68165,45.46751]]],[[[-73.65464,45.48513],[-73.65399,45.48484],[-73.65483,45.48391],[-73.65599,45.48442],[-73.65589,45.48541],[-73.65546,45.48673],[-73.65579,45.48688],[-73.65054,45.49268],[-73.64856,45.49187],[-73.65116,45.48898],[-73.65464,45.48513]]],[[[-73.6304,45.47965],[-73.63082,45.47935],[-73.63914,45.48309],[-73.63883,45.48344],[-73.6304,45.47965]]]]}},{"type":"Feature","properties":{"name":"Côte-des-Neiges-Notre-Dame-de-Grâce","kind":"borough","stationBoroughName":"Côte-des-Neiges - Notre-Dame-de-Grâce","areaKm2":21.49},"geometry":{"type":"MultiPolygon","coordinates":[[[[-73.6304,45.47965],[-73.63883,45.48344],[-73.65116,45.48898],[-73.64856,45.49187],[-73.65054,45.49268],[-73.65579,45.48688],[-73.65546,45.48673],[-73.65589,45.48541],[-73.65599,45.48442],[-73.65596,45.47896],[-73.66097,45.48115],[-73.66181,45.48024],[-73.66976,45.48371],[-73.67464,45.48196],[-73.67721,45.48369],[-73.67513,45.49127],[-73.66804,45.48681],[-73.66586,45.48676],[-73.65618,45.49433],[-73.66372,45.49911],[-73.66175,45.49922],[-73.66245,45.50221],[-73.66058,45.50243],[-73.66005,45.50332],[-73.65997,45.5047],[-73.65639,45.50372],[-73.6516,45.50431],[-73.64573,45.5016],[-73.64224,45.50546],[-73.64227,45.50618],[-73.64154,45.50702],[-73.64187,45.50719],[-73.64167,45.50754],[-73.63852,45.51118],[-73.63665,45.5144],[-73.63589,45.51418],[-73.63464,45.51565],[-73.63135,45.5147],[-73.63083,45.51465],[-73.6289,45.51405],[-73.62667,45.51656],[-73.62364,45.51522],[-73.61764,45.51251],[-73.61888,45.51114],[-73.61693,45.51028],[-73.61792,45.50919],[-73.61604,45.50836],[-73.61895,45.50511],[-73.61826,45.5047],[-73.61581,45.50743],[-73.61305,45.51046],[-73.60957,45.5089],[-73.60636,45.50752],[-73.60618,45.50699],[-73.6033,45.50566],[-73.60226,45.5068],[-73.59956,45.50558],[-73.59897,45.5058],[-73.59575,45.50433],[-73.594,45.50353],[-73.59519,45.50267],[-73.59727,45.50193],[-73.59912,45.50086],[-73.60016,45.49999],[-73.60237,45.49799],[-73.60547,45.4949],[-73.60684,45.49527],[-73.6074,45.49457],[-73.60839,45.49367],[-73.6094,45.49405],[-73.61046,45.49286],[-73.61161,45.49171],[-73.61476,45.49303],[-73.61503,45.49277],[-73.61841,45.48898],[-73.61842,45.48821],[-73.61529,45.48679],[-73.61722,45.48479],[-73.61238,45.48261],[-73.61438,45.48062],[-73.6054,45.47657],[-73.605,45.47702],[-73.59847,45.4741],[-73.59513,45.47645],[-73.59648,45.47332],[-73.59888,45.47209],[-73.60127,45.47005],[-73.60259,45.46905],[-73.60317,45.4691],[-73.60563,45.4676],[-73.60585,45.46729],[-73.60661,45.46705],[-73.6072,45.46666],[-73.60827,45.46629],[-73.61161,45.46476],[-73.61212,45.46489],[-73.61518,45.46352],[-73.61823,45.46223],[-73.61979,45.46167],[-73.61996,45.46175],[-73.62432,45.45866],[-73.6262,45.45749],[-73.62853,45.45535],[-73.63146,45.45276],[-73.6353,45.45078],[-73.63945,45.45237],[-73.6462,45.455],[-73.65796,45.45953],[-73.6572,45.46013],[-73.65766,45.46057],[-73.65771,45.46125],[-73.65827,45.46145],[-73.65747,45.462],[-73.65576,45.46295],[-73.65331,45.46631],[-73.65221,45.46763],[-73.65035,45.46873],[-73.64945,45.47038],[-73.64933,45.47033],[-73.64589,45.47309],[-73.64592,45.47328],[-73.64446,45.47397],[-73.64272,45.47483],[-73.63973,45.47675],[-73.63602,45.47693],[-73.6353,45.47703],[-73.63256,45.47788],[-73.62992,45.47837],[-73.63117,45.47897],[-73.63082,45.47935],[-73.6304,45.47965]]]]}},{"type":"Feature","properties":{"name":"Dollard-des-Ormeaux","kind":"linked city","stationBoroughName":"Dollard-des-Ormeaux","areaKm2":15.09},"geometry":{"type":"MultiPolygon","coordinates":[[[[-73.84854,45.46459],[-73.85456,45.4706],[-73.85687,45.47298],[-73.85741,45.47366],[-73.85495,45.47484],[-73.84937,45.47772],[-73.84584,45.47951],[-73.85051,45.48674],[-73.84936,45.48739],[-73.84457,45.4898],[-73.84454,45.4899],[-73.84251,45.49094],[-73.8361,45.49406],[-73.8352,45.49453],[-73.83764,45.4977],[-73.83582,45.49874],[-73.83552,45.49827],[-73.83364,45.49925],[-73.83251,45.49973],[-73.82983,45.50105],[-73.82611,45.5028],[-73.82254,45.50459],[-73.81925,45.50618],[-73.81576,45.50262],[-73.81512,45.5029],[-73.81462,45.5024],[-73.81518,45.50213],[-73.81499,45.50193],[-73.81443,45.50221],[-73.81384,45.5016],[-73.81436,45.50129],[-73.81003,45.4968],[-73.80906,45.49726],[-73.80888,45.49705],[-73.80206,45.50031],[-73.80071,45.49901],[-73.79036,45.50395],[-73.79226,45.50517],[-73.7837,45.50324],[-73.78394,45.50271],[-73.78463,45.5026],[-73.78597,45.50196],[-73.78622,45.50199],[-73.78631,45.50142],[-73.78292,45.49929],[-73.7812,45.50011],[-73.78062,45.49974],[-73.77818,45.5009],[-73.77698,45.50011],[-73.77677,45.50021],[-73.77543,45.49941],[-73.77362,45.4982],[-73.76971,45.49571],[-73.76843,45.49445],[-73.79457,45.48179],[-73.7947,45.48173],[-73.79604,45.4831],[-73.81261,45.47522],[-73.81549,45.47804],[-73.81575,45.47834],[-73.83169,45.4703],[-73.84655,45.46257],[-73.84854,45.46459]]]]}},{"type":"Feature","properties":{"name":"Dorval","kind":"linked city","stationBoroughName":"Dorval","areaKm2":29.13},"geometry":{"type":"MultiPolygon","coordinates":[[[[-73.72184,45.42188],[-73.73168,45.4211],[-73.73706,45.42079],[-73.74295,45.42049],[-73.75062,45.42021],[-73.75798,45.41971],[-73.76398,45.41918],[-73.76847,45.41859],[-73.78228,45.45445],[-73.78002,45.45487],[-73.78146,45.4587],[-73.78332,45.46376],[-73.78462,45.46508],[-73.78029,45.46716],[-73.78161,45.46843],[-73.79121,45.47829],[-73.79457,45.48179],[-73.76843,45.49445],[-73.76454,45.49045],[-73.76442,45.49039],[-73.76704,45.48917],[-73.76718,45.4888],[-73.76663,45.48829],[-73.76683,45.48793],[-73.76634,45.48779],[-73.76651,45.4874],[-73.76612,45.48664],[-73.7668,45.48613],[-73.76694,45.48576],[-73.768,45.48542],[-73.7681,45.48476],[-73.7742,45.48181],[-73.76616,45.47676],[-73.76839,45.47496],[-73.76236,45.46856],[-73.76276,45.46825],[-73.75075,45.4606],[-73.73998,45.46907],[-73.73402,45.47369],[-73.73001,45.47687],[-73.72647,45.47957],[-73.72534,45.48054],[-73.72309,45.48233],[-73.72247,45.48275],[-73.71252,45.47642],[-73.70793,45.47346],[-73.71663,45.46691],[-73.72044,45.46408],[-73.72481,45.46094],[-73.72435,45.46022],[-73.72374,45.45838],[-73.72174,45.45209],[-73.72079,45.44885],[-73.7223,45.44888],[-73.72093,45.44454],[-73.72089,45.44453],[-73.7193,45.43943],[-73.72009,45.43936],[-73.72003,45.43897],[-73.72081,45.43933],[-73.72085,45.43853],[-73.71584,45.42227],[-73.72184,45.42188]],[[-73.74627,45.43224],[-73.74573,45.43164],[-73.74472,45.43126],[-73.7429,45.43116],[-73.74067,45.43065],[-73.7399,45.43059],[-73.73898,45.43094],[-73.73842,45.43169],[-73.73756,45.43224],[-73.73711,45.43291],[-73.73705,45.43341],[-73.73836,45.43348],[-73.73976,45.43377],[-73.74179,45.43344],[-73.74303,45.43353],[-73.74376,45.43372],[-73.74473,45.43366],[-73.74626,45.43258],[-73.74627,45.43224]]]]}},{"type":"Feature","properties":{"name":"Hampstead","kind":"linked city","stationBoroughName":"Hampstead","areaKm2":1.76},"geometry":{"type":"MultiPolygon","coordinates":[[[[-73.64886,45.47584],[-73.65596,45.47896],[-73.65599,45.48442],[-73.65483,45.48391],[-73.65399,45.48484],[-73.65464,45.48513],[-73.65116,45.48898],[-73.63883,45.48344],[-73.63914,45.48309],[-73.63082,45.47935],[-73.63117,45.47897],[-73.62992,45.47837],[-73.63256,45.47788],[-73.6353,45.47703],[-73.63602,45.47693],[-73.63973,45.47675],[-73.64272,45.47483],[-73.64446,45.47397],[-73.64886,45.47584]]]]}},{"type":"Feature","properties":{"name":"Kirkland","kind":"linked city","stationBoroughName":"Kirkland","areaKm2":9.63},"geometry":{"type":"MultiPolygon","coordinates":[[[[-73.90234,45.4475],[-73.90147,45.44635],[-73.90013,45.44671],[-73.90037,45.44715],[-73.89808,45.44754],[-73.89502,45.44683],[-73.894,45.44654],[-73.89364,45.44668],[-73.89156,45.44804],[-73.889,45.44915],[-73.88824,45.44962],[-73.88745,45.4504],[-73.88467,45.45248],[-73.8814,45.45265],[-73.86579,45.46011],[-73.86706,45.4614],[-73.85993,45.46558],[-73.86041,45.466],[-73.85456,45.4706],[-73.84854,45.46459],[-73.84655,45.46257],[-73.84113,45.45713],[-73.84053,45.45648],[-73.83386,45.44973],[-73.83616,45.44975],[-73.83407,45.44765],[-73.834,45.44765],[-73.83213,45.44538],[-73.83833,45.44545],[-73.84299,45.44546],[-73.85204,45.44553],[-73.85297,45.44501],[-73.85955,45.44166],[-73.86179,45.44061],[-73.86485,45.43905],[-73.86826,45.44264],[-73.86851,45.44286],[-73.87159,45.44134],[-73.8728,45.44256],[-73.87525,45.44176],[-73.87686,45.44145],[-73.87601,45.4388],[-73.87616,45.43844],[-73.87663,45.4384],[-73.87706,45.43798],[-73.87822,45.43823],[-73.87874,45.43817],[-73.87935,45.43847],[-73.87983,45.43976],[-73.8819,45.43884],[-73.88114,45.43669],[-73.88324,45.43614],[-73.8837,45.43742],[-73.88519,45.43747],[-73.88598,45.43733],[-73.88587,45.43702],[-73.89132,45.43592],[-73.89352,45.43539],[-73.89392,45.4366],[-73.90011,45.43518],[-73.90023,45.43562],[-73.90132,45.4353],[-73.90182,45.43677],[-73.90233,45.43881],[-73.90249,45.43878],[-73.90283,45.43996],[-73.90323,45.44041],[-73.90391,45.4403],[-73.90441,45.4405],[-73.90554,45.44479],[-73.90414,45.44503],[-73.90458,45.44671],[-73.90435,45.44678],[-73.90234,45.4475]]]]}},{"type":"Feature","properties":{"name":"L'Île-Bizard-Sainte-Geneviève","kind":"borough","stationBoroughName":"L'Île-Bizard-Sainte-Geneviève","areaKm2":36.32},"geometry":{"type":"MultiPolygon","coordinates":[[[[-73.85442,45.51],[-73.85509,45.50938],[-73.85614,45.50881],[-73.85813,45.50801],[-73.85874,45.50751],[-73.85897,45.50704],[-73.85822,45.50537],[-73.85825,45.50485],[-73.85875,45.50382],[-73.85919,45.50335],[-73.8606,45.50229],[-73.861,45.50167],[-73.86117,45.50105],[-73.86072,45.49989],[-73.85902,45.49856],[-73.85783,45.4978],[-73.85729,45.49721],[-73.85715,45.49661],[-73.85731,45.49602],[-73.85846,45.49458],[-73.859,45.4941],[-73.86039,45.49216],[-73.86107,45.49178],[-73.86074,45.49105],[-73.86132,45.49012],[-73.86097,45.48977],[-73.86018,45.48987],[-73.85959,45.48858],[-73.85876,45.48731],[-73.86134,45.48517],[-73.86245,45.48403],[-73.86473,45.48242],[-73.86611,45.48127],[-73.86861,45.47933],[-73.87031,45.47777],[-73.87296,45.47561],[-73.87121,45.4733],[-73.87331,45.47256],[-73.87617,45.47128],[-73.87829,45.47048],[-73.882,45.47525],[-73.88262,45.47446],[-73.884,45.47396],[-73.88562,45.47317],[-73.88672,45.47188],[-73.88756,45.47116],[-73.88853,45.47056],[-73.89017,45.47017],[-73.89186,45.46987],[-73.89355,45.46974],[-73.89469,45.46944],[-73.89554,45.46899],[-73.89642,45.4683],[-73.89903,45.46684],[-73.90121,45.46598],[-73.90272,45.46557],[-73.90816,45.46538],[-73.91017,45.46526],[-73.9113,45.46508],[-73.91255,45.46455],[-73.9139,45.46421],[-73.91512,45.46425],[-73.91655,45.4651],[-73.91723,45.46605],[-73.91738,45.46715],[-73.91765,45.46824],[-73.91815,45.469],[-73.91962,45.46982],[-73.91995,45.47014],[-73.92018,45.47102],[-73.92057,45.47165],[-73.92139,45.47237],[-73.9223,45.47287],[-73.92316,45.47358],[-73.92404,45.47463],[-73.92501,45.47542],[-73.92552,45.4756],[-73.92642,45.47543],[-73.92855,45.47554],[-73.92978,45.47546],[-73.9309,45.47568],[-73.93143,45.47557],[-73.93284,45.47452],[-73.93321,45.47444],[-73.93435,45.47481],[-73.93511,45.4749],[-73.93595,45.4748],[-73.93765,45.47437],[-73.9394,45.47373],[-73.95063,45.47149],[-73.95693,45.4702],[-73.96321,45.46887],[-73.97435,45.46643],[-73.97216,45.46782],[-73.96968,45.46963],[-73.96743,45.47157],[-73.96571,45.47343],[-73.96452,45.47496],[-73.96293,45.47721],[-73.96132,45.47938],[-73.95896,45.48235],[-73.95732,45.48429],[-73.95363,45.48851],[-73.94991,45.49235],[-73.94624,45.49585],[-73.94495,45.49691],[-73.94142,45.50012],[-73.93841,45.50308],[-73.93541,45.50584],[-73.93337,45.50755],[-73.93013,45.50926],[-73.92798,45.51016],[-73.92397,45.51158],[-73.91944,45.51374],[-73.91545,45.5167],[-73.91282,45.51916],[-73.91048,45.52097],[-73.90769,45.52228],[-73.90398,45.52349],[-73.90028,45.5244],[-73.89865,45.52464],[-73.89614,45.52555],[-73.89489,45.52447],[-73.89239,45.52279],[-73.89101,45.52225],[-73.89008,45.52201],[-73.88909,45.52198],[-73.88564,45.52223],[-73.88315,45.52218],[-73.8813,45.52172],[-73.87943,45.52089],[-73.87833,45.52061],[-73.87341,45.52013],[-73.87041,45.52005],[-73.86924,45.52011],[-73.86779,45.51984],[-73.86591,45.51989],[-73.86403,45.52004],[-73.86329,45.51985],[-73.86294,45.51934],[-73.86275,45.51859],[-73.86175,45.51754],[-73.86065,45.51694],[-73.85658,45.51507],[-73.8565,45.51425],[-73.8561,45.51341],[-73.85488,45.51254],[-73.854,45.51168],[-73.85318,45.51149],[-73.85442,45.51]]]]}},{"type":"Feature","properties":{"name":"L'Île-Dorval","kind":"linked city","stationBoroughName":"L'Île-Dorval","areaKm2":0.18},"geometry":{"type":"MultiPolygon","coordinates":[[[[-73.74473,45.43366],[-73.74376,45.43372],[-73.74303,45.43353],[-73.74179,45.43344],[-73.73976,45.43377],[-73.73836,45.43348],[-73.73705,45.43341],[-73.73711,45.43291],[-73.73756,45.43224],[-73.73842,45.43169],[-73.73898,45.43094],[-73.7399,45.43059],[-73.74067,45.43065],[-73.7429,45.43116],[-73.74472,45.43126],[-73.74573,45.43164],[-73.74627,45.43224],[-73.74626,45.43258],[-73.74473,45.43366]]]]}},{"type":"Feature","properties":{"name":"LaSalle","kind":"borough","stationBoroughName":"LaSalle","areaKm2":25.21},"geometry":{"type":"MultiPolygon","coordinates":[[[[-73.66601,45.42844],[-73.66592,45.42868],[-73.66586,45.43219],[-73.66513,45.43239],[-73.66209,45.43348],[-73.65862,45.43519],[-73.65478,45.43667],[-73.65302,45.4375],[-73.64825,45.44017],[-73.64642,45.441],[-73.64205,45.44271],[-73.63839,45.4442],[-73.63632,45.44494],[-73.63335,45.44611],[-73.63071,45.44735],[-73.62914,45.44842],[-73.62886,45.44832],[-73.62722,45.44997],[-73.62611,45.45093],[-73.6217,45.45401],[-73.62014,45.45483],[-73.61367,45.45768],[-73.60679,45.45454],[-73.60477,45.44872],[-73.60526,45.44797],[-73.60961,45.4442],[-73.61044,45.44319],[-73.61067,45.44268],[-73.61176,45.43945],[-73.59973,45.43752],[-73.59943,45.4375],[-73.59798,45.43725],[-73.58586,45.43533],[-73.5398,45.42805],[-73.54086,45.42729],[-73.54353,45.42565],[-73.54586,45.42429],[-73.54845,45.42293],[-73.55136,45.42168],[-73.55531,45.42029],[-73.55964,45.41907],[-73.5617,45.4186],[-73.56492,45.41804],[-73.56834,45.41757],[-73.57334,45.41718],[-73.5765,45.4171],[-73.58161,45.4171],[-73.58642,45.41726],[-73.58881,45.41724],[-73.5915,45.41707],[-73.59378,45.41676],[-73.59667,45.41618],[-73.59895,45.41557],[-73.60325,45.41404],[-73.60656,45.41296],[-73.61137,45.41174],[-73.61462,45.4111],[-73.61628,45.41085],[-73.61853,45.4106],[-73.62128,45.41038],[-73.62287,45.41032],[-73.62642,45.4104],[-73.62923,45.41026],[-73.63417,45.40971],[-73.63626,45.40965],[-73.63873,45.40976],[-73.64131,45.41021],[-73.64359,45.41093],[-73.64617,45.41215],[-73.64826,45.41329],[-73.65103,45.41507],[-73.65353,45.4169],[-73.65539,45.41788],[-73.66362,45.4211],[-73.6661,45.4218],[-73.66601,45.42844]]]]}},{"type":"Feature","properties":{"name":"Lachine","kind":"borough","stationBoroughName":"Lachine","areaKm2":22.57},"geometry":{"type":"MultiPolygon","coordinates":[[[[-73.66987,45.42243],[-73.67181,45.42257],[-73.67692,45.42285],[-73.68201,45.42304],[-73.68698,45.42315],[-73.69206,45.42318],[-73.6972,45.42307],[-73.70179,45.42293],[-73.70731,45.42271],[-73.71584,45.42227],[-73.72085,45.43853],[-73.72081,45.43933],[-73.72003,45.43897],[-73.72009,45.43936],[-73.7193,45.43943],[-73.72089,45.44453],[-73.72093,45.44454],[-73.7223,45.44888],[-73.72079,45.44885],[-73.72174,45.45209],[-73.72374,45.45838],[-73.72435,45.46022],[-73.72481,45.46094],[-73.72044,45.46408],[-73.71663,45.46691],[-73.70793,45.47346],[-73.70786,45.47333],[-73.69486,45.46466],[-73.6933,45.47033],[-73.68281,45.46318],[-73.68129,45.46215],[-73.68183,45.46136],[-73.6828,45.46101],[-73.68319,45.4601],[-73.68302,45.46003],[-73.68566,45.45743],[-73.6865,45.45676],[-73.68723,45.4554],[-73.6819,45.45405],[-73.67751,45.45273],[-73.67299,45.45281],[-73.67179,45.45269],[-73.67127,45.45356],[-73.67006,45.45502],[-73.66942,45.45563],[-73.66851,45.45616],[-73.66817,45.45655],[-73.66417,45.45503],[-73.65781,45.45258],[-73.65556,45.45167],[-73.64751,45.44867],[-73.64481,45.4476],[-73.64313,45.4479],[-73.64314,45.44831],[-73.63881,45.44669],[-73.63728,45.44753],[-73.63583,45.44815],[-73.63197,45.44951],[-73.62914,45.44842],[-73.63071,45.44735],[-73.63335,45.44611],[-73.63632,45.44494],[-73.63839,45.4442],[-73.64205,45.44271],[-73.64642,45.441],[-73.64825,45.44017],[-73.65302,45.4375],[-73.65478,45.43667],[-73.65862,45.43519],[-73.66209,45.43348],[-73.66513,45.43239],[-73.66586,45.43219],[-73.66592,45.42868],[-73.66601,45.42844],[-73.6661,45.4218],[-73.66987,45.42243]]]]}},{"type":"Feature","properties":{"name":"Le Plateau-Mont-Royal","kind":"borough","stationBoroughName":"Le Plateau-Mont-Royal","areaKm2":8.14},"geometry":{"type":"MultiPolygon","coordinates":[[[[-73.5914,45.5163],[-73.61242,45.52562],[-73.60834,45.52785],[-73.60727,45.5282],[-73.60598,45.52836],[-73.60363,45.52832],[-73.60239,45.52837],[-73.60055,45.5286],[-73.59879,45.52901],[-73.59735,45.52955],[-73.5957,45.53044],[-73.59468,45.53121],[-73.58596,45.53867],[-73.58455,45.53971],[-73.5829,45.54054],[-73.58123,45.5411],[-73.57933,45.54148],[-73.5773,45.54162],[-73.57561,45.54154],[-73.55923,45.53992],[-73.56139,45.53584],[-73.56397,45.52786],[-73.56513,45.52417],[-73.56553,45.52256],[-73.56558,45.52108],[-73.56935,45.51271],[-73.57104,45.50877],[-73.57308,45.50539],[-73.57349,45.50497],[-73.58014,45.5082],[-73.57951,45.50936],[-73.5787,45.51039],[-73.57876,45.51096],[-73.57814,45.51164],[-73.57927,45.51213],[-73.58831,45.51632],[-73.58937,45.51679],[-73.59027,45.51578],[-73.5914,45.5163]]]]}},{"type":"Feature","properties":{"name":"Le Sud-Ouest","kind":"borough","stationBoroughName":"Le Sud-Ouest","areaKm2":18.1},"geometry":{"type":"MultiPolygon","coordinates":[[[[-73.57884,45.48854],[-73.57581,45.49091],[-73.57306,45.4929],[-73.5672,45.4901],[-73.56433,45.49348],[-73.56322,45.49508],[-73.56138,45.4983],[-73.55906,45.49723],[-73.55613,45.49611],[-73.55504,45.49545],[-73.55452,45.49471],[-73.55363,45.49276],[-73.55259,45.4915],[-73.55128,45.49066],[-73.54959,45.49009],[-73.54113,45.48847],[-73.53987,45.48807],[-73.52954,45.49157],[-73.52424,45.47822],[-73.52382,45.47752],[-73.52167,45.47324],[-73.53418,45.47608],[-73.53555,45.47635],[-73.53777,45.47659],[-73.53917,45.47647],[-73.54093,45.47587],[-73.54206,45.47535],[-73.54602,45.47312],[-73.55004,45.47027],[-73.55199,45.46921],[-73.55382,45.46867],[-73.56309,45.47215],[-73.56299,45.47229],[-73.56821,45.47429],[-73.56925,45.47454],[-73.57084,45.47457],[-73.5723,45.47431],[-73.57172,45.47285],[-73.5714,45.47254],[-73.57172,45.4723],[-73.57223,45.46661],[-73.5726,45.46638],[-73.57608,45.46653],[-73.57597,45.46773],[-73.57746,45.4678],[-73.5777,45.46753],[-73.57876,45.46758],[-73.57886,45.46648],[-73.58073,45.46656],[-73.58096,45.46546],[-73.58106,45.46431],[-73.58089,45.46259],[-73.58043,45.46076],[-73.5803,45.45929],[-73.58041,45.45824],[-73.58065,45.45727],[-73.5811,45.45608],[-73.58237,45.45416],[-73.58351,45.45296],[-73.58673,45.45067],[-73.58794,45.44956],[-73.5894,45.44797],[-73.59054,45.44779],[-73.59215,45.44567],[-73.59224,45.44568],[-73.59432,45.44366],[-73.59455,45.44322],[-73.59943,45.4375],[-73.59973,45.43752],[-73.61176,45.43945],[-73.61067,45.44268],[-73.61044,45.44319],[-73.60961,45.4442],[-73.60526,45.44797],[-73.60477,45.44872],[-73.60679,45.45454],[-73.61367,45.45768],[-73.62014,45.45483],[-73.6217,45.45401],[-73.62611,45.45093],[-73.62722,45.44997],[-73.62886,45.44832],[-73.62914,45.44842],[-73.63197,45.44951],[-73.6353,45.45078],[-73.63146,45.45276],[-73.62853,45.45535],[-73.6262,45.45749],[-73.62432,45.45866],[-73.61996,45.46175],[-73.61979,45.46167],[-73.61823,45.46223],[-73.61518,45.46352],[-73.61212,45.46489],[-73.61161,45.46476],[-73.60827,45.46629],[-73.6072,45.46666],[-73.60661,45.46705],[-73.60585,45.46729],[-73.60563,45.4676],[-73.60317,45.4691],[-73.60259,45.46905],[-73.60127,45.47005],[-73.59888,45.47209],[-73.59648,45.47332],[-73.59513,45.47645],[-73.58664,45.48236],[-73.58577,45.48256],[-73.58512,45.48225],[-73.58435,45.48305],[-73.58061,45.48557],[-73.58154,45.48674],[-73.57884,45.48854]]]]}},{"type":"Feature","properties":{"name":"Mercier-Hochelaga-Maisonneuve","kind":"borough","stationBoroughName":"Mercier - Hochelaga-Maisonneuve","areaKm2":27.41},"geometry":{"type":"MultiPolygon","coordinates":[[[[-73.56807,45.58186],[-73.56699,45.58203],[-73.56675,45.58247],[-73.56603,45.58251],[-73.566,45.5828],[-73.56511,45.58283],[-73.56478,45.583],[-73.56616,45.58426],[-73.56395,45.58499],[-73.56425,45.58541],[-73.56422,45.58724],[-73.56592,45.58808],[-73.56642,45.58842],[-73.56845,45.59181],[-73.56863,45.59264],[-73.56902,45.59354],[-73.56868,45.59488],[-73.56947,45.59604],[-73.5697,45.5966],[-73.56941,45.59714],[-73.56426,45.59541],[-73.54895,45.59031],[-73.54646,45.59399],[-73.54815,45.59457],[-73.54731,45.59542],[-73.54581,45.59489],[-73.54385,45.59809],[-73.54423,45.59821],[-73.54454,45.59941],[-73.54483,45.59955],[-73.54448,45.60065],[-73.54525,45.6011],[-73.54473,45.60191],[-73.5407,45.60068],[-73.5398,45.60181],[-73.54295,45.6032],[-73.54218,45.60418],[-73.53949,45.60304],[-73.5393,45.60326],[-73.53659,45.60214],[-73.53652,45.60263],[-73.53716,45.60459],[-73.53777,45.60478],[-73.53755,45.60518],[-73.54158,45.60693],[-73.54083,45.60784],[-73.54157,45.60816],[-73.54108,45.60951],[-73.54431,45.61031],[-73.54534,45.61074],[-73.54459,45.6122],[-73.54632,45.6127],[-73.54576,45.61332],[-73.5454,45.61411],[-73.5441,45.61505],[-73.54383,45.61495],[-73.53787,45.61391],[-73.53719,45.61584],[-73.52064,45.613],[-73.50688,45.61065],[-73.5073,45.6106],[-73.50708,45.61024],[-73.50754,45.60882],[-73.5084,45.60723],[-73.50875,45.60602],[-73.5093,45.60353],[-73.50935,45.60122],[-73.50915,45.59842],[-73.50873,45.59715],[-73.50866,45.59638],[-73.50791,45.59521],[-73.50768,45.59407],[-73.50749,45.59375],[-73.5073,45.59268],[-73.50688,45.59184],[-73.50556,45.59206],[-73.50412,45.58777],[-73.50393,45.58774],[-73.50498,45.58531],[-73.50522,45.58537],[-73.50568,45.58446],[-73.50464,45.584],[-73.50598,45.58071],[-73.50591,45.58053],[-73.50918,45.57577],[-73.514,45.57106],[-73.51411,45.5709],[-73.51751,45.56906],[-73.5156,45.5683],[-73.51593,45.56775],[-73.51549,45.56751],[-73.51807,45.56614],[-73.52527,45.55749],[-73.52505,45.55687],[-73.5241,45.55648],[-73.52361,45.55678],[-73.52064,45.56038],[-73.52048,45.56031],[-73.52149,45.55909],[-73.52089,45.55885],[-73.52178,45.55787],[-73.52172,45.55762],[-73.52084,45.55715],[-73.5191,45.55892],[-73.51858,45.55867],[-73.52201,45.55519],[-73.51314,45.55229],[-73.52923,45.5361],[-73.53011,45.53479],[-73.5406,45.53131],[-73.54329,45.53182],[-73.54382,45.53299],[-73.54454,45.53407],[-73.54731,45.53751],[-73.54784,45.53809],[-73.54893,45.53873],[-73.55033,45.53905],[-73.55923,45.53992],[-73.5577,45.54277],[-73.55532,45.54736],[-73.55522,45.54803],[-73.55429,45.55712],[-73.55461,45.56435],[-73.55448,45.56518],[-73.55302,45.56751],[-73.54899,45.57346],[-73.55563,45.57568],[-73.556,45.57589],[-73.55816,45.57789],[-73.55881,45.57824],[-73.55984,45.57856],[-73.5685,45.58144],[-73.56807,45.58186]]]]}},{"type":"Feature","properties":{"name":"Mont-Royal","kind":"linked city","stationBoroughName":"Mont-Royal","areaKm2":7.46},"geometry":{"type":"MultiPolygon","coordinates":[[[[-73.67934,45.48507],[-73.68584,45.48946],[-73.68368,45.49014],[-73.68198,45.49081],[-73.68119,45.49126],[-73.67849,45.49337],[-73.67854,45.49341],[-73.67614,45.49532],[-73.66791,45.50174],[-73.66464,45.50443],[-73.66244,45.50776],[-73.66,45.51161],[-73.65776,45.51521],[-73.65484,45.51952],[-73.65277,45.52285],[-73.65075,45.5263],[-73.64819,45.53072],[-73.64148,45.52877],[-73.62277,45.52335],[-73.62215,45.52402],[-73.62078,45.52365],[-73.62291,45.52126],[-73.6244,45.51966],[-73.6256,45.51815],[-73.62667,45.51656],[-73.6289,45.51405],[-73.63083,45.51465],[-73.63135,45.5147],[-73.63464,45.51565],[-73.63589,45.51418],[-73.63665,45.5144],[-73.63852,45.51118],[-73.64167,45.50754],[-73.64187,45.50719],[-73.64154,45.50702],[-73.64227,45.50618],[-73.64224,45.50546],[-73.64573,45.5016],[-73.6516,45.50431],[-73.65639,45.50372],[-73.65997,45.5047],[-73.66005,45.50332],[-73.66058,45.50243],[-73.66245,45.50221],[-73.66175,45.49922],[-73.66372,45.49911],[-73.65618,45.49433],[-73.66586,45.48676],[-73.66804,45.48681],[-73.67513,45.49127],[-73.67721,45.48369],[-73.67934,45.48507]]]]}},{"type":"Feature","properties":{"name":"Montréal-Est","kind":"linked city","stationBoroughName":"Montréal-Est","areaKm2":13.98},"geometry":{"type":"MultiPolygon","coordinates":[[[[-73.5555,45.64262],[-73.55246,45.64441],[-73.54897,45.64615],[-73.54655,45.64756],[-73.54485,45.64839],[-73.54313,45.64763],[-73.53867,45.64555],[-73.52284,45.6384],[-73.52141,45.63769],[-73.49272,45.633],[-73.48404,45.63169],[-73.48554,45.62928],[-73.48782,45.62602],[-73.48945,45.62393],[-73.49124,45.62205],[-73.49486,45.61887],[-73.49665,45.61635],[-73.49852,45.61244],[-73.49946,45.60937],[-73.50688,45.61065],[-73.52064,45.613],[-73.53719,45.61584],[-73.53626,45.61846],[-73.5355,45.6199],[-73.54394,45.62367],[-73.55676,45.62924],[-73.55965,45.63046],[-73.56834,45.63421],[-73.5555,45.64262]]]]}},{"type":"Feature","properties":{"name":"Montréal-Nord","kind":"borough","stationBoroughName":"Montréal-Nord","areaKm2":12.46},"geometry":{"type":"MultiPolygon","coordinates":[[[[-73.60403,45.61065],[-73.60352,45.61017],[-73.60476,45.6095],[-73.60608,45.61075],[-73.60734,45.6098],[-73.60876,45.60856],[-73.6095,45.60779],[-73.62118,45.59383],[-73.62121,45.59385],[-73.62961,45.58382],[-73.62882,45.58325],[-73.62951,45.58238],[-73.632,45.57962],[-73.63291,45.58002],[-73.63651,45.576],[-73.64394,45.5791],[-73.64717,45.58043],[-73.65256,45.58269],[-73.65248,45.58286],[-73.6543,45.58363],[-73.65484,45.58384],[-73.65644,45.58393],[-73.65737,45.58459],[-73.65847,45.58512],[-73.65649,45.58808],[-73.65549,45.58922],[-73.65339,45.59188],[-73.65067,45.59583],[-73.64984,45.59673],[-73.64667,45.59928],[-73.64583,45.60016],[-73.64523,45.60099],[-73.64472,45.60211],[-73.64357,45.60434],[-73.6422,45.60745],[-73.64043,45.61059],[-73.63999,45.61154],[-73.6389,45.61552],[-73.63832,45.61743],[-73.63731,45.61918],[-73.63425,45.62376],[-73.63196,45.62672],[-73.63043,45.6286],[-73.62835,45.63051],[-73.62464,45.63368],[-73.61979,45.629],[-73.61152,45.62118],[-73.61002,45.61982],[-73.60232,45.6126],[-73.60166,45.61197],[-73.60314,45.61113],[-73.60403,45.61065]]]]}},{"type":"Feature","properties":{"name":"Montréal-Ouest","kind":"linked city","stationBoroughName":"Montréal-Ouest","areaKm2":1.42},"geometry":{"type":"MultiPolygon","coordinates":[[[[-73.6462,45.455],[-73.63945,45.45237],[-73.6353,45.45078],[-73.63197,45.44951],[-73.63583,45.44815],[-73.63728,45.44753],[-73.63881,45.44669],[-73.64314,45.44831],[-73.64313,45.4479],[-73.64481,45.4476],[-73.64751,45.44867],[-73.65556,45.45167],[-73.65781,45.45258],[-73.66417,45.45503],[-73.66817,45.45655],[-73.66732,45.45757],[-73.664,45.45631],[-73.65956,45.45458],[-73.65799,45.45594],[-73.66132,45.45722],[-73.65989,45.45816],[-73.65965,45.45843],[-73.65796,45.45953],[-73.6462,45.455]]]]}},{"type":"Feature","properties":{"name":"Outremont","kind":"borough","stationBoroughName":"Outremont","areaKm2":3.8},"geometry":{"type":"MultiPolygon","coordinates":[[[[-73.5912,45.51471],[-73.59185,45.51447],[-73.5956,45.51458],[-73.59686,45.51456],[-73.59786,45.51416],[-73.5989,45.51311],[-73.59751,45.5132],[-73.59694,45.51304],[-73.59678,45.51273],[-73.5969,45.51181],[-73.59671,45.51158],[-73.59569,45.51114],[-73.59394,45.51078],[-73.5942,45.51018],[-73.59153,45.50813],[-73.59575,45.50433],[-73.59897,45.5058],[-73.59956,45.50558],[-73.60226,45.5068],[-73.6033,45.50566],[-73.60618,45.50699],[-73.60636,45.50752],[-73.60957,45.5089],[-73.61305,45.51046],[-73.61581,45.50743],[-73.61826,45.5047],[-73.61895,45.50511],[-73.61604,45.50836],[-73.61792,45.50919],[-73.61693,45.51028],[-73.61888,45.51114],[-73.61764,45.51251],[-73.62364,45.51522],[-73.62667,45.51656],[-73.6256,45.51815],[-73.6244,45.51966],[-73.62291,45.52126],[-73.62078,45.52365],[-73.61845,45.52629],[-73.61728,45.52778],[-73.61707,45.52768],[-73.61242,45.52562],[-73.5914,45.5163],[-73.59027,45.51578],[-73.5912,45.51471]]]]}},{"type":"Feature","properties":{"name":"Pierrefonds-Roxboro","kind":"borough","stationBoroughName":"Pierrefonds-Roxboro","areaKm2":33.97},"geometry":{"type":"MultiPolygon","coordinates":[[[[-73.90556,45.44843],[-73.90638,45.44807],[-73.90796,45.44772],[-73.91051,45.44687],[-73.9231,45.44201],[-73.92283,45.44163],[-73.92481,45.441],[-73.9249,45.4406],[-73.93168,45.44636],[-73.93702,45.45096],[-73.97435,45.46643],[-73.96321,45.46887],[-73.95693,45.4702],[-73.95063,45.47149],[-73.9394,45.47373],[-73.93765,45.47437],[-73.93595,45.4748],[-73.93511,45.4749],[-73.93435,45.47481],[-73.93321,45.47444],[-73.93284,45.47452],[-73.93143,45.47557],[-73.9309,45.47568],[-73.92978,45.47546],[-73.92855,45.47554],[-73.92642,45.47543],[-73.92552,45.4756],[-73.92501,45.47542],[-73.92404,45.47463],[-73.92316,45.47358],[-73.9223,45.47287],[-73.92139,45.47237],[-73.92057,45.47165],[-73.92018,45.47102],[-73.91995,45.47014],[-73.91962,45.46982],[-73.91815,45.469],[-73.91765,45.46824],[-73.91738,45.46715],[-73.91723,45.46605],[-73.91655,45.4651],[-73.91512,45.46425],[-73.9139,45.46421],[-73.91255,45.46455],[-73.9113,45.46508],[-73.91017,45.46526],[-73.90816,45.46538],[-73.90272,45.46557],[-73.90121,45.46598],[-73.89903,45.46684],[-73.89642,45.4683],[-73.89554,45.46899],[-73.89469,45.46944],[-73.89355,45.46974],[-73.89186,45.46987],[-73.89017,45.47017],[-73.88853,45.47056],[-73.88756,45.47116],[-73.88672,45.47188],[-73.88562,45.47317],[-73.884,45.47396],[-73.88262,45.47446],[-73.882,45.47525],[-73.87829,45.47048],[-73.87617,45.47128],[-73.87331,45.47256],[-73.87121,45.4733],[-73.87296,45.47561],[-73.87031,45.47777],[-73.86861,45.47933],[-73.86611,45.48127],[-73.86473,45.48242],[-73.86245,45.48403],[-73.86134,45.48517],[-73.85876,45.48731],[-73.85959,45.48858],[-73.86018,45.48987],[-73.86097,45.48977],[-73.86132,45.49012],[-73.86074,45.49105],[-73.86107,45.49178],[-73.86039,45.49216],[-73.859,45.4941],[-73.85846,45.49458],[-73.85731,45.49602],[-73.85715,45.49661],[-73.85729,45.49721],[-73.85783,45.4978],[-73.85902,45.49856],[-73.86072,45.49989],[-73.86117,45.50105],[-73.861,45.50167],[-73.8606,45.50229],[-73.85919,45.50335],[-73.85875,45.50382],[-73.85825,45.50485],[-73.85822,45.50537],[-73.85897,45.50704],[-73.85874,45.50751],[-73.85813,45.50801],[-73.85614,45.50881],[-73.85509,45.50938],[-73.85442,45.51],[-73.85318,45.51149],[-73.85254,45.51144],[-73.85188,45.51171],[-73.8505,45.51258],[-73.84983,45.51367],[-73.84732,45.51669],[-73.84638,45.51756],[-73.84558,45.51814],[-73.84437,45.51856],[-73.84243,45.51866],[-73.84064,45.51847],[-73.83823,45.51843],[-73.83541,45.51832],[-73.83311,45.51832],[-73.83026,45.51872],[-73.8285,45.51851],[-73.82678,45.51803],[-73.823,45.51654],[-73.82147,45.51602],[-73.82015,45.5159],[-73.81887,45.51612],[-73.8173,45.51661],[-73.81288,45.51761],[-73.81157,45.51776],[-73.81065,45.51774],[-73.80944,45.51745],[-73.80509,45.51616],[-73.80388,45.51592],[-73.80183,45.5159],[-73.79963,45.51533],[-73.79846,45.51475],[-73.79706,45.51341],[-73.79585,45.51274],[-73.79495,45.51238],[-73.79356,45.51226],[-73.79133,45.51222],[-73.78848,45.51225],[-73.7845,45.51199],[-73.77502,45.51156],[-73.77149,45.51133],[-73.7685,45.51133],[-73.76612,45.51143],[-73.7648,45.51161],[-73.76369,45.51191],[-73.75517,45.50649],[-73.75174,45.50431],[-73.75292,45.50355],[-73.75311,45.50367],[-73.75474,45.50329],[-73.7567,45.50237],[-73.75831,45.50199],[-73.75949,45.5027],[-73.76106,45.50159],[-73.76391,45.50341],[-73.76464,45.50285],[-73.76541,45.50336],[-73.76724,45.5027],[-73.76925,45.50397],[-73.77107,45.50335],[-73.77253,45.50251],[-73.77091,45.50147],[-73.77388,45.50051],[-73.77168,45.49911],[-73.77238,45.49889],[-73.77362,45.4982],[-73.77543,45.49941],[-73.77677,45.50021],[-73.77698,45.50011],[-73.77818,45.5009],[-73.78062,45.49974],[-73.7812,45.50011],[-73.78292,45.49929],[-73.78631,45.50142],[-73.78622,45.50199],[-73.78597,45.50196],[-73.78463,45.5026],[-73.78394,45.50271],[-73.7837,45.50324],[-73.79226,45.50517],[-73.79036,45.50395],[-73.80071,45.49901],[-73.80206,45.50031],[-73.80888,45.49705],[-73.80906,45.49726],[-73.81003,45.4968],[-73.81436,45.50129],[-73.81384,45.5016],[-73.81443,45.50221],[-73.81499,45.50193],[-73.81518,45.50213],[-73.81462,45.5024],[-73.81512,45.5029],[-73.81576,45.50262],[-73.81925,45.50618],[-73.82254,45.50459],[-73.82611,45.5028],[-73.82983,45.50105],[-73.83251,45.49973],[-73.83364,45.49925],[-73.83552,45.49827],[-73.83582,45.49874],[-73.83764,45.4977],[-73.8352,45.49453],[-73.8361,45.49406],[-73.84251,45.49094],[-73.84454,45.4899],[-73.84457,45.4898],[-73.84936,45.48739],[-73.85051,45.48674],[-73.84584,45.47951],[-73.84937,45.47772],[-73.85495,45.47484],[-73.85741,45.47366],[-73.85687,45.47298],[-73.85456,45.4706],[-73.86041,45.466],[-73.85993,45.46558],[-73.86706,45.4614],[-73.86579,45.46011],[-73.8814,45.45265],[-73.88467,45.45248],[-73.88745,45.4504],[-73.88824,45.44962],[-73.889,45.44915],[-73.89156,45.44804],[-73.89364,45.44668],[-73.894,45.44654],[-73.89502,45.44683],[-73.89808,45.44754],[-73.90037,45.44715],[-73.90013,45.44671],[-73.90147,45.44635],[-73.90234,45.4475],[-73.90435,45.44678],[-73.90556,45.44843]]]]}},{"type":"Feature","properties":{"name":"Pointe-Claire","kind":"linked city","stationBoroughName":"Pointe-Claire","areaKm2":34.31},"geometry":{"type":"MultiPolygon","coordinates":[[[[-73.83181,45.4286],[-73.83227,45.42974],[-73.8319,45.4298],[-73.83546,45.43851],[-73.83833,45.44545],[-73.83213,45.44538],[-73.834,45.44765],[-73.83407,45.44765],[-73.83616,45.44975],[-73.83386,45.44973],[-73.84053,45.45648],[-73.84113,45.45713],[-73.84655,45.46257],[-73.83169,45.4703],[-73.81575,45.47834],[-73.81549,45.47804],[-73.81261,45.47522],[-73.79604,45.4831],[-73.7947,45.48173],[-73.79457,45.48179],[-73.79121,45.47829],[-73.78161,45.46843],[-73.78029,45.46716],[-73.78462,45.46508],[-73.78332,45.46376],[-73.78146,45.4587],[-73.78002,45.45487],[-73.78228,45.45445],[-73.76847,45.41859],[-73.77479,45.4174],[-73.77645,45.41696],[-73.77848,45.41632],[-73.78243,45.41493],[-73.78648,45.41313],[-73.78968,45.41149],[-73.79629,45.40774],[-73.80054,45.40501],[-73.80407,45.40257],[-73.80676,45.40057],[-73.81371,45.39468],[-73.81573,45.39257],[-73.83181,45.4286]]]]}},{"type":"Feature","properties":{"name":"Rivière-des-Prairies-Pointe-aux-Trembles","kind":"borough","stationBoroughName":"Rivière-des-Prairies - Pointe-aux-Trembles","areaKm2":51.27},"geometry":{"type":"MultiPolygon","coordinates":[[[[-73.57401,45.63049],[-73.59547,45.61582],[-73.59685,45.61495],[-73.5986,45.61403],[-73.60066,45.61317],[-73.60232,45.6126],[-73.61002,45.61982],[-73.61152,45.62118],[-73.61979,45.629],[-73.62464,45.63368],[-73.6212,45.63639],[-73.61875,45.63844],[-73.61631,45.64021],[-73.61361,45.64227],[-73.61112,45.64405],[-73.60877,45.64541],[-73.60665,45.64652],[-73.60442,45.64734],[-73.60097,45.64816],[-73.59929,45.64893],[-73.59695,45.65012],[-73.59072,45.6534],[-73.58768,45.65516],[-73.58479,45.65673],[-73.58094,45.65811],[-73.57792,45.6595],[-73.57429,45.66124],[-73.57202,45.66266],[-73.56894,45.66394],[-73.5659,45.66505],[-73.56345,45.66628],[-73.56151,45.66763],[-73.55572,45.67154],[-73.55418,45.6727],[-73.55209,45.67374],[-73.55037,45.67444],[-73.5463,45.67545],[-73.54437,45.67607],[-73.54243,45.67679],[-73.54042,45.67771],[-73.53866,45.6788],[-73.53734,45.67983],[-73.5342,45.68267],[-73.53101,45.6853],[-73.53017,45.68636],[-73.52955,45.68747],[-73.52764,45.69255],[-73.52665,45.69427],[-73.52515,45.69619],[-73.5231,45.69788],[-73.52148,45.69887],[-73.5191,45.69996],[-73.51666,45.70064],[-73.51415,45.70096],[-73.50767,45.70255],[-73.50346,45.70366],[-73.50039,45.70438],[-73.49683,45.70495],[-73.49441,45.70524],[-73.49345,45.70517],[-73.49294,45.70497],[-73.49228,45.7044],[-73.49078,45.70266],[-73.49007,45.70234],[-73.4892,45.7023],[-73.48642,45.70284],[-73.48355,45.70372],[-73.48094,45.70467],[-73.47837,45.70582],[-73.47636,45.7069],[-73.47535,45.70758],[-73.47456,45.70681],[-73.47397,45.70587],[-73.47387,45.70492],[-73.47464,45.70259],[-73.47478,45.70162],[-73.47448,45.70039],[-73.47561,45.70006],[-73.47659,45.6996],[-73.47744,45.69896],[-73.47834,45.69701],[-73.47866,45.69494],[-73.47932,45.69344],[-73.48023,45.69193],[-73.48243,45.68909],[-73.48439,45.68711],[-73.48561,45.68508],[-73.48618,45.68262],[-73.48643,45.67801],[-73.48659,45.67244],[-73.48659,45.66805],[-73.48643,45.66564],[-73.48578,45.66254],[-73.48435,45.65818],[-73.48324,45.6555],[-73.48214,45.65362],[-73.48028,45.65124],[-73.47876,45.64915],[-73.47814,45.64785],[-73.47748,45.64551],[-73.47731,45.6438],[-73.4774,45.64188],[-73.47773,45.64018],[-73.47855,45.6381],[-73.47922,45.63696],[-73.48054,45.6353],[-73.48271,45.63326],[-73.48404,45.63169],[-73.49272,45.633],[-73.52141,45.63769],[-73.52284,45.6384],[-73.53867,45.64555],[-73.54313,45.64763],[-73.54485,45.64839],[-73.54655,45.64756],[-73.54897,45.64615],[-73.55246,45.64441],[-73.5555,45.64262],[-73.56834,45.63421],[-73.57401,45.63049]]]]}},{"type":"Feature","properties":{"name":"Rosemont-La Petite-Patrie","kind":"borough","stationBoroughName":"Rosemont - La Petite-Patrie","areaKm2":15.89},"geometry":{"type":"MultiPolygon","coordinates":[[[[-73.55984,45.57856],[-73.55881,45.57824],[-73.55816,45.57789],[-73.556,45.57589],[-73.55563,45.57568],[-73.54899,45.57346],[-73.55302,45.56751],[-73.55448,45.56518],[-73.55461,45.56435],[-73.55429,45.55712],[-73.55522,45.54803],[-73.55532,45.54736],[-73.5577,45.54277],[-73.55923,45.53992],[-73.57561,45.54154],[-73.5773,45.54162],[-73.57933,45.54148],[-73.58123,45.5411],[-73.5829,45.54054],[-73.58455,45.53971],[-73.58596,45.53867],[-73.59468,45.53121],[-73.5957,45.53044],[-73.59735,45.52955],[-73.59879,45.52901],[-73.60055,45.5286],[-73.60239,45.52837],[-73.60363,45.52832],[-73.60598,45.52836],[-73.60727,45.5282],[-73.60834,45.52785],[-73.61242,45.52562],[-73.61707,45.52768],[-73.61695,45.5288],[-73.61712,45.52927],[-73.61767,45.52996],[-73.61834,45.5304],[-73.61961,45.5308],[-73.62153,45.53112],[-73.61821,45.53478],[-73.61732,45.53521],[-73.61414,45.53864],[-73.61335,45.54031],[-73.61227,45.5422],[-73.6095,45.54528],[-73.60706,45.54794],[-73.60354,45.54636],[-73.60239,45.54758],[-73.59847,45.55218],[-73.58629,45.56615],[-73.58711,45.56641],[-73.58177,45.57249],[-73.57726,45.57767],[-73.57812,45.57807],[-73.57721,45.57898],[-73.57522,45.58055],[-73.57397,45.58193],[-73.57102,45.58092],[-73.57065,45.58147],[-73.56986,45.58121],[-73.5696,45.58166],[-73.5685,45.58144],[-73.55984,45.57856]]]]}},{"type":"Feature","properties":{"name":"Saint-Laurent","kind":"borough","stationBoroughName":"Saint-Laurent","areaKm2":43.06},"geometry":{"type":"MultiPolygon","coordinates":[[[[-73.6933,45.47033],[-73.69486,45.46466],[-73.70786,45.47333],[-73.70793,45.47346],[-73.71252,45.47642],[-73.72247,45.48275],[-73.72309,45.48233],[-73.72534,45.48054],[-73.72647,45.47957],[-73.73001,45.47687],[-73.73402,45.47369],[-73.73998,45.46907],[-73.75075,45.4606],[-73.76276,45.46825],[-73.76236,45.46856],[-73.76839,45.47496],[-73.76616,45.47676],[-73.7742,45.48181],[-73.7681,45.48476],[-73.768,45.48542],[-73.76694,45.48576],[-73.7668,45.48613],[-73.76612,45.48664],[-73.76651,45.4874],[-73.76634,45.48779],[-73.76683,45.48793],[-73.76663,45.48829],[-73.76718,45.4888],[-73.76704,45.48917],[-73.76442,45.49039],[-73.76454,45.49045],[-73.76843,45.49445],[-73.76971,45.49571],[-73.77362,45.4982],[-73.77238,45.49889],[-73.77168,45.49911],[-73.77388,45.50051],[-73.77091,45.50147],[-73.77253,45.50251],[-73.77107,45.50335],[-73.76925,45.50397],[-73.76724,45.5027],[-73.76541,45.50336],[-73.76464,45.50285],[-73.76391,45.50341],[-73.76106,45.50159],[-73.75949,45.5027],[-73.75831,45.50199],[-73.7567,45.50237],[-73.75474,45.50329],[-73.75311,45.50367],[-73.75292,45.50355],[-73.75174,45.50431],[-73.75517,45.50649],[-73.72851,45.51611],[-73.7359,45.52073],[-73.73174,45.52367],[-73.72806,45.52135],[-73.72286,45.52579],[-73.72169,45.52675],[-73.71852,45.52474],[-73.7173,45.52569],[-73.71463,45.52399],[-73.71309,45.52516],[-73.71113,45.52427],[-73.70921,45.52306],[-73.69606,45.52779],[-73.69493,45.52814],[-73.69329,45.52851],[-73.69062,45.52881],[-73.68846,45.5288],[-73.6871,45.52867],[-73.68498,45.53016],[-73.67706,45.53198],[-73.67441,45.53235],[-73.67276,45.53233],[-73.67139,45.53219],[-73.66956,45.53178],[-73.65075,45.5263],[-73.65277,45.52285],[-73.65484,45.51952],[-73.65776,45.51521],[-73.66,45.51161],[-73.66244,45.50776],[-73.66464,45.50443],[-73.66791,45.50174],[-73.67614,45.49532],[-73.67854,45.49341],[-73.67849,45.49337],[-73.68119,45.49126],[-73.68198,45.49081],[-73.68368,45.49014],[-73.68584,45.48946],[-73.67934,45.48507],[-73.67721,45.48369],[-73.67794,45.48094],[-73.67997,45.47351],[-73.68,45.47352],[-73.68165,45.46751],[-73.68281,45.46318],[-73.6933,45.47033]]]]}},{"type":"Feature","properties":{"name":"Saint-Léonard","kind":"borough","stationBoroughName":"Saint-Léonard","areaKm2":13.51},"geometry":{"type":"MultiPolygon","coordinates":[[[[-73.5696,45.58166],[-73.56986,45.58121],[-73.57065,45.58147],[-73.57102,45.58092],[-73.57397,45.58193],[-73.57522,45.58055],[-73.57721,45.57898],[-73.57812,45.57807],[-73.57726,45.57767],[-73.58177,45.57249],[-73.58711,45.56641],[-73.58714,45.56637],[-73.60158,45.57275],[-73.60054,45.57402],[-73.60087,45.574],[-73.60184,45.57449],[-73.60234,45.57427],[-73.60276,45.57475],[-73.60436,45.57557],[-73.60593,45.57627],[-73.61133,45.57856],[-73.61479,45.58017],[-73.62084,45.58283],[-73.62303,45.58385],[-73.62424,45.58464],[-73.62533,45.58483],[-73.62676,45.58547],[-73.62882,45.58325],[-73.62961,45.58382],[-73.62121,45.59385],[-73.62118,45.59383],[-73.6095,45.60779],[-73.60876,45.60856],[-73.60734,45.6098],[-73.60608,45.61075],[-73.60476,45.6095],[-73.60352,45.61017],[-73.60403,45.61065],[-73.60314,45.61113],[-73.59325,45.60685],[-73.5917,45.60613],[-73.58328,45.60245],[-73.5771,45.59978],[-73.57731,45.59937],[-73.57609,45.59924],[-73.57531,45.59901],[-73.5729,45.59791],[-73.5697,45.5966],[-73.56947,45.59604],[-73.56868,45.59488],[-73.56902,45.59354],[-73.56863,45.59264],[-73.56845,45.59181],[-73.56642,45.58842],[-73.56592,45.58808],[-73.56422,45.58724],[-73.56425,45.58541],[-73.56395,45.58499],[-73.56616,45.58426],[-73.56478,45.583],[-73.56511,45.58283],[-73.566,45.5828],[-73.56603,45.58251],[-73.56675,45.58247],[-73.56699,45.58203],[-73.56807,45.58186],[-73.5685,45.58144],[-73.5696,45.58166]]]]}},{"type":"Feature","properties":{"name":"Sainte-Anne-de-Bellevue","kind":"linked city","stationBoroughName":"Sainte-Anne-de-Bellevue","areaKm2":11.18},"geometry":{"type":"MultiPolygon","coordinates":[[[[-73.93541,45.39895],[-73.93835,45.39938],[-73.94103,45.3999],[-73.94462,45.40072],[-73.9471,45.40101],[-73.94904,45.40107],[-73.95026,45.40129],[-73.95138,45.40168],[-73.95286,45.40237],[-73.95466,45.40291],[-73.95606,45.40312],[-73.95756,45.40355],[-73.95981,45.40438],[-73.96041,45.40484],[-73.96064,45.4058],[-73.95677,45.40971],[-73.95473,45.4079],[-73.95218,45.4109],[-73.94953,45.41387],[-73.95002,45.41665],[-73.95019,45.41722],[-73.95086,45.41786],[-73.95328,45.42057],[-73.95559,45.42324],[-73.95661,45.42589],[-73.95937,45.4271],[-73.95779,45.42896],[-73.95295,45.43441],[-73.95156,45.43595],[-73.94573,45.4331],[-73.94791,45.43593],[-73.9468,45.43638],[-73.94605,45.43523],[-73.94501,45.4356],[-73.94369,45.43626],[-73.94248,45.43742],[-73.9421,45.43796],[-73.94022,45.43718],[-73.93948,45.43669],[-73.93757,45.43729],[-73.93702,45.43671],[-73.93078,45.43871],[-73.93156,45.4399],[-73.92745,45.4412],[-73.92667,45.44001],[-73.9249,45.4406],[-73.92481,45.441],[-73.92283,45.44163],[-73.9231,45.44201],[-73.91051,45.44687],[-73.90796,45.44772],[-73.90638,45.44807],[-73.90556,45.44843],[-73.90435,45.44678],[-73.90458,45.44671],[-73.90414,45.44503],[-73.90554,45.44479],[-73.90441,45.4405],[-73.90391,45.4403],[-73.90323,45.44041],[-73.90283,45.43996],[-73.90249,45.43878],[-73.90233,45.43881],[-73.90182,45.43677],[-73.90132,45.4353],[-73.90128,45.43512],[-73.90273,45.43462],[-73.90473,45.43377],[-73.90593,45.43317],[-73.92822,45.42121],[-73.92968,45.42054],[-73.93149,45.41999],[-73.93155,45.41859],[-73.9337,45.40514],[-73.93359,45.39878],[-73.93541,45.39895]]]]}},{"type":"Feature","properties":{"name":"Senneville","kind":"linked city","stationBoroughName":"Senneville","areaKm2":18.59},"geometry":{"type":"MultiPolygon","coordinates":[[[[-73.92667,45.44001],[-73.92745,45.4412],[-73.93156,45.4399],[-73.93078,45.43871],[-73.93702,45.43671],[-73.93757,45.43729],[-73.93948,45.43669],[-73.94022,45.43718],[-73.9421,45.43796],[-73.94248,45.43742],[-73.94369,45.43626],[-73.94501,45.4356],[-73.94605,45.43523],[-73.9468,45.43638],[-73.94791,45.43593],[-73.94573,45.4331],[-73.95156,45.43595],[-73.95295,45.43441],[-73.95779,45.42896],[-73.95937,45.4271],[-73.95661,45.42589],[-73.95559,45.42324],[-73.95328,45.42057],[-73.95086,45.41786],[-73.95019,45.41722],[-73.95002,45.41665],[-73.94953,45.41387],[-73.95218,45.4109],[-73.95473,45.4079],[-73.95677,45.40971],[-73.96064,45.4058],[-73.96079,45.40679],[-73.96117,45.40758],[-73.96171,45.40814],[-73.96309,45.40894],[-73.9646,45.40967],[-73.96678,45.41033],[-73.97348,45.41208],[-73.97687,45.4132],[-73.97924,45.41424],[-73.98073,45.41521],[-73.98207,45.41679],[-73.98266,45.41779],[-73.98305,45.41929],[-73.98349,45.42263],[-73.98391,45.42499],[-73.98452,45.42765],[-73.98538,45.43113],[-73.98682,45.43593],[-73.9878,45.43865],[-73.98982,45.44393],[-73.99144,45.44752],[-73.99369,45.45213],[-73.9948,45.45429],[-73.9966,45.45749],[-73.99235,45.45877],[-73.98755,45.4604],[-73.98496,45.46138],[-73.98224,45.46246],[-73.97791,45.46443],[-73.97435,45.46643],[-73.93702,45.45096],[-73.93168,45.44636],[-73.9249,45.4406],[-73.92667,45.44001]]]]}},{"type":"Feature","properties":{"name":"Verdun","kind":"borough","stationBoroughName":"Verdun","areaKm2":22.29},"geometry":{"type":"MultiPolygon","coordinates":[[[[-73.58586,45.43533],[-73.59798,45.43725],[-73.59943,45.4375],[-73.59455,45.44322],[-73.59432,45.44366],[-73.59224,45.44568],[-73.59215,45.44567],[-73.59054,45.44779],[-73.5894,45.44797],[-73.58794,45.44956],[-73.58673,45.45067],[-73.58351,45.45296],[-73.58237,45.45416],[-73.5811,45.45608],[-73.58065,45.45727],[-73.58041,45.45824],[-73.5803,45.45929],[-73.58043,45.46076],[-73.58089,45.46259],[-73.58106,45.46431],[-73.58096,45.46546],[-73.58073,45.46656],[-73.57886,45.46648],[-73.57876,45.46758],[-73.5777,45.46753],[-73.57746,45.4678],[-73.57597,45.46773],[-73.57608,45.46653],[-73.5726,45.46638],[-73.57223,45.46661],[-73.57172,45.4723],[-73.5714,45.47254],[-73.57172,45.47285],[-73.5723,45.47431],[-73.57084,45.47457],[-73.56925,45.47454],[-73.56821,45.47429],[-73.56299,45.47229],[-73.56309,45.47215],[-73.55382,45.46867],[-73.55199,45.46921],[-73.55004,45.47027],[-73.54602,45.47312],[-73.54206,45.47535],[-73.54093,45.47587],[-73.53917,45.47647],[-73.53777,45.47659],[-73.53555,45.47635],[-73.53418,45.47608],[-73.52167,45.47324],[-73.52037,45.47045],[-73.51957,45.46846],[-73.51885,45.46593],[-73.51882,45.46432],[-73.51914,45.46216],[-73.51964,45.4595],[-73.52008,45.45759],[-73.52093,45.45449],[-73.52154,45.4526],[-73.52322,45.44788],[-73.52417,45.44576],[-73.52603,45.44229],[-73.52739,45.44015],[-73.5297,45.43715],[-73.53125,45.43543],[-73.53347,45.43315],[-73.53631,45.43068],[-73.53881,45.42874],[-73.5398,45.42805],[-73.58586,45.43533]]]]}},{"type":"Feature","properties":{"name":"Ville-Marie","kind":"borough","stationBoroughName":"Ville-Marie","areaKm2":21.49},"geometry":{"type":"MultiPolygon","coordinates":[[[[-73.53038,45.53339],[-73.53023,45.53257],[-73.51991,45.49933],[-73.52048,45.49924],[-73.51923,45.49519],[-73.52961,45.49174],[-73.52954,45.49157],[-73.53987,45.48807],[-73.54113,45.48847],[-73.54959,45.49009],[-73.55128,45.49066],[-73.55259,45.4915],[-73.55363,45.49276],[-73.55452,45.49471],[-73.55504,45.49545],[-73.55613,45.49611],[-73.55906,45.49723],[-73.56138,45.4983],[-73.56322,45.49508],[-73.56433,45.49348],[-73.5672,45.4901],[-73.57306,45.4929],[-73.57581,45.49091],[-73.57884,45.48854],[-73.58154,45.48674],[-73.58313,45.48813],[-73.58241,45.48834],[-73.58871,45.49039],[-73.5957,45.49262],[-73.59648,45.49171],[-73.60124,45.4937],[-73.60094,45.49428],[-73.60288,45.49451],[-73.60277,45.495],[-73.60433,45.49472],[-73.60547,45.4949],[-73.60237,45.49799],[-73.60016,45.49999],[-73.59912,45.50086],[-73.59727,45.50193],[-73.59519,45.50267],[-73.594,45.50353],[-73.59575,45.50433],[-73.59153,45.50813],[-73.5942,45.51018],[-73.59394,45.51078],[-73.59569,45.51114],[-73.59671,45.51158],[-73.5969,45.51181],[-73.59678,45.51273],[-73.59694,45.51304],[-73.59751,45.5132],[-73.5989,45.51311],[-73.59786,45.51416],[-73.59686,45.51456],[-73.5956,45.51458],[-73.59185,45.51447],[-73.5912,45.51471],[-73.59027,45.51578],[-73.58937,45.51679],[-73.58831,45.51632],[-73.57927,45.51213],[-73.57814,45.51164],[-73.57876,45.51096],[-73.5787,45.51039],[-73.57951,45.50936],[-73.58014,45.5082],[-73.57349,45.50497],[-73.57308,45.50539],[-73.57104,45.50877],[-73.56935,45.51271],[-73.56558,45.52108],[-73.56553,45.52256],[-73.56513,45.52417],[-73.56397,45.52786],[-73.56139,45.53584],[-73.55923,45.53992],[-73.55033,45.53905],[-73.54893,45.53873],[-73.54784,45.53809],[-73.54731,45.53751],[-73.54454,45.53407],[-73.54382,45.53299],[-73.54329,45.53182],[-73.5406,45.53131],[-73.53011,45.53479],[-73.53038,45.53339]]]]}},{"type":"Feature","properties":{"name":"Villeray-Saint-Michel-Parc-Extension","kind":"borough","stationBoroughName":"Villeray—Saint-Michel—Parc-Extension","areaKm2":16.48},"geometry":{"type":"MultiPolygon","coordinates":[[[[-73.62215,45.52402],[-73.62277,45.52335],[-73.64148,45.52877],[-73.64819,45.53072],[-73.64862,45.53084],[-73.64775,45.53221],[-73.64653,45.53396],[-73.64079,45.54291],[-73.63996,45.54403],[-73.63643,45.54809],[-73.63519,45.54902],[-73.63406,45.54954],[-73.63228,45.55003],[-73.63071,45.55028],[-73.62939,45.55063],[-73.62731,45.55157],[-73.62327,45.55378],[-73.62174,45.5545],[-73.62393,45.55547],[-73.63152,45.55876],[-73.64536,45.56478],[-73.64466,45.56579],[-73.64266,45.56821],[-73.63624,45.57589],[-73.63651,45.576],[-73.63291,45.58002],[-73.632,45.57962],[-73.62951,45.58238],[-73.62882,45.58325],[-73.62676,45.58547],[-73.62533,45.58483],[-73.62424,45.58464],[-73.62303,45.58385],[-73.62084,45.58283],[-73.61479,45.58017],[-73.61133,45.57856],[-73.60593,45.57627],[-73.60436,45.57557],[-73.60276,45.57475],[-73.60234,45.57427],[-73.60184,45.57449],[-73.60087,45.574],[-73.60054,45.57402],[-73.60158,45.57275],[-73.58714,45.56637],[-73.58711,45.56641],[-73.58629,45.56615],[-73.59847,45.55218],[-73.60239,45.54758],[-73.60354,45.54636],[-73.60706,45.54794],[-73.6095,45.54528],[-73.61227,45.5422],[-73.61335,45.54031],[-73.61414,45.53864],[-73.61732,45.53521],[-73.61821,45.53478],[-73.62153,45.53112],[-73.61961,45.5308],[-73.61834,45.5304],[-73.61767,45.52996],[-73.61712,45.52927],[-73.61695,45.5288],[-73.61707,45.52768],[-73.61728,45.52778],[-73.61845,45.52629],[-73.62078,45.52365],[-73.62215,45.52402]]]]}},{"type":"Feature","properties":{"name":"Westmount","kind":"linked city","stationBoroughName":"Westmount","areaKm2":4.02},"geometry":{"type":"MultiPolygon","coordinates":[[[[-73.58061,45.48557],[-73.58435,45.48305],[-73.58512,45.48225],[-73.58577,45.48256],[-73.58664,45.48236],[-73.59513,45.47645],[-73.59847,45.4741],[-73.605,45.47702],[-73.6054,45.47657],[-73.61438,45.48062],[-73.61238,45.48261],[-73.61722,45.48479],[-73.61529,45.48679],[-73.61842,45.48821],[-73.61841,45.48898],[-73.61503,45.49277],[-73.61476,45.49303],[-73.61161,45.49171],[-73.61046,45.49286],[-73.6094,45.49405],[-73.60839,45.49367],[-73.6074,45.49457],[-73.60684,45.49527],[-73.60547,45.4949],[-73.60433,45.49472],[-73.60277,45.495],[-73.60288,45.49451],[-73.60094,45.49428],[-73.60124,45.4937],[-73.59648,45.49171],[-73.5957,45.49262],[-73.58871,45.49039],[-73.58241,45.48834],[-73.58313,45.48813],[-73.58154,45.48674],[-73.58061,45.48557]]]]}}]}