{"type":"FeatureCollection","features":[{"type":"Feature","properties":{"name":"Stausee Mattmark","areaHa":170.95,"osmId":148091077},"geometry":{"type":"Polygon","coordinates":[[[7.96379,46.04993],[7.964,46.0494],[7.96392,46.04912],[7.96408,46.04887],[7.96397,46.04875],[7.96417,46.04853],[7.96413,46.04836],[7.96445,46.0478],[7.96446,46.04753],[7.96435,46.04741],[7.96456,46.04697],[7.96444,46.04652],[7.9643,46.04641],[7.96446,46.04639],[7.96441,46.04626],[7.96462,46.04609],[7.96437,46.04581],[7.96434,46.0454],[7.96459,46.04506],[7.96468,46.04431],[7.96432,46.04288],[7.9646,46.04249],[7.96457,46.04222],[7.96431,46.042],[7.96417,46.04151],[7.96432,46.04133],[7.96426,46.04116],[7.96435,46.0403],[7.96455,46.04],[7.96456,46.0392],[7.96475,46.03907],[7.96425,46.03855],[7.96419,46.0379],[7.96431,46.03781],[7.96422,46.03764],[7.96434,46.03748],[7.96445,46.03679],[7.96426,46.0355],[7.96393,46.035],[7.9641,46.03473],[7.96401,46.03451],[7.96413,46.03435],[7.96414,46.03381],[7.96458,46.03192],[7.96479,46.03146],[7.96478,46.03114],[7.96542,46.03002],[7.96537,46.02947],[7.96562,46.02877],[7.96578,46.02856],[7.96599,46.02845],[7.96587,46.02811],[7.966,46.02794],[7.96598,46.02771],[7.96642,46.0269],[7.96636,46.02535],[7.96665,46.02497],[7.96673,46.02467],[7.9661,46.02385],[7.96599,46.02383],[7.9659,46.02336],[7.96603,46.02309],[7.96571,46.02289],[7.96584,46.02271],[7.96569,46.02265],[7.96572,46.02235],[7.96561,46.02235],[7.96576,46.02216],[7.96568,46.02213],[7.96577,46.02207],[7.96575,46.0219],[7.96585,46.02186],[7.96577,46.02163],[7.96552,46.02161],[7.9652,46.02138],[7.96478,46.02123],[7.96454,46.02126],[7.9644,46.02097],[7.96432,46.02122],[7.9641,46.02138],[7.96389,46.02235],[7.96339,46.02351],[7.96288,46.02415],[7.96275,46.0242],[7.96243,46.02492],[7.96212,46.02519],[7.96195,46.02557],[7.96189,46.02633],[7.96139,46.02676],[7.96109,46.02752],[7.96077,46.02786],[7.96077,46.02802],[7.96058,46.02807],[7.96032,46.02828],[7.96023,46.02849],[7.9597,46.02896],[7.95928,46.03039],[7.95875,46.03157],[7.95856,46.03183],[7.95831,46.03197],[7.95815,46.03231],[7.95793,46.0324],[7.95772,46.03265],[7.9574,46.03322],[7.95738,46.03353],[7.95704,46.03383],[7.95709,46.03419],[7.95635,46.03462],[7.95633,46.03477],[7.95609,46.03489],[7.95598,46.03516],[7.9558,46.03516],[7.95568,46.03528],[7.9559,46.03562],[7.95585,46.0359],[7.95606,46.03648],[7.95609,46.03677],[7.95593,46.03722],[7.95604,46.0374],[7.95581,46.0378],[7.95534,46.0382],[7.9554,46.03848],[7.95521,46.03858],[7.95514,46.03872],[7.95536,46.03955],[7.9551,46.0398],[7.95527,46.0403],[7.95508,46.04038],[7.95522,46.04057],[7.9549,46.04102],[7.95484,46.04135],[7.95495,46.04153],[7.95464,46.04178],[7.95448,46.04238],[7.95419,46.04278],[7.9543,46.043],[7.95422,46.04358],[7.95431,46.04426],[7.95422,46.04442],[7.95438,46.0447],[7.95435,46.04489],[7.95453,46.04543],[7.95448,46.04572],[7.95465,46.04599],[7.95482,46.04706],[7.95459,46.04773],[7.95493,46.04787],[7.96379,46.04993]]]}},{"type":"Feature","properties":{"name":"bacino artificiale Cignana","areaHa":50.99,"osmId":2233598},"geometry":{"type":"Polygon","coordinates":[[[7.58771,45.87675],[7.58713,45.87735],[7.5874,45.8779],[7.58737,45.87812],[7.58711,45.87848],[7.58756,45.87984],[7.58742,45.8803],[7.58638,45.88068],[7.58519,45.88142],[7.58507,45.88174],[7.58476,45.88206],[7.58504,45.88253],[7.58482,45.88301],[7.58415,45.88402],[7.5834,45.88466],[7.58375,45.88519],[7.58406,45.88535],[7.58493,45.88557],[7.58616,45.8853],[7.58674,45.88504],[7.58808,45.88515],[7.58839,45.88507],[7.58898,45.88518],[7.58921,45.88513],[7.58938,45.88504],[7.5893,45.88483],[7.58944,45.88468],[7.59035,45.88408],[7.59079,45.88359],[7.59057,45.88307],[7.59094,45.88292],[7.5913,45.88292],[7.59156,45.88301],[7.59198,45.88272],[7.59212,45.88243],[7.59258,45.88226],[7.59324,45.88224],[7.59384,45.88208],[7.59469,45.88174],[7.59545,45.88152],[7.59591,45.88152],[7.59652,45.88109],[7.59686,45.88123],[7.59728,45.88123],[7.59686,45.88076],[7.59696,45.88033],[7.59522,45.87956],[7.59352,45.87844],[7.5926,45.87859],[7.59228,45.87848],[7.59211,45.87852],[7.59159,45.8782],[7.5912,45.87767],[7.59099,45.87763],[7.59113,45.87748],[7.59111,45.87735],[7.59092,45.87727],[7.59061,45.87727],[7.59067,45.87707],[7.59053,45.877],[7.59032,45.87705],[7.59019,45.87689],[7.59024,45.87675],[7.59007,45.87666],[7.59025,45.87641],[7.59026,45.87618],[7.58952,45.8761],[7.58931,45.87589],[7.58902,45.87581],[7.58877,45.87586],[7.5878,45.87654],[7.58771,45.87675]],[[7.58457,45.88389],[7.58489,45.88376],[7.58523,45.88375],[7.58588,45.88437],[7.5858,45.88481],[7.58477,45.88516],[7.58446,45.88514],[7.58436,45.8849],[7.58404,45.88481],[7.58408,45.88467],[7.5843,45.88471],[7.58432,45.88416],[7.58457,45.88389]]]}},{"type":"Feature","properties":{"name":"Lago Diga del Goillet","areaHa":45.0,"osmId":60356682},"geometry":{"type":"Polygon","coordinates":[[[7.66234,45.93049],[7.66285,45.93077],[7.66362,45.93093],[7.66348,45.93131],[7.66283,45.9318],[7.66544,45.93426],[7.66584,45.93411],[7.66603,45.9339],[7.66629,45.93378],[7.66668,45.93377],[7.6668,45.93347],[7.66717,45.93328],[7.66756,45.93275],[7.66761,45.93219],[7.6675,45.93188],[7.66782,45.9307],[7.66916,45.92976],[7.66912,45.92932],[7.6697,45.92881],[7.66977,45.92864],[7.66967,45.92854],[7.66921,45.92843],[7.66922,45.92816],[7.66911,45.92802],[7.66917,45.92789],[7.66906,45.92786],[7.66893,45.92754],[7.66813,45.92666],[7.66752,45.92627],[7.66726,45.9262],[7.66667,45.92563],[7.66615,45.92536],[7.66562,45.92522],[7.66537,45.925],[7.66526,45.92473],[7.66437,45.92447],[7.66319,45.92452],[7.66197,45.92495],[7.66158,45.92533],[7.6615,45.92563],[7.6613,45.92579],[7.66126,45.92607],[7.66081,45.92668],[7.66071,45.92695],[7.66115,45.92738],[7.66141,45.92795],[7.6614,45.92822],[7.66119,45.92881],[7.66182,45.92933],[7.66193,45.92955],[7.66188,45.92998],[7.66198,45.93017],[7.66234,45.93049]]]}},{"type":"Feature","properties":{"name":"Lago Ghiacciaio Lys","areaHa":10.45,"osmId":729191837},"geometry":{"type":"Polygon","coordinates":[[[7.81361,45.88591],[7.81333,45.88532],[7.8136,45.88493],[7.81384,45.88409],[7.81361,45.88382],[7.81326,45.88362],[7.81272,45.88357],[7.81247,45.88342],[7.81183,45.88325],[7.81121,45.88321],[7.81109,45.88328],[7.81115,45.8834],[7.81107,45.88349],[7.81128,45.88414],[7.81176,45.8847],[7.81269,45.88547],[7.813,45.88558],[7.81322,45.88683],[7.81358,45.88737],[7.81482,45.88863],[7.81563,45.88899],[7.8172,45.8894],[7.81815,45.88922],[7.81832,45.88904],[7.81834,45.88878],[7.81812,45.8883],[7.8177,45.88791],[7.81697,45.88745],[7.81601,45.88725],[7.81517,45.88723],[7.81447,45.88685],[7.81361,45.88591]]]}},{"type":"Feature","properties":{"name":"Laghi delle Cime Bianche","areaHa":9.97,"osmId":60356679},"geometry":{"type":"Polygon","coordinates":[[[7.68839,45.93254],[7.68796,45.93247],[7.68651,45.93159],[7.68605,45.93142],[7.68603,45.9312],[7.68577,45.93095],[7.68542,45.93085],[7.68474,45.93083],[7.68431,45.93096],[7.68429,45.93112],[7.68386,45.9315],[7.68338,45.93169],[7.68326,45.93189],[7.68336,45.93223],[7.68321,45.93249],[7.68333,45.93266],[7.68354,45.93276],[7.68384,45.9331],[7.6844,45.93323],[7.68466,45.93355],[7.68469,45.93372],[7.68438,45.93396],[7.68481,45.93394],[7.68525,45.93411],[7.68544,45.93435],[7.68575,45.93436],[7.68595,45.93426],[7.68598,45.93437],[7.68625,45.93435],[7.68637,45.93421],[7.68682,45.93415],[7.68672,45.93399],[7.68735,45.93378],[7.68762,45.9336],[7.68793,45.93364],[7.68843,45.93348],[7.68878,45.93312],[7.68868,45.93304],[7.68869,45.93291],[7.68883,45.93276],[7.68856,45.9327],[7.68839,45.93254]]]}},{"type":"Feature","properties":{"name":"Theodulsee","areaHa":7.43,"osmId":296185324},"geometry":{"type":"Polygon","coordinates":[[[7.71317,45.97121],[7.71335,45.97155],[7.71324,45.97174],[7.71372,45.97238],[7.71408,45.97241],[7.71534,45.97284],[7.71583,45.97331],[7.71594,45.9733],[7.71609,45.97343],[7.71627,45.97342],[7.71671,45.97303],[7.71673,45.97253],[7.71698,45.97195],[7.71706,45.97136],[7.71662,45.97069],[7.71606,45.97037],[7.71572,45.97041],[7.7153,45.97019],[7.71468,45.97026],[7.71445,45.97009],[7.71427,45.97027],[7.71381,45.9704],[7.71357,45.97064],[7.71335,45.9707],[7.71306,45.97095],[7.71301,45.9711],[7.71317,45.97121]]]}},{"type":"Feature","properties":{"name":null,"areaHa":6.88,"osmId":35329293},"geometry":{"type":"Polygon","coordinates":[[[7.65957,46.00454],[7.66048,46.00446],[7.66127,46.00466],[7.66212,46.00421],[7.66212,46.00387],[7.66318,46.00382],[7.66401,46.00289],[7.66379,46.00229],[7.66258,46.00225],[7.66172,46.00203],[7.65903,46.00227],[7.66141,46.00342],[7.66052,46.00351],[7.66002,46.00334],[7.65992,46.0038],[7.65909,46.0038],[7.65887,46.00399],[7.65928,46.00423],[7.65957,46.00454]]]}},{"type":"Feature","properties":{"name":"Lago Di Tzere","areaHa":6.61,"osmId":113105110},"geometry":{"type":"Polygon","coordinates":[[[7.73001,45.90005],[7.73073,45.9004],[7.73105,45.90071],[7.73125,45.90073],[7.73203,45.90122],[7.73251,45.90126],[7.7327,45.9012],[7.73335,45.9007],[7.73351,45.90049],[7.73356,45.90026],[7.73262,45.89901],[7.73223,45.89891],[7.73188,45.89873],[7.73167,45.89846],[7.73139,45.89845],[7.7311,45.89834],[7.73074,45.898],[7.72999,45.89771],[7.72994,45.89786],[7.73014,45.89803],[7.73012,45.89831],[7.73001,45.89844],[7.72999,45.89878],[7.72968,45.89914],[7.72963,45.89943],[7.73001,45.90005]]]}},{"type":"Feature","properties":{"name":null,"areaHa":6.43,"osmId":981034413},"geometry":{"type":"Polygon","coordinates":[[[7.65739,46.0034],[7.65799,46.00331],[7.65867,46.00232],[7.65868,46.00181],[7.65695,46.00161],[7.65542,46.00188],[7.65442,46.00179],[7.65296,46.00083],[7.65128,46.00112],[7.65103,46.00128],[7.65445,46.00244],[7.65666,46.00309],[7.65739,46.0034]]]}},{"type":"Feature","properties":{"name":"Gran Lago","areaHa":5.98,"osmId":113105117},"geometry":{"type":"Polygon","coordinates":[[[7.69219,45.91503],[7.69247,45.91502],[7.69265,45.91493],[7.69302,45.91434],[7.69339,45.91406],[7.69343,45.9139],[7.69334,45.91354],[7.69313,45.91346],[7.69314,45.91273],[7.69287,45.9124],[7.69243,45.91222],[7.69181,45.91208],[7.69062,45.91221],[7.69033,45.9127],[7.69044,45.91369],[7.6908,45.91454],[7.69105,45.9148],[7.69141,45.9148],[7.69219,45.91503]]]}},{"type":"Feature","properties":{"name":"Lago della Forca","areaHa":5.86,"osmId":115812700},"geometry":{"type":"Polygon","coordinates":[[[7.7644,45.86417],[7.76443,45.8643],[7.76561,45.86442],[7.76599,45.86433],[7.76775,45.86362],[7.76812,45.86341],[7.76845,45.86294],[7.76827,45.86267],[7.76646,45.86239],[7.76637,45.86218],[7.76651,45.86195],[7.76513,45.86208],[7.76493,45.86216],[7.7645,45.86257],[7.76403,45.86312],[7.76401,45.86328],[7.7648,45.86352],[7.7648,45.86366],[7.7644,45.86417]]]}},{"type":"Feature","properties":{"name":null,"areaHa":5.11,"osmId":25385201},"geometry":{"type":"Polygon","coordinates":[[[7.81681,46.00998],[7.81742,46.0099],[7.81839,46.00966],[7.81908,46.00843],[7.81724,46.0087],[7.81707,46.00825],[7.81594,46.00827],[7.8154,46.00756],[7.81473,46.00758],[7.81454,46.0078],[7.81496,46.0082],[7.81431,46.00893],[7.81681,46.00998]]]}},{"type":"Feature","properties":{"name":"Lago di Maen","areaHa":4.73,"osmId":110277248},"geometry":{"type":"Polygon","coordinates":[[[7.60851,45.86108],[7.60855,45.86145],[7.60875,45.8617],[7.60897,45.86178],[7.60939,45.86172],[7.6096,45.86161],[7.60994,45.86163],[7.61014,45.86175],[7.61043,45.86215],[7.61087,45.86241],[7.61101,45.86224],[7.61082,45.86209],[7.61081,45.86192],[7.61101,45.86139],[7.61194,45.86111],[7.61212,45.86089],[7.61171,45.86],[7.60882,45.86],[7.60851,45.86108]]]}},{"type":"Feature","properties":{"name":null,"areaHa":4.63,"osmId":296213392},"geometry":{"type":"Polygon","coordinates":[[[7.70536,46.03372],[7.70642,46.03415],[7.7058,46.03334],[7.706,46.033],[7.70571,46.03271],[7.70463,46.03205],[7.70344,46.03159],[7.70215,46.03191],[7.70219,46.0323],[7.7021,46.0326],[7.70306,46.03325],[7.7043,46.03356],[7.70536,46.03372]]]}},{"type":"Feature","properties":{"name":"Lac de Châteaupré","areaHa":4.37,"osmId":32462500},"geometry":{"type":"Polygon","coordinates":[[[7.58019,46.10573],[7.58099,46.10575],[7.58223,46.10528],[7.58281,46.105],[7.58298,46.10482],[7.58327,46.1048],[7.58347,46.10424],[7.58333,46.10371],[7.58246,46.10386],[7.58256,46.10398],[7.58207,46.10422],[7.58186,46.10401],[7.58149,46.10399],[7.5814,46.10387],[7.58119,46.10394],[7.58099,46.10379],[7.58025,46.10387],[7.58,46.10383],[7.58002,46.10562],[7.58019,46.10573]]]}},{"type":"Feature","properties":{"name":"Gornersee","areaHa":4.14,"osmId":25385199},"geometry":{"type":"Polygon","coordinates":[[[7.81366,45.96201],[7.81304,45.96296],[7.81322,45.96309],[7.8138,45.9633],[7.81464,45.96343],[7.815,45.9634],[7.81566,45.96297],[7.81608,45.96249],[7.81665,45.96218],[7.81658,45.96161],[7.81604,45.96137],[7.81494,45.96143],[7.81366,45.96201]]]}},{"type":"Feature","properties":{"name":"Lago delle Locce","areaHa":3.95,"osmId":236417669},"geometry":{"type":"Polygon","coordinates":[[[7.91423,45.94382],[7.91507,45.94488],[7.91603,45.94482],[7.91625,45.94452],[7.9164,45.94446],[7.91651,45.94457],[7.91673,45.94455],[7.91642,45.94421],[7.91648,45.94359],[7.91587,45.94327],[7.91547,45.9426],[7.91505,45.94229],[7.91495,45.94228],[7.91493,45.94242],[7.9147,45.94246],[7.91432,45.94232],[7.91388,45.94236],[7.91373,45.94272],[7.91423,45.94382]]]}},{"type":"Feature","properties":{"name":"Stausee Zmutt","areaHa":3.61,"osmId":35329288},"geometry":{"type":"Polygon","coordinates":[[[7.70366,46.00833],[7.70371,46.00845],[7.70437,46.00852],[7.70465,46.00867],[7.70548,46.00861],[7.70633,46.0082],[7.70649,46.00793],[7.70675,46.00782],[7.70717,46.0079],[7.70725,46.00812],[7.70842,46.00845],[7.70869,46.00838],[7.70892,46.00844],[7.70919,46.00832],[7.70986,46.00821],[7.70961,46.00788],[7.70968,46.00742],[7.70939,46.00743],[7.70924,46.00753],[7.7079,46.00726],[7.7074,46.00724],[7.70711,46.00734],[7.70638,46.00732],[7.70623,46.0074],[7.70613,46.00759],[7.7062,46.00773],[7.70606,46.00787],[7.70579,46.00781],[7.70567,46.00817],[7.70514,46.00817],[7.70503,46.00831],[7.70479,46.0083],[7.70452,46.00814],[7.70392,46.00817],[7.70322,46.00794],[7.70282,46.00789],[7.70259,46.00794],[7.70366,46.00833]]]}},{"type":"Feature","properties":{"name":null,"areaHa":3.34,"osmId":296318640},"geometry":{"type":"Polygon","coordinates":[[[7.83646,45.99942],[7.83667,45.99938],[7.83711,45.99907],[7.83812,45.99859],[7.83844,45.99828],[7.8392,45.99784],[7.83903,45.99759],[7.83879,45.99758],[7.83836,45.99681],[7.8378,45.99684],[7.83668,45.99745],[7.83646,45.99802],[7.83693,45.99817],[7.83629,45.99909],[7.83627,45.99931],[7.83646,45.99942]]]}},{"type":"Feature","properties":{"name":"Lago della Punta di Rollin","areaHa":3.2,"osmId":113105098},"geometry":{"type":"Polygon","coordinates":[[[7.69825,45.91468],[7.69905,45.91484],[7.69958,45.91507],[7.69997,45.91512],[7.70059,45.91481],[7.70124,45.91473],[7.70146,45.91455],[7.7011,45.91427],[7.70047,45.91413],[7.70044,45.91398],[7.70067,45.91386],[7.69996,45.91382],[7.6998,45.9136],[7.69964,45.91381],[7.69839,45.91389],[7.69737,45.91373],[7.69736,45.91424],[7.69754,45.91453],[7.69726,45.91471],[7.69747,45.91478],[7.69825,45.91468]]]}},{"type":"Feature","properties":{"name":null,"areaHa":3.02,"osmId":228001143},"geometry":{"type":"Polygon","coordinates":[[[7.96816,46.00182],[7.96823,46.00167],[7.96901,46.00145],[7.96912,46.00146],[7.96911,46.00153],[7.96886,46.00191],[7.96821,46.00208],[7.96838,46.00233],[7.96999,46.00216],[7.97041,46.00155],[7.97051,46.00103],[7.97029,46.00079],[7.97052,46.00064],[7.97051,46.00058],[7.97025,46.00045],[7.96922,46.00037],[7.96846,46.00062],[7.9681,46.00113],[7.9679,46.00179],[7.96797,46.00186],[7.96816,46.00182]]]}},{"type":"Feature","properties":{"name":null,"areaHa":2.77,"osmId":233531264},"geometry":{"type":"Polygon","coordinates":[[[7.58463,46.09883],[7.58421,46.09924],[7.58412,46.09935],[7.58422,46.09955],[7.5841,46.0997],[7.58419,46.0999],[7.58439,46.09991],[7.58496,46.09975],[7.58646,46.0989],[7.58702,46.09808],[7.58687,46.09775],[7.58702,46.09719],[7.58691,46.09717],[7.58669,46.0974],[7.58623,46.09763],[7.58574,46.09809],[7.58463,46.09883]]]}},{"type":"Feature","properties":{"name":null,"areaHa":2.67,"osmId":35329287},"geometry":{"type":"Polygon","coordinates":[[[7.66505,46.00391],[7.66487,46.00408],[7.66467,46.00424],[7.66441,46.00419],[7.66435,46.00432],[7.66455,46.00436],[7.66473,46.00424],[7.66503,46.00465],[7.66534,46.00476],[7.66538,46.00486],[7.66654,46.00521],[7.66647,46.00532],[7.66655,46.0054],[7.66682,46.00541],[7.66714,46.00531],[7.66737,46.00493],[7.66736,46.00435],[7.66558,46.00349],[7.66539,46.00349],[7.66495,46.00372],[7.66487,46.00387],[7.66505,46.00391]]]}},{"type":"Feature","properties":{"name":null,"areaHa":2.31,"osmId":976464153},"geometry":{"type":"Polygon","coordinates":[[[7.84676,45.98312],[7.84727,45.98302],[7.84765,45.98264],[7.84711,45.98224],[7.8459,45.98177],[7.84422,45.98225],[7.84478,45.98271],[7.84676,45.98312]]]}},{"type":"Feature","properties":{"name":null,"areaHa":2.25,"osmId":35329282},"geometry":{"type":"Polygon","coordinates":[[[7.69721,45.97405],[7.69727,45.97434],[7.69801,45.9745],[7.69841,45.97477],[7.69988,45.97456],[7.69998,45.9741],[7.69902,45.9738],[7.6985,45.9739],[7.69799,45.97351],[7.69733,45.97326],[7.69679,45.97326],[7.69647,45.97341],[7.69686,45.97366],[7.69721,45.97405]]]}},{"type":"Feature","properties":{"name":null,"areaHa":2.08,"osmId":1183435833},"geometry":{"type":"Polygon","coordinates":[[[7.76314,45.86866],[7.76348,45.86858],[7.7636,45.86827],[7.76376,45.86816],[7.76468,45.86794],[7.76477,45.86786],[7.76448,45.86753],[7.76422,45.8674],[7.76366,45.86732],[7.76241,45.86754],[7.76211,45.86769],[7.76179,45.86826],[7.76314,45.86866]]]}},{"type":"Feature","properties":{"name":null,"areaHa":1.89,"osmId":1543062484},"geometry":{"type":"Polygon","coordinates":[[[7.92766,46.05532],[7.92785,46.055],[7.92823,46.05489],[7.92864,46.05493],[7.92891,46.05484],[7.92868,46.05462],[7.92862,46.05433],[7.9292,46.05399],[7.92913,46.05391],[7.92862,46.05417],[7.92792,46.05411],[7.92671,46.05458],[7.92648,46.05481],[7.92648,46.05497],[7.92634,46.05512],[7.9264,46.05531],[7.92625,46.05546],[7.92634,46.05558],[7.92766,46.05532]]]}},{"type":"Feature","properties":{"name":null,"areaHa":1.77,"osmId":35329286},"geometry":{"type":"Polygon","coordinates":[[[7.6726,46.00702],[7.67386,46.00726],[7.67417,46.00719],[7.67413,46.00636],[7.67394,46.00619],[7.67245,46.00586],[7.67228,46.0059],[7.67218,46.00611],[7.6726,46.00702]]]}},{"type":"Feature","properties":{"name":"Lago Blu","areaHa":1.76,"osmId":25385686},"geometry":{"type":"Polygon","coordinates":[[[7.74314,45.89163],[7.74347,45.89183],[7.74393,45.89172],[7.74422,45.89152],[7.74461,45.8909],[7.74458,45.8906],[7.74424,45.89051],[7.74336,45.8906],[7.74241,45.89039],[7.74222,45.89042],[7.74231,45.89066],[7.74314,45.89163]]]}},{"type":"Feature","properties":{"name":null,"areaHa":1.75,"osmId":523465032},"geometry":{"type":"Polygon","coordinates":[[[7.66844,46.00466],[7.66893,46.00463],[7.66922,46.00438],[7.66935,46.00389],[7.66923,46.00343],[7.66884,46.00307],[7.66823,46.00312],[7.66782,46.00368],[7.66757,46.00425],[7.66774,46.00438],[7.66844,46.00466]]]}},{"type":"Feature","properties":{"name":"Lago Perso","areaHa":1.62,"osmId":113105113},"geometry":{"type":"Polygon","coordinates":[[[7.68179,45.9078],[7.6821,45.90768],[7.68224,45.90753],[7.68204,45.9073],[7.68206,45.90702],[7.68249,45.90689],[7.68239,45.90682],[7.68249,45.90656],[7.68232,45.90601],[7.6821,45.90611],[7.68141,45.90685],[7.68073,45.90723],[7.68049,45.9079],[7.68077,45.908],[7.6811,45.90783],[7.68179,45.9078]]]}},{"type":"Feature","properties":{"name":null,"areaHa":1.49,"osmId":184594057},"geometry":{"type":"Polygon","coordinates":[[[7.78019,45.98704],[7.78043,45.98677],[7.7804,45.98648],[7.78021,45.98622],[7.77934,45.98595],[7.77889,45.98608],[7.77861,45.98642],[7.77878,45.98699],[7.77925,45.98711],[7.78019,45.98704]]]}},{"type":"Feature","properties":{"name":"Bacino Cime Bianche","areaHa":1.42,"osmId":297527171},"geometry":{"type":"Polygon","coordinates":[[[7.68692,45.91757],[7.68712,45.91714],[7.68701,45.91661],[7.68661,45.91625],[7.68623,45.91611],[7.68579,45.91607],[7.68555,45.91617],[7.68546,45.91634],[7.68577,45.91697],[7.68592,45.91713],[7.68675,45.91757],[7.68692,45.91757]]]}},{"type":"Feature","properties":{"name":"Lago Blu","areaHa":1.4,"osmId":120471772},"geometry":{"type":"Polygon","coordinates":[[[7.84092,45.87117],[7.84118,45.87142],[7.84132,45.87142],[7.84141,45.87159],[7.84134,45.87183],[7.84176,45.87179],[7.84218,45.87184],[7.84252,45.87164],[7.84307,45.87159],[7.84357,45.87125],[7.84304,45.87124],[7.84247,45.87082],[7.84191,45.87089],[7.84164,45.87084],[7.84137,45.87096],[7.84096,45.87092],[7.84092,45.87117]]]}},{"type":"Feature","properties":{"name":"Weingartensee","areaHa":1.36,"osmId":32038364},"geometry":{"type":"Polygon","coordinates":[[[7.8403,46.06336],[7.83896,46.06301],[7.83815,46.06297],[7.83787,46.06303],[7.83787,46.0633],[7.83805,46.06344],[7.83872,46.06361],[7.83898,46.06379],[7.8398,46.06399],[7.84036,46.06376],[7.8403,46.06336]]]}},{"type":"Feature","properties":{"name":"Stellisee","areaHa":1.33,"osmId":35329280},"geometry":{"type":"Polygon","coordinates":[[[7.79921,46.01359],[7.7996,46.01371],[7.80016,46.01365],[7.80121,46.01384],[7.80185,46.0137],[7.80191,46.01359],[7.80184,46.01349],[7.80136,46.01328],[7.80081,46.01328],[7.79918,46.01299],[7.79888,46.01305],[7.79882,46.01327],[7.79921,46.01359]]]}},{"type":"Feature","properties":{"name":null,"areaHa":1.33,"osmId":296213391},"geometry":{"type":"Polygon","coordinates":[[[7.71066,46.03604],[7.71001,46.03578],[7.70948,46.03594],[7.70937,46.03612],[7.71004,46.03687],[7.71063,46.03713],[7.71114,46.03684],[7.71151,46.03681],[7.71153,46.03672],[7.71066,46.03604]]]}},{"type":"Feature","properties":{"name":null,"areaHa":1.2,"osmId":296318639},"geometry":{"type":"Polygon","coordinates":[[[7.83937,46.00124],[7.83963,46.00107],[7.8398,46.00112],[7.84079,46.00047],[7.84124,46.00008],[7.84134,45.99987],[7.84101,45.99983],[7.8398,46.00025],[7.83907,46.00087],[7.83896,46.00116],[7.83907,46.0013],[7.8392,46.00121],[7.83937,46.00124]]]}},{"type":"Feature","properties":{"name":"Lago Indren IV","areaHa":1.19,"osmId":120471771},"geometry":{"type":"Polygon","coordinates":[[[7.85088,45.88564],[7.85068,45.88569],[7.85075,45.88578],[7.8512,45.88573],[7.85195,45.88586],[7.8523,45.88575],[7.8526,45.88557],[7.85275,45.88536],[7.8527,45.88514],[7.85247,45.885],[7.85264,45.88483],[7.85251,45.8848],[7.85175,45.88497],[7.85147,45.88488],[7.85115,45.88531],[7.85067,45.88542],[7.85091,45.8855],[7.85088,45.88564]]]}},{"type":"Feature","properties":{"name":null,"areaHa":1.14,"osmId":32037091},"geometry":{"type":"Polygon","coordinates":[[[7.95668,46.08293],[7.95678,46.08313],[7.9576,46.08318],[7.95798,46.0831],[7.95812,46.08293],[7.95819,46.08247],[7.95807,46.08228],[7.95782,46.08218],[7.95704,46.08215],[7.95668,46.08293]]]}},{"type":"Feature","properties":{"name":"Schalisee","areaHa":1.11,"osmId":60132196},"geometry":{"type":"Polygon","coordinates":[[[7.77588,46.07852],[7.77569,46.07811],[7.77575,46.07796],[7.77551,46.07785],[7.77535,46.07801],[7.77534,46.07832],[7.77556,46.07874],[7.77552,46.07894],[7.77564,46.07896],[7.7758,46.07873],[7.77585,46.07881],[7.7758,46.07939],[7.7759,46.07992],[7.77602,46.08],[7.77672,46.08],[7.77686,46.07992],[7.7765,46.07969],[7.77645,46.07957],[7.77658,46.07933],[7.77657,46.07922],[7.77639,46.07915],[7.77646,46.07897],[7.77636,46.07871],[7.77606,46.07862],[7.77583,46.07869],[7.77588,46.07852]]]}},{"type":"Feature","properties":{"name":null,"areaHa":1.11,"osmId":296318641},"geometry":{"type":"Polygon","coordinates":[[[7.82771,45.9986],[7.82815,45.99849],[7.82849,45.99863],[7.82882,45.9982],[7.8289,45.99789],[7.82866,45.99785],[7.82824,45.99794],[7.82776,45.99755],[7.82716,45.9978],[7.82703,45.99799],[7.82697,45.99817],[7.82706,45.99832],[7.82771,45.9986]]]}},{"type":"Feature","properties":{"name":null,"areaHa":1.02,"osmId":1327123641},"geometry":{"type":"Polygon","coordinates":[[[7.82858,46.01105],[7.82839,46.01125],[7.82878,46.01131],[7.82915,46.01126],[7.82913,46.01099],[7.82893,46.01087],[7.82886,46.01063],[7.8305,46.01019],[7.83049,46.01],[7.83021,46.00997],[7.82961,46.01026],[7.82949,46.0102],[7.82864,46.01026],[7.82848,46.01053],[7.82779,46.01066],[7.82779,46.01083],[7.82799,46.01091],[7.82802,46.011],[7.82858,46.01105]]]}},{"type":"Feature","properties":{"name":"Lago di Perrères","areaHa":1.01,"osmId":113573215},"geometry":{"type":"Polygon","coordinates":[[[7.61496,45.90562],[7.61499,45.90571],[7.61468,45.90622],[7.61507,45.90679],[7.61504,45.90697],[7.61526,45.90749],[7.61538,45.90749],[7.61561,45.90699],[7.61551,45.90697],[7.6156,45.90649],[7.61585,45.90651],[7.61551,45.90592],[7.61554,45.90567],[7.61496,45.90562]]]}},{"type":"Feature","properties":{"name":null,"areaHa":0.99,"osmId":296185331},"geometry":{"type":"Polygon","coordinates":[[[7.70794,45.97121],[7.70848,45.97135],[7.70873,45.97116],[7.70869,45.97099],[7.70833,45.97081],[7.70833,45.97037],[7.70788,45.97007],[7.70765,45.97011],[7.70729,45.9712],[7.70742,45.9715],[7.70765,45.97146],[7.70794,45.97121]]]}},{"type":"Feature","properties":{"name":"Laghi Di Resy","areaHa":0.97,"osmId":113664494},"geometry":{"type":"Polygon","coordinates":[[[7.76117,45.87557],[7.76133,45.87572],[7.76124,45.87587],[7.76158,45.87595],[7.762,45.87589],[7.76204,45.87579],[7.76225,45.87581],[7.76279,45.87563],[7.76296,45.87553],[7.7631,45.87515],[7.7631,45.87508],[7.76296,45.87504],[7.76305,45.87501],[7.76302,45.87486],[7.76291,45.87475],[7.76269,45.8748],[7.76245,45.87504],[7.76222,45.87517],[7.76205,45.87517],[7.76179,45.87541],[7.76126,45.87547],[7.76117,45.87557]]]}},{"type":"Feature","properties":{"name":"Lac du Tramail","areaHa":0.94,"osmId":166320765},"geometry":{"type":"Polygon","coordinates":[[[7.66708,45.94091],[7.66766,45.94084],[7.66807,45.94094],[7.66829,45.9409],[7.66814,45.94057],[7.66821,45.94021],[7.66765,45.93991],[7.66736,45.93994],[7.66695,45.94041],[7.66664,45.94051],[7.66664,45.94062],[7.66708,45.94091]]]}},{"type":"Feature","properties":{"name":null,"areaHa":0.94,"osmId":228000790},"geometry":{"type":"Polygon","coordinates":[[[7.93903,46.02663],[7.9391,46.02676],[7.93901,46.02717],[7.93915,46.02746],[7.93987,46.02773],[7.93996,46.02791],[7.9402,46.02738],[7.94007,46.02689],[7.93997,46.02681],[7.93983,46.02681],[7.93988,46.02701],[7.93978,46.02703],[7.93934,46.02654],[7.93905,46.02639],[7.93867,46.02641],[7.93849,46.02658],[7.93853,46.02664],[7.93903,46.02663]]]}},{"type":"Feature","properties":{"name":null,"areaHa":0.91,"osmId":60356686},"geometry":{"type":"Polygon","coordinates":[[[7.69431,45.93556],[7.69411,45.93562],[7.69415,45.93569],[7.69438,45.93577],[7.69478,45.93582],[7.69518,45.93577],[7.69575,45.93567],[7.69592,45.93551],[7.69569,45.93516],[7.69537,45.93507],[7.69496,45.93519],[7.69399,45.93509],[7.69397,45.93521],[7.69431,45.93556]]]}},{"type":"Feature","properties":{"name":null,"areaHa":0.91,"osmId":299866511},"geometry":{"type":"Polygon","coordinates":[[[7.93359,46.0651],[7.93359,46.06501],[7.93378,46.065],[7.93377,46.06484],[7.93361,46.06467],[7.93286,46.06464],[7.93242,46.0649],[7.93241,46.06514],[7.93296,46.06549],[7.93364,46.06558],[7.93405,46.06554],[7.93359,46.0651]]]}},{"type":"Feature","properties":{"name":null,"areaHa":0.91,"osmId":1327123640},"geometry":{"type":"Polygon","coordinates":[[[7.82803,46.00939],[7.82847,46.00962],[7.82925,46.00947],[7.83014,46.00945],[7.83025,46.00936],[7.83015,46.00896],[7.82893,46.00918],[7.82759,46.00914],[7.82714,46.00925],[7.82724,46.00946],[7.82759,46.00948],[7.82781,46.00939],[7.82803,46.00939]]]}},{"type":"Feature","properties":{"name":null,"areaHa":0.85,"osmId":299866512},"geometry":{"type":"Polygon","coordinates":[[[7.93534,46.0673],[7.93512,46.06739],[7.93477,46.06738],[7.93378,46.06724],[7.9337,46.06734],[7.9335,46.06737],[7.93346,46.06751],[7.93364,46.06772],[7.93343,46.06779],[7.93313,46.0677],[7.93275,46.06776],[7.93317,46.06814],[7.93336,46.06814],[7.93414,46.06783],[7.93435,46.06785],[7.93468,46.06771],[7.93479,46.06763],[7.9347,46.06753],[7.93478,46.06749],[7.93499,46.06757],[7.93528,46.06753],[7.9354,46.06742],[7.93534,46.0673]]]}},{"type":"Feature","properties":{"name":null,"areaHa":0.83,"osmId":442277024},"geometry":{"type":"Polygon","coordinates":[[[7.78922,45.95743],[7.78883,45.95701],[7.78817,45.95731],[7.78746,45.95725],[7.78735,45.95782],[7.78834,45.95788],[7.78922,45.95743]]]}},{"type":"Feature","properties":{"name":"Lago Indren I","areaHa":0.8,"osmId":362564941},"geometry":{"type":"Polygon","coordinates":[[[7.8607,45.88817],[7.86119,45.88821],[7.86129,45.88804],[7.86145,45.88798],[7.86166,45.88821],[7.86185,45.88801],[7.86223,45.88807],[7.86231,45.88796],[7.86205,45.88789],[7.86223,45.88787],[7.86218,45.88769],[7.86192,45.88767],[7.86175,45.88782],[7.86164,45.8877],[7.86129,45.88773],[7.86126,45.88765],[7.86142,45.88758],[7.8616,45.8876],[7.86166,45.88743],[7.86081,45.88741],[7.86055,45.88752],[7.86056,45.8879],[7.86037,45.88795],[7.8607,45.88817]]]}},{"type":"Feature","properties":{"name":null,"areaHa":0.79,"osmId":303373386},"geometry":{"type":"Polygon","coordinates":[[[7.92782,46.02341],[7.92802,46.02359],[7.92814,46.02359],[7.92791,46.02322],[7.92802,46.02304],[7.92751,46.02281],[7.92737,46.02256],[7.92713,46.0224],[7.92674,46.02236],[7.92659,46.02246],[7.92662,46.02252],[7.92642,46.02255],[7.92644,46.02272],[7.92703,46.02317],[7.92782,46.02341]]]}},{"type":"Feature","properties":{"name":"Lago del Piccolo Ghiacciaio di Verra","areaHa":0.76,"osmId":113010855},"geometry":{"type":"Polygon","coordinates":[[[7.76195,45.908],[7.76229,45.90783],[7.76197,45.90691],[7.76177,45.90685],[7.76137,45.90717],[7.76117,45.90775],[7.76163,45.90801],[7.76195,45.908]]]}},{"type":"Feature","properties":{"name":null,"areaHa":0.72,"osmId":442266670},"geometry":{"type":"Polygon","coordinates":[[[7.69145,46.09354],[7.69131,46.09319],[7.69038,46.09294],[7.68989,46.09303],[7.68976,46.09323],[7.69025,46.09342],[7.69071,46.09378],[7.69107,46.0938],[7.69107,46.09364],[7.69145,46.09354]]]}},{"type":"Feature","properties":{"name":"Lago Cortina","areaHa":0.68,"osmId":110897918},"geometry":{"type":"Polygon","coordinates":[[[7.59134,45.86675],[7.59171,45.86638],[7.59173,45.86619],[7.59167,45.86597],[7.59146,45.86586],[7.59112,45.86588],[7.59081,45.86601],[7.59054,45.86626],[7.59053,45.86637],[7.59108,45.86672],[7.59112,45.8669],[7.59134,45.86698],[7.59134,45.86675]]]}},{"type":"Feature","properties":{"name":null,"areaHa":0.67,"osmId":167288583},"geometry":{"type":"Polygon","coordinates":[[[7.68011,45.91139],[7.68055,45.91146],[7.68085,45.91133],[7.6806,45.911],[7.67979,45.91077],[7.67949,45.91038],[7.67919,45.91048],[7.67917,45.91068],[7.68011,45.91139]]]}},{"type":"Feature","properties":{"name":"Lago di Loz","areaHa":0.67,"osmId":167359914},"geometry":{"type":"Polygon","coordinates":[[[7.63008,45.89102],[7.63024,45.89077],[7.63087,45.89061],[7.63043,45.88982],[7.63026,45.88987],[7.63024,45.89009],[7.62963,45.89069],[7.62946,45.8908],[7.62933,45.89077],[7.62931,45.89084],[7.62956,45.89096],[7.63008,45.89102]]]}},{"type":"Feature","properties":{"name":null,"areaHa":0.67,"osmId":523465031},"geometry":{"type":"Polygon","coordinates":[[[7.67029,46.0039],[7.67042,46.00348],[7.67024,46.00298],[7.66976,46.0033],[7.66984,46.00365],[7.66966,46.00371],[7.66951,46.0045],[7.66987,46.00444],[7.67029,46.0039]]]}},{"type":"Feature","properties":{"name":null,"areaHa":0.66,"osmId":35329283},"geometry":{"type":"Polygon","coordinates":[[[7.70347,45.97578],[7.70357,45.97578],[7.70364,45.9756],[7.70387,45.97552],[7.70402,45.97526],[7.70435,45.97498],[7.70422,45.97467],[7.70438,45.97448],[7.70422,45.97427],[7.70403,45.97433],[7.70369,45.97465],[7.70338,45.97534],[7.70347,45.97578]]]}},{"type":"Feature","properties":{"name":null,"areaHa":0.65,"osmId":60356685},"geometry":{"type":"Polygon","coordinates":[[[7.69074,45.93244],[7.691,45.93252],[7.69147,45.93248],[7.69176,45.93235],[7.69187,45.93214],[7.69173,45.93187],[7.69148,45.93192],[7.69137,45.93182],[7.69105,45.93178],[7.69058,45.93194],[7.69046,45.93214],[7.69053,45.93227],[7.69073,45.93234],[7.69074,45.93244]]]}},{"type":"Feature","properties":{"name":null,"areaHa":0.62,"osmId":228000788},"geometry":{"type":"Polygon","coordinates":[[[7.94167,46.02307],[7.94251,46.0231],[7.94295,46.02322],[7.94306,46.02318],[7.94304,46.02304],[7.94268,46.02292],[7.94244,46.02268],[7.94171,46.02256],[7.94145,46.02237],[7.94124,46.02257],[7.94124,46.02275],[7.94167,46.02307]]]}},{"type":"Feature","properties":{"name":null,"areaHa":0.61,"osmId":1499311862},"geometry":{"type":"Polygon","coordinates":[[[7.80797,45.9777],[7.80799,45.97751],[7.80781,45.97745],[7.80776,45.97719],[7.80746,45.97712],[7.80685,45.9773],[7.80621,45.97738],[7.80686,45.97774],[7.80751,45.9778],[7.80751,45.97773],[7.80797,45.9777]]]}},{"type":"Feature","properties":{"name":null,"areaHa":0.59,"osmId":113105100},"geometry":{"type":"Polygon","coordinates":[[[7.69065,45.91185],[7.69089,45.91108],[7.69038,45.91073],[7.69016,45.91068],[7.69009,45.91079],[7.69021,45.91121],[7.69012,45.9117],[7.69027,45.91189],[7.69044,45.91196],[7.69065,45.91185]]]}},{"type":"Feature","properties":{"name":"Lago Smeraldo","areaHa":0.56,"osmId":236779730},"geometry":{"type":"Polygon","coordinates":[[[7.97809,45.99748],[7.9781,45.99765],[7.97793,45.99778],[7.97733,45.99781],[7.97676,45.99795],[7.97658,45.99771],[7.97638,45.99775],[7.97692,45.9981],[7.97692,45.9982],[7.97778,45.99833],[7.97802,45.99791],[7.97834,45.99792],[7.97842,45.99786],[7.97845,45.99769],[7.97827,45.99751],[7.97809,45.99748]]]}},{"type":"Feature","properties":{"name":null,"areaHa":0.56,"osmId":523465033},"geometry":{"type":"Polygon","coordinates":[[[7.67966,45.98935],[7.67982,45.98873],[7.67941,45.98856],[7.67921,45.98876],[7.67914,45.98903],[7.67875,45.98908],[7.6788,45.98957],[7.67918,45.98959],[7.67966,45.98935]]]}},{"type":"Feature","properties":{"name":null,"areaHa":0.55,"osmId":1005231318},"geometry":{"type":"Polygon","coordinates":[[[7.81649,45.99502],[7.81645,45.99527],[7.81655,45.99537],[7.81678,45.99536],[7.81696,45.99556],[7.81724,45.99561],[7.81741,45.99555],[7.81718,45.99546],[7.81743,45.99543],[7.81751,45.99527],[7.81725,45.99516],[7.81726,45.99478],[7.81695,45.99461],[7.81671,45.99469],[7.81649,45.99502]]]}},{"type":"Feature","properties":{"name":"Mosjesee","areaHa":0.52,"osmId":35329279},"geometry":{"type":"Polygon","coordinates":[[[7.78026,46.01061],[7.78026,46.01044],[7.7801,46.01019],[7.77974,46.0101],[7.7795,46.01018],[7.77919,46.01016],[7.77895,46.01006],[7.77885,46.0102],[7.77914,46.01057],[7.77934,46.0107],[7.78026,46.01061]]]}},{"type":"Feature","properties":{"name":"Schwarzsee","areaHa":0.51,"osmId":30950380},"geometry":{"type":"Polygon","coordinates":[[[7.70728,45.99101],[7.70712,45.99039],[7.70694,45.99031],[7.70655,45.9905],[7.70629,45.99095],[7.70674,45.9912],[7.7069,45.9912],[7.70728,45.99101]]]}},{"type":"Feature","properties":{"name":"Leisee","areaHa":0.51,"osmId":32321813},"geometry":{"type":"Polygon","coordinates":[[[7.77242,46.01531],[7.773,46.01502],[7.77332,46.01467],[7.77329,46.01453],[7.77317,46.01452],[7.77249,46.01493],[7.7716,46.0152],[7.77155,46.01534],[7.77173,46.01546],[7.77242,46.01531]]]}},{"type":"Feature","properties":{"name":"Lago Verde","areaHa":0.5,"osmId":113010846},"geometry":{"type":"Polygon","coordinates":[[[7.70072,45.87132],[7.70084,45.87111],[7.70081,45.87088],[7.70057,45.87075],[7.69998,45.87064],[7.69984,45.87071],[7.69968,45.87122],[7.69977,45.87127],[7.7,45.8712],[7.70072,45.87132]]]}}]}