{"type":"FeatureCollection","features":[{"type":"Feature","properties":{"name":"Dufourspitze","nameDe":null,"elevationM":4634.0,"prominenceM":2165.0,"osmId":414760065},"geometry":{"type":"Point","coordinates":[7.86676,45.93692]}},{"type":"Feature","properties":{"name":"Dunantspitze","nameDe":null,"elevationM":4631.0,"prominenceM":25.0,"osmId":3114843125},"geometry":{"type":"Point","coordinates":[7.86777,45.93688]}},{"type":"Feature","properties":{"name":"Grenzgipfel","nameDe":null,"elevationM":4618.0,"prominenceM":null,"osmId":1373112888},"geometry":{"type":"Point","coordinates":[7.86844,45.93672]}},{"type":"Feature","properties":{"name":"Nordendspitze","nameDe":null,"elevationM":4609.0,"prominenceM":93.0,"osmId":1243390246},"geometry":{"type":"Point","coordinates":[7.86993,45.94199]}},{"type":"Feature","properties":{"name":null,"nameDe":null,"elevationM":4570.0,"prominenceM":null,"osmId":1373113085},"geometry":{"type":"Point","coordinates":[7.8695,45.94113]}},{"type":"Feature","properties":{"name":"Zumsteinspitze","nameDe":null,"elevationM":4562.0,"prominenceM":null,"osmId":365064325},"geometry":{"type":"Point","coordinates":[7.87141,45.93217]}},{"type":"Feature","properties":{"name":"Punta Gnifetti / Signalkuppe","nameDe":"Signalkuppe","elevationM":4554.0,"prominenceM":null,"osmId":307196932},"geometry":{"type":"Point","coordinates":[7.87714,45.92716]}},{"type":"Feature","properties":{"name":null,"nameDe":null,"elevationM":4550.0,"prominenceM":null,"osmId":1373113055},"geometry":{"type":"Point","coordinates":[7.86928,45.93991]}},{"type":"Feature","properties":{"name":"Dom","nameDe":null,"elevationM":4545.0,"prominenceM":1046.0,"osmId":1350577339},"geometry":{"type":"Point","coordinates":[7.85887,46.09391]}},{"type":"Feature","properties":{"name":null,"nameDe":null,"elevationM":4540.0,"prominenceM":null,"osmId":3018568138},"geometry":{"type":"Point","coordinates":[7.86907,45.93895]}},{"type":"Feature","properties":{"name":"Liskamm Ostgipfel","nameDe":null,"elevationM":4527.0,"prominenceM":376.0,"osmId":852677837},"geometry":{"type":"Point","coordinates":[7.83559,45.92248]}},{"type":"Feature","properties":{"name":"Weisshorn","nameDe":null,"elevationM":4505.0,"prominenceM":1234.0,"osmId":13135951441},"geometry":{"type":"Point","coordinates":[7.71607,46.10125]}},{"type":"Feature","properties":{"name":"Täschhorn","nameDe":null,"elevationM":4490.0,"prominenceM":null,"osmId":359937155},"geometry":{"type":"Point","coordinates":[7.85719,46.08343]}},{"type":"Feature","properties":{"name":"Liskamm Westgipfel","nameDe":null,"elevationM":4479.0,"prominenceM":null,"osmId":393171421},"geometry":{"type":"Point","coordinates":[7.82323,45.9265]}},{"type":"Feature","properties":{"name":null,"nameDe":null,"elevationM":4479.0,"prominenceM":null,"osmId":3075889284},"geometry":{"type":"Point","coordinates":[7.85671,46.09442]}},{"type":"Feature","properties":{"name":"Matterhorn","nameDe":null,"elevationM":4478.0,"prominenceM":1038.0,"osmId":26863664},"geometry":{"type":"Point","coordinates":[7.6586,45.97643]}},{"type":"Feature","properties":{"name":"Grand Gendarme","nameDe":null,"elevationM":4468.0,"prominenceM":null,"osmId":3075889258},"geometry":{"type":"Point","coordinates":[7.86205,46.09591]}},{"type":"Feature","properties":{"name":null,"nameDe":null,"elevationM":4459.0,"prominenceM":null,"osmId":1373112252},"geometry":{"type":"Point","coordinates":[7.82658,45.92614]}},{"type":"Feature","properties":{"name":"Liskamm westlicher Vorgipfel","nameDe":null,"elevationM":4447.0,"prominenceM":null,"osmId":1373112314},"geometry":{"type":"Point","coordinates":[7.82043,45.92701]}},{"type":"Feature","properties":{"name":"Parrotspitze / Punta Parrot","nameDe":"Parrotspitze","elevationM":4443.0,"prominenceM":null,"osmId":401234281},"geometry":{"type":"Point","coordinates":[7.87141,45.91989]}},{"type":"Feature","properties":{"name":"Sattelkuppe","nameDe":null,"elevationM":4430.0,"prominenceM":null,"osmId":2304704033},"geometry":{"type":"Point","coordinates":[7.82898,45.9254]}},{"type":"Feature","properties":{"name":null,"nameDe":null,"elevationM":4404.0,"prominenceM":null,"osmId":3075889283},"geometry":{"type":"Point","coordinates":[7.85806,46.08561]}},{"type":"Feature","properties":{"name":"Dent Blanche","nameDe":null,"elevationM":4358.0,"prominenceM":915.0,"osmId":1436639948},"geometry":{"type":"Point","coordinates":[7.61193,46.03418]}},{"type":"Feature","properties":{"name":"Ludwigshöhe","nameDe":null,"elevationM":4342.0,"prominenceM":null,"osmId":401234280},"geometry":{"type":"Point","coordinates":[7.86348,45.91671]}},{"type":"Feature","properties":{"name":"Cima di Scoperta","nameDe":null,"elevationM":4335.0,"prominenceM":null,"osmId":852632164},"geometry":{"type":"Point","coordinates":[7.84369,45.92174]}},{"type":"Feature","properties":{"name":"Grand Gendarme","nameDe":null,"elevationM":4329.0,"prominenceM":null,"osmId":12985331923},"geometry":{"type":"Point","coordinates":[7.71177,46.10722]}},{"type":"Feature","properties":{"name":"Nadelhorn","nameDe":null,"elevationM":4327.0,"prominenceM":null,"osmId":359935435},"geometry":{"type":"Point","coordinates":[7.86406,46.10888]}},{"type":"Feature","properties":{"name":"Nadelhorn Vorgipfel","nameDe":null,"elevationM":4325.0,"prominenceM":null,"osmId":918916064},"geometry":{"type":"Point","coordinates":[7.86401,46.10903]}},{"type":"Feature","properties":{"name":"Corno Nero","nameDe":"Schwarzhorn","elevationM":4322.0,"prominenceM":null,"osmId":361367417},"geometry":{"type":"Point","coordinates":[7.86198,45.91497]}},{"type":"Feature","properties":{"name":"Lenzspitze","nameDe":null,"elevationM":4294.0,"prominenceM":null,"osmId":1373126284},"geometry":{"type":"Point","coordinates":[7.8686,46.10454]}},{"type":"Feature","properties":{"name":"Naso del Liskamm","nameDe":"Schneedomspitze","elevationM":4272.0,"prominenceM":null,"osmId":2304704034},"geometry":{"type":"Point","coordinates":[7.83507,45.91671]}},{"type":"Feature","properties":{"name":null,"nameDe":null,"elevationM":4256.0,"prominenceM":null,"osmId":1373111799},"geometry":{"type":"Point","coordinates":[7.85975,45.92019]}},{"type":"Feature","properties":{"name":"Épaule de Furggen","nameDe":"Furggenschulter","elevationM":4243.0,"prominenceM":null,"osmId":13801169160},"geometry":{"type":"Point","coordinates":[7.66033,45.97569]}},{"type":"Feature","properties":{"name":"Stecknadelhorn","nameDe":null,"elevationM":4241.0,"prominenceM":null,"osmId":566646173},"geometry":{"type":"Point","coordinates":[7.8595,46.1115]}},{"type":"Feature","properties":{"name":"Pic Tyndall","nameDe":null,"elevationM":4241.0,"prominenceM":null,"osmId":3651057032},"geometry":{"type":"Point","coordinates":[7.65372,45.97429]}},{"type":"Feature","properties":{"name":"Castor","nameDe":null,"elevationM":4228.0,"prominenceM":165.0,"osmId":364072386},"geometry":{"type":"Point","coordinates":[7.79327,45.92085]}},{"type":"Feature","properties":{"name":"Zinalrothorn","nameDe":null,"elevationM":4221.0,"prominenceM":null,"osmId":364956853},"geometry":{"type":"Point","coordinates":[7.69012,46.06483]}},{"type":"Feature","properties":{"name":"Hohberghorn","nameDe":null,"elevationM":4219.0,"prominenceM":null,"osmId":251403667},"geometry":{"type":"Point","coordinates":[7.85388,46.11255]}},{"type":"Feature","properties":{"name":"Piramide Vincent","nameDe":null,"elevationM":4215.0,"prominenceM":null,"osmId":917996634},"geometry":{"type":"Point","coordinates":[7.86131,45.90811]}},{"type":"Feature","properties":{"name":"Alphubel","nameDe":null,"elevationM":4206.0,"prominenceM":null,"osmId":512696415},"geometry":{"type":"Point","coordinates":[7.86385,46.06288]}},{"type":"Feature","properties":{"name":"Castor Nordgipfel","nameDe":null,"elevationM":4205.0,"prominenceM":null,"osmId":1373111974},"geometry":{"type":"Point","coordinates":[7.79329,45.92201]}},{"type":"Feature","properties":{"name":null,"nameDe":null,"elevationM":4203.0,"prominenceM":null,"osmId":1373127114},"geometry":{"type":"Point","coordinates":[7.71109,46.11049]}},{"type":"Feature","properties":{"name":"Rimpfischhorn","nameDe":null,"elevationM":4198.0,"prominenceM":641.0,"osmId":26864448},"geometry":{"type":"Point","coordinates":[7.88396,46.02313]}},{"type":"Feature","properties":{"name":"Strahlhorn","nameDe":null,"elevationM":4190.0,"prominenceM":null,"osmId":316985761},"geometry":{"type":"Point","coordinates":[7.90217,46.01315]}},{"type":"Feature","properties":{"name":null,"nameDe":null,"elevationM":4188.0,"prominenceM":null,"osmId":1373121727},"geometry":{"type":"Point","coordinates":[7.86446,46.06673]}},{"type":"Feature","properties":{"name":"Picco Muzio","nameDe":null,"elevationM":4187.0,"prominenceM":null,"osmId":13801169159},"geometry":{"type":"Point","coordinates":[7.66102,45.97541]}},{"type":"Feature","properties":{"name":null,"nameDe":null,"elevationM":4183.0,"prominenceM":null,"osmId":3018567029},"geometry":{"type":"Point","coordinates":[7.79452,45.91979]}},{"type":"Feature","properties":{"name":null,"nameDe":null,"elevationM":4180.0,"prominenceM":null,"osmId":3018567028},"geometry":{"type":"Point","coordinates":[7.79607,45.91904]}},{"type":"Feature","properties":{"name":"Entdeckungsfelsen","nameDe":null,"elevationM":4178.0,"prominenceM":null,"osmId":2304704014},"geometry":{"type":"Point","coordinates":[7.85168,45.92099]}},{"type":"Feature","properties":{"name":"Dent d'Hérens","nameDe":null,"elevationM":4171.0,"prominenceM":685.0,"osmId":26862776},"geometry":{"type":"Point","coordinates":[7.60503,45.96998]}},{"type":"Feature","properties":{"name":"Balmenhorn","nameDe":null,"elevationM":4167.0,"prominenceM":null,"osmId":1798987626},"geometry":{"type":"Point","coordinates":[7.85813,45.91384]}},{"type":"Feature","properties":{"name":null,"nameDe":null,"elevationM":4165.0,"prominenceM":null,"osmId":3149414036},"geometry":{"type":"Point","coordinates":[7.86327,46.06068]}},{"type":"Feature","properties":{"name":"Breithorn Occidentale / Westgipfel","nameDe":"Breithorn Westgipfel","elevationM":4164.0,"prominenceM":null,"osmId":365064161},"geometry":{"type":"Point","coordinates":[7.74773,45.94101]}},{"type":"Feature","properties":{"name":"Breithorn Centrale","nameDe":"Breithorn Mittelgipfel","elevationM":4159.0,"prominenceM":null,"osmId":1356298379},"geometry":{"type":"Point","coordinates":[7.75677,45.93877]}},{"type":"Feature","properties":{"name":"Bishorn","nameDe":null,"elevationM":4149.0,"prominenceM":null,"osmId":512050064},"geometry":{"type":"Point","coordinates":[7.71496,46.11792]}},{"type":"Feature","properties":{"name":"Breithorn Orientale / Ostgipfel","nameDe":"Westlicher Breithornzwilling","elevationM":4139.0,"prominenceM":null,"osmId":1356298439},"geometry":{"type":"Point","coordinates":[7.76711,45.9375]}},{"type":"Feature","properties":{"name":"Pointe Burnaby","nameDe":null,"elevationM":4134.0,"prominenceM":null,"osmId":1768938306},"geometry":{"type":"Point","coordinates":[7.71802,46.11869]}},{"type":"Feature","properties":{"name":null,"nameDe":null,"elevationM":4130.0,"prominenceM":null,"osmId":3018567027},"geometry":{"type":"Point","coordinates":[7.79964,45.91707]}},{"type":"Feature","properties":{"name":null,"nameDe":null,"elevationM":4125.0,"prominenceM":null,"osmId":1373121990},"geometry":{"type":"Point","coordinates":[7.86649,46.07011]}},{"type":"Feature","properties":{"name":null,"nameDe":null,"elevationM":4118.0,"prominenceM":null,"osmId":3149414035},"geometry":{"type":"Point","coordinates":[7.86169,46.06846]}},{"type":"Feature","properties":{"name":"Gemello del Breithorn","nameDe":"Östlicher Breithornzwilling","elevationM":4106.0,"prominenceM":null,"osmId":1356298598},"geometry":{"type":"Point","coordinates":[7.77036,45.93584]}},{"type":"Feature","properties":{"name":"Grand Gendarme","nameDe":null,"elevationM":4097.0,"prominenceM":null,"osmId":1725081208},"geometry":{"type":"Point","coordinates":[7.61064,46.02977]}},{"type":"Feature","properties":{"name":"Pollux","nameDe":null,"elevationM":4092.0,"prominenceM":null,"osmId":364072387},"geometry":{"type":"Point","coordinates":[7.78531,45.92781]}},{"type":"Feature","properties":{"name":null,"nameDe":null,"elevationM":4088.0,"prominenceM":null,"osmId":1373124146},"geometry":{"type":"Point","coordinates":[7.84815,46.08106]}},{"type":"Feature","properties":{"name":"Felikhorn","nameDe":null,"elevationM":4087.0,"prominenceM":null,"osmId":13146012681},"geometry":{"type":"Point","coordinates":[7.80391,45.91673]}},{"type":"Feature","properties":{"name":"Roccia Nera","nameDe":"Schwarzfluh","elevationM":4075.0,"prominenceM":null,"osmId":1356298568},"geometry":{"type":"Point","coordinates":[7.77513,45.9327]}},{"type":"Feature","properties":{"name":"Ober Gabelhorn","nameDe":null,"elevationM":4073.0,"prominenceM":546.0,"osmId":393169561},"geometry":{"type":"Point","coordinates":[7.66804,46.0386]}},{"type":"Feature","properties":{"name":"Punta Giordani","nameDe":null,"elevationM":4046.0,"prominenceM":null,"osmId":918819227},"geometry":{"type":"Point","coordinates":[7.8678,45.90576]}},{"type":"Feature","properties":{"name":"Dirruhorn","nameDe":"Dürrenhorn","elevationM":4035.0,"prominenceM":null,"osmId":359938396},"geometry":{"type":"Point","coordinates":[7.84823,46.11965]}},{"type":"Feature","properties":{"name":"Allalinhorn","nameDe":null,"elevationM":4027.0,"prominenceM":null,"osmId":316985775},"geometry":{"type":"Point","coordinates":[7.89459,46.04609]}},{"type":"Feature","properties":{"name":"L'Epaule du Rothorn","nameDe":null,"elevationM":4016.0,"prominenceM":null,"osmId":6359240332},"geometry":{"type":"Point","coordinates":[7.6876,46.06939]}},{"type":"Feature","properties":{"name":null,"nameDe":null,"elevationM":4001.0,"prominenceM":null,"osmId":1975493259},"geometry":{"type":"Point","coordinates":[7.87953,46.02121]}},{"type":"Feature","properties":{"name":"Adlerhorn","nameDe":null,"elevationM":3988.0,"prominenceM":null,"osmId":393165511},"geometry":{"type":"Point","coordinates":[7.88896,46.00918]}},{"type":"Feature","properties":{"name":"Schalihorn","nameDe":null,"elevationM":3974.0,"prominenceM":null,"osmId":1373124704},"geometry":{"type":"Point","coordinates":[7.70494,46.08435]}},{"type":"Feature","properties":{"name":"Jägerhorn","nameDe":null,"elevationM":3970.0,"prominenceM":null,"osmId":401234364},"geometry":{"type":"Point","coordinates":[7.87718,45.95256]}},{"type":"Feature","properties":{"name":"Grand Cornier","nameDe":null,"elevationM":3969.0,"prominenceM":null,"osmId":393172219},"geometry":{"type":"Point","coordinates":[7.61157,46.05213]}},{"type":"Feature","properties":{"name":"Crête Sud de Moming","nameDe":null,"elevationM":3963.0,"prominenceM":null,"osmId":11538329252},"geometry":{"type":"Point","coordinates":[7.6952,46.07276]}},{"type":"Feature","properties":{"name":null,"nameDe":null,"elevationM":3955.0,"prominenceM":null,"osmId":1373124981},"geometry":{"type":"Point","coordinates":[7.70572,46.08698]}},{"type":"Feature","properties":{"name":"Ulrichshorn","nameDe":null,"elevationM":3925.0,"prominenceM":null,"osmId":251404315},"geometry":{"type":"Point","coordinates":[7.87653,46.11776]}},{"type":"Feature","properties":{"name":null,"nameDe":null,"elevationM":3921.0,"prominenceM":null,"osmId":3149414034},"geometry":{"type":"Point","coordinates":[7.89277,46.04434]}},{"type":"Feature","properties":{"name":"Punta Bianca","nameDe":null,"elevationM":3918.0,"prominenceM":null,"osmId":7276498082},"geometry":{"type":"Point","coordinates":[7.61322,45.97058]}},{"type":"Feature","properties":{"name":null,"nameDe":null,"elevationM":3907.0,"prominenceM":null,"osmId":1725081455},"geometry":{"type":"Point","coordinates":[7.60923,46.02487]}},{"type":"Feature","properties":{"name":"Punta Perazzi - Perazzispétz","nameDe":null,"elevationM":3906.0,"prominenceM":null,"osmId":1814350827},"geometry":{"type":"Point","coordinates":[7.79368,45.91163]}},{"type":"Feature","properties":{"name":"Wellenkuppe","nameDe":null,"elevationM":3903.0,"prominenceM":null,"osmId":3042780282},"geometry":{"type":"Point","coordinates":[7.67786,46.04199]}},{"type":"Feature","properties":{"name":"Gobba di Rollin","nameDe":null,"elevationM":3899.0,"prominenceM":null,"osmId":307196126},"geometry":{"type":"Point","coordinates":[7.73509,45.92397]}},{"type":"Feature","properties":{"name":"Zmuttzähne","nameDe":null,"elevationM":3894.0,"prominenceM":null,"osmId":13801169111},"geometry":{"type":"Point","coordinates":[7.65387,45.98049]}},{"type":"Feature","properties":{"name":"Feechopf","nameDe":"Feekopf","elevationM":3888.0,"prominenceM":null,"osmId":804913107},"geometry":{"type":"Point","coordinates":[7.88339,46.04862]}},{"type":"Feature","properties":{"name":"Klein Matterhorn","nameDe":null,"elevationM":3883.0,"prominenceM":null,"osmId":241018688},"geometry":{"type":"Point","coordinates":[7.72989,45.93836]}},{"type":"Feature","properties":{"name":"Punta Giordano","nameDe":null,"elevationM":3878.0,"prominenceM":null,"osmId":9289897848},"geometry":{"type":"Point","coordinates":[7.5972,45.94564]}},{"type":"Feature","properties":{"name":"Grand Gendarme","nameDe":null,"elevationM":3868.0,"prominenceM":null,"osmId":13098394234},"geometry":{"type":"Point","coordinates":[7.67324,46.04069]}},{"type":"Feature","properties":{"name":"Crête Nord de Moming","nameDe":null,"elevationM":3862.0,"prominenceM":null,"osmId":7195966005},"geometry":{"type":"Point","coordinates":[7.69974,46.07763]}},{"type":"Feature","properties":{"name":"Punta dei Cors","nameDe":null,"elevationM":3849.0,"prominenceM":null,"osmId":8591741771},"geometry":{"type":"Point","coordinates":[7.60144,45.94995]}},{"type":"Feature","properties":{"name":"Punta Carrel","nameDe":null,"elevationM":3841.0,"prominenceM":null,"osmId":7276498083},"geometry":{"type":"Point","coordinates":[7.61597,45.97134]}},{"type":"Feature","properties":{"name":null,"nameDe":null,"elevationM":3839.0,"prominenceM":null,"osmId":1373119902},"geometry":{"type":"Point","coordinates":[7.87438,46.05116]}},{"type":"Feature","properties":{"name":"Pointe du Mountet","nameDe":null,"elevationM":3839.0,"prominenceM":null,"osmId":11538310213},"geometry":{"type":"Point","coordinates":[7.68458,46.05731]}},{"type":"Feature","properties":{"name":null,"nameDe":null,"elevationM":3837.0,"prominenceM":null,"osmId":3149414033},"geometry":{"type":"Point","coordinates":[7.90212,46.04587]}},{"type":"Feature","properties":{"name":null,"nameDe":null,"elevationM":3826.0,"prominenceM":null,"osmId":3149414032},"geometry":{"type":"Point","coordinates":[7.88793,46.04667]}},{"type":"Feature","properties":{"name":"Punta Lioy","nameDe":null,"elevationM":3816.0,"prominenceM":null,"osmId":2435092612},"geometry":{"type":"Point","coordinates":[7.59891,45.94694]}},{"type":"Feature","properties":{"name":"Cima di Jazzi","nameDe":null,"elevationM":3803.0,"prominenceM":null,"osmId":1373115476},"geometry":{"type":"Point","coordinates":[7.89451,45.98091]}},{"type":"Feature","properties":{"name":"Fluchthorn","nameDe":null,"elevationM":3802.0,"prominenceM":null,"osmId":401234366},"geometry":{"type":"Point","coordinates":[7.91548,46.02121]}},{"type":"Feature","properties":{"name":"Tête de Valpelline","nameDe":null,"elevationM":3802.0,"prominenceM":null,"osmId":943826720},"geometry":{"type":"Point","coordinates":[7.58167,45.97462]}},{"type":"Feature","properties":{"name":"Becca de Guin","nameDe":null,"elevationM":3802.0,"prominenceM":null,"osmId":9289906476},"geometry":{"type":"Point","coordinates":[7.59156,45.94184]}},{"type":"Feature","properties":{"name":"Punta Maquignaz","nameDe":null,"elevationM":3801.0,"prominenceM":null,"osmId":7276519585},"geometry":{"type":"Point","coordinates":[7.617,45.9713]}},{"type":"Feature","properties":{"name":"Pointe de Zinal","nameDe":null,"elevationM":3790.0,"prominenceM":null,"osmId":393169563},"geometry":{"type":"Point","coordinates":[7.63046,46.02721]}},{"type":"Feature","properties":{"name":null,"nameDe":null,"elevationM":3778.0,"prominenceM":null,"osmId":8176673019},"geometry":{"type":"Point","coordinates":[7.63167,46.02528]}},{"type":"Feature","properties":{"name":null,"nameDe":null,"elevationM":3752.0,"prominenceM":null,"osmId":1373118978},"geometry":{"type":"Point","coordinates":[7.88997,46.04029]}},{"type":"Feature","properties":{"name":"Kinhorn","nameDe":null,"elevationM":3750.0,"prominenceM":null,"osmId":1373122822},"geometry":{"type":"Point","coordinates":[7.83401,46.07719]}},{"type":"Feature","properties":{"name":"Hohgwächte","nameDe":null,"elevationM":3740.0,"prominenceM":null,"osmId":566646172},"geometry":{"type":"Point","coordinates":[7.84106,46.10364]}},{"type":"Feature","properties":{"name":"Trifthorn","nameDe":null,"elevationM":3737.0,"prominenceM":null,"osmId":393169560},"geometry":{"type":"Point","coordinates":[7.6783,46.05146]}},{"type":"Feature","properties":{"name":null,"nameDe":null,"elevationM":3719.0,"prominenceM":null,"osmId":1373117617},"geometry":{"type":"Point","coordinates":[7.60545,46.01972]}},{"type":"Feature","properties":{"name":"Testa del Leone","nameDe":null,"elevationM":3715.0,"prominenceM":null,"osmId":7276514779},"geometry":{"type":"Point","coordinates":[7.64366,45.97131]}},{"type":"Feature","properties":{"name":"Mont Durand","nameDe":"Arbenhorn","elevationM":3712.0,"prominenceM":null,"osmId":393169562},"geometry":{"type":"Point","coordinates":[7.65051,46.03372]}},{"type":"Feature","properties":{"name":"Punta Maria Cristina","nameDe":null,"elevationM":3704.0,"prominenceM":null,"osmId":7276498084},"geometry":{"type":"Point","coordinates":[7.62037,45.97222]}},{"type":"Feature","properties":{"name":"Tête de Milon","nameDe":null,"elevationM":3693.0,"prominenceM":null,"osmId":3019936333},"geometry":{"type":"Point","coordinates":[7.69034,46.11853]}},{"type":"Feature","properties":{"name":"Mittler Gabelhorn","nameDe":null,"elevationM":3685.0,"prominenceM":null,"osmId":11538229818},"geometry":{"type":"Point","coordinates":[7.67651,46.03333]}},{"type":"Feature","properties":{"name":"Grosses Fillarhorn","nameDe":null,"elevationM":3676.0,"prominenceM":null,"osmId":1373114450},"geometry":{"type":"Point","coordinates":[7.88105,45.9632]}},{"type":"Feature","properties":{"name":"Hohwänghorn","nameDe":null,"elevationM":3671.0,"prominenceM":null,"osmId":11538220027},"geometry":{"type":"Point","coordinates":[7.6499,46.02876]}},{"type":"Feature","properties":{"name":"Ober Äschhorn","nameDe":null,"elevationM":3668.0,"prominenceM":null,"osmId":11417750487},"geometry":{"type":"Point","coordinates":[7.70767,46.06056]}},{"type":"Feature","properties":{"name":"Besso","nameDe":null,"elevationM":3667.0,"prominenceM":null,"osmId":3029801348},"geometry":{"type":"Point","coordinates":[7.65878,46.07776]}},{"type":"Feature","properties":{"name":"Blanc de Moming","nameDe":null,"elevationM":3660.0,"prominenceM":null,"osmId":6359240322},"geometry":{"type":"Point","coordinates":[7.6645,46.0737]}},{"type":"Feature","properties":{"name":"Dôme","nameDe":null,"elevationM":3650.0,"prominenceM":null,"osmId":6359240291},"geometry":{"type":"Point","coordinates":[7.66696,46.07165]}},{"type":"Feature","properties":{"name":null,"nameDe":null,"elevationM":3641.0,"prominenceM":null,"osmId":1373116117},"geometry":{"type":"Point","coordinates":[7.90611,45.9926]}},{"type":"Feature","properties":{"name":"Neue Weisstorspitze","nameDe":null,"elevationM":3639.0,"prominenceM":null,"osmId":1373115916},"geometry":{"type":"Point","coordinates":[7.90353,45.98871]}},{"type":"Feature","properties":{"name":null,"nameDe":null,"elevationM":3637.0,"prominenceM":null,"osmId":8463542597},"geometry":{"type":"Point","coordinates":[7.85248,46.05846]}},{"type":"Feature","properties":{"name":"Punta Budden","nameDe":null,"elevationM":3631.0,"prominenceM":null,"osmId":969086917},"geometry":{"type":"Point","coordinates":[7.58611,45.93424]}},{"type":"Feature","properties":{"name":"Torre di Castelfranco","nameDe":null,"elevationM":3627.0,"prominenceM":null,"osmId":3018568584},"geometry":{"type":"Point","coordinates":[7.87947,45.9729]}},{"type":"Feature","properties":{"name":"Kleines Fillarhorn","nameDe":null,"elevationM":3621.0,"prominenceM":null,"osmId":1373113990},"geometry":{"type":"Point","coordinates":[7.87787,45.95974]}},{"type":"Feature","properties":{"name":"Schwarzhorn","nameDe":null,"elevationM":3619.0,"prominenceM":null,"osmId":566646178},"geometry":{"type":"Point","coordinates":[7.88248,46.10959]}},{"type":"Feature","properties":{"name":"Unter Äschhorn","nameDe":null,"elevationM":3617.0,"prominenceM":null,"osmId":11417750486},"geometry":{"type":"Point","coordinates":[7.71487,46.05831]}},{"type":"Feature","properties":{"name":"Cima Brioschi","nameDe":null,"elevationM":3616.0,"prominenceM":null,"osmId":1373114762},"geometry":{"type":"Point","coordinates":[7.88018,45.96923]}},{"type":"Feature","properties":{"name":null,"nameDe":null,"elevationM":3614.0,"prominenceM":null,"osmId":1725081217},"geometry":{"type":"Point","coordinates":[7.60201,46.0265]}},{"type":"Feature","properties":{"name":"Dent des Rosses","nameDe":null,"elevationM":3613.0,"prominenceM":null,"osmId":1373121826},"geometry":{"type":"Point","coordinates":[7.59038,46.06797]}},{"type":"Feature","properties":{"name":"Schwarzberghorn","nameDe":null,"elevationM":3609.0,"prominenceM":null,"osmId":307219462},"geometry":{"type":"Point","coordinates":[7.90865,45.99704]}},{"type":"Feature","properties":{"name":null,"nameDe":null,"elevationM":3605.0,"prominenceM":null,"osmId":1373116666},"geometry":{"type":"Point","coordinates":[7.9075,45.99899]}},{"type":"Feature","properties":{"name":null,"nameDe":null,"elevationM":3599.0,"prominenceM":null,"osmId":3018568390},"geometry":{"type":"Point","coordinates":[7.90664,45.99481]}},{"type":"Feature","properties":{"name":"P3596","nameDe":null,"elevationM":3596.0,"prominenceM":null,"osmId":1373120142},"geometry":{"type":"Point","coordinates":[7.89958,46.05239]}},{"type":"Feature","properties":{"name":"Wandfluehorn","nameDe":null,"elevationM":3589.0,"prominenceM":null,"osmId":11538134710},"geometry":{"type":"Point","coordinates":[7.6019,46.00193]}},{"type":"Feature","properties":{"name":"Fillarjoch","nameDe":null,"elevationM":3586.0,"prominenceM":null,"osmId":1373113853},"geometry":{"type":"Point","coordinates":[7.87515,45.95877]}},{"type":"Feature","properties":{"name":"Tour de Créton","nameDe":null,"elevationM":3584.0,"prominenceM":null,"osmId":8268173083},"geometry":{"type":"Point","coordinates":[7.58529,45.92614]}},{"type":"Feature","properties":{"name":"Pointe de Bricolla","nameDe":null,"elevationM":3573.0,"prominenceM":null,"osmId":393172218},"geometry":{"type":"Point","coordinates":[7.59175,46.0625]}},{"type":"Feature","properties":{"name":"Poite des Petites Murailles","nameDe":null,"elevationM":3566.0,"prominenceM":null,"osmId":8268220641},"geometry":{"type":"Point","coordinates":[7.58644,45.93177]}},{"type":"Feature","properties":{"name":"Roffelhorn Westgipfel / Cima di Roffel occidentale","nameDe":"Roffelhorn Westgipfel","elevationM":3563.0,"prominenceM":null,"osmId":1373116309},"geometry":{"type":"Point","coordinates":[7.91906,45.9959]}},{"type":"Feature","properties":{"name":"Pointe du Mourti Orientale","nameDe":null,"elevationM":3563.0,"prominenceM":null,"osmId":1798595238},"geometry":{"type":"Point","coordinates":[7.5861,46.07243]}},{"type":"Feature","properties":{"name":null,"nameDe":null,"elevationM":3559.0,"prominenceM":null,"osmId":3075889273},"geometry":{"type":"Point","coordinates":[7.83183,46.0754]}},{"type":"Feature","properties":{"name":null,"nameDe":null,"elevationM":3545.0,"prominenceM":null,"osmId":8176673030},"geometry":{"type":"Point","coordinates":[7.59066,45.98276]}},{"type":"Feature","properties":{"name":null,"nameDe":null,"elevationM":3544.0,"prominenceM":null,"osmId":3149414031},"geometry":{"type":"Point","coordinates":[7.90953,46.04932]}},{"type":"Feature","properties":{"name":"Stockhorn","nameDe":null,"elevationM":3532.0,"prominenceM":null,"osmId":401234368},"geometry":{"type":"Point","coordinates":[7.83782,45.98565]}},{"type":"Feature","properties":{"name":"Pointe du Mourti Occidentale","nameDe":null,"elevationM":3529.0,"prominenceM":null,"osmId":1373122183},"geometry":{"type":"Point","coordinates":[7.58093,46.07336]}},{"type":"Feature","properties":{"name":"Punta Grober","nameDe":null,"elevationM":3497.0,"prominenceM":null,"osmId":1506069874},"geometry":{"type":"Point","coordinates":[7.92353,45.92121]}},{"type":"Feature","properties":{"name":"Furggen","nameDe":null,"elevationM":3492.0,"prominenceM":null,"osmId":1749686878},"geometry":{"type":"Point","coordinates":[7.68126,45.95682]}},{"type":"Feature","properties":{"name":"Testa Grigia","nameDe":null,"elevationM":3480.0,"prominenceM":null,"osmId":456920789},"geometry":{"type":"Point","coordinates":[7.70807,45.93414]}},{"type":"Feature","properties":{"name":"Roffelhorn Ostgipfel / Cima di Roffel orientale","nameDe":"Roffelhorn Ostgipfel","elevationM":3478.0,"prominenceM":null,"osmId":1373116461},"geometry":{"type":"Point","coordinates":[7.92757,45.99715]}},{"type":"Feature","properties":{"name":"Theodulhorn","nameDe":null,"elevationM":3472.0,"prominenceM":null,"osmId":401234276},"geometry":{"type":"Point","coordinates":[7.7084,45.94931]}},{"type":"Feature","properties":{"name":"Äbihorn","nameDe":null,"elevationM":3472.0,"prominenceM":null,"osmId":4593390398},"geometry":{"type":"Point","coordinates":[7.65358,46.02072]}},{"type":"Feature","properties":{"name":"Mittelallalin","nameDe":null,"elevationM":3456.0,"prominenceM":null,"osmId":3308406393},"geometry":{"type":"Point","coordinates":[7.90488,46.05755]}},{"type":"Feature","properties":{"name":null,"nameDe":null,"elevationM":3454.0,"prominenceM":null,"osmId":4385352715},"geometry":{"type":"Point","coordinates":[7.70893,45.94992]}},{"type":"Feature","properties":{"name":"Furgghorn","nameDe":null,"elevationM":3451.0,"prominenceM":null,"osmId":7276463737},"geometry":{"type":"Point","coordinates":[7.6995,45.95415]}},{"type":"Feature","properties":{"name":"Punta Vittoria","nameDe":null,"elevationM":3435.0,"prominenceM":null,"osmId":4439581751},"geometry":{"type":"Point","coordinates":[7.87825,45.8968]}},{"type":"Feature","properties":{"name":null,"nameDe":null,"elevationM":3430.0,"prominenceM":null,"osmId":3075889270},"geometry":{"type":"Point","coordinates":[7.83734,46.11704]}},{"type":"Feature","properties":{"name":"Eggfluh","nameDe":null,"elevationM":3429.0,"prominenceM":null,"osmId":566646177},"geometry":{"type":"Point","coordinates":[7.88389,46.10368]}},{"type":"Feature","properties":{"name":"Punta Tre Amici","nameDe":null,"elevationM":3425.0,"prominenceM":null,"osmId":5315799287},"geometry":{"type":"Point","coordinates":[7.90709,45.92602]}},{"type":"Feature","properties":{"name":"Oberrothorn","nameDe":null,"elevationM":3413.0,"prominenceM":null,"osmId":393192181},"geometry":{"type":"Point","coordinates":[7.8128,46.02754]}},{"type":"Feature","properties":{"name":"Mettelhorn","nameDe":null,"elevationM":3410.0,"prominenceM":270.0,"osmId":393167833},"geometry":{"type":"Point","coordinates":[7.74166,46.05565]}},{"type":"Feature","properties":{"name":"Mont Blanc du Créton","nameDe":null,"elevationM":3409.0,"prominenceM":null,"osmId":969097221},"geometry":{"type":"Point","coordinates":[7.58532,45.91825]}},{"type":"Feature","properties":{"name":"Leiterspitzen","nameDe":null,"elevationM":3409.0,"prominenceM":null,"osmId":1373122176},"geometry":{"type":"Point","coordinates":[7.82059,46.07328]}},{"type":"Feature","properties":{"name":"Stockhorn","nameDe":null,"elevationM":3405.0,"prominenceM":null,"osmId":692973202},"geometry":{"type":"Point","coordinates":[7.8234,45.98664]}},{"type":"Feature","properties":{"name":null,"nameDe":null,"elevationM":3400.0,"prominenceM":null,"osmId":2489438732},"geometry":{"type":"Point","coordinates":[7.67192,45.98148]}},{"type":"Feature","properties":{"name":"Unter Gabelhorn","nameDe":null,"elevationM":3398.0,"prominenceM":null,"osmId":393192159},"geometry":{"type":"Point","coordinates":[7.69678,46.02619]}},{"type":"Feature","properties":{"name":"Pigne de la Lé","nameDe":null,"elevationM":3396.0,"prominenceM":null,"osmId":1798595231},"geometry":{"type":"Point","coordinates":[7.61076,46.08294]}},{"type":"Feature","properties":{"name":"Furgghorn","nameDe":null,"elevationM":3391.0,"prominenceM":null,"osmId":11417779097},"geometry":{"type":"Point","coordinates":[7.72221,46.05398]}},{"type":"Feature","properties":{"name":"Grand-Tournalin - Punta Nord","nameDe":null,"elevationM":3379.0,"prominenceM":null,"osmId":3767542512},"geometry":{"type":"Point","coordinates":[7.6879,45.8715]}},{"type":"Feature","properties":{"name":"Grabenhorn","nameDe":null,"elevationM":3372.0,"prominenceM":null,"osmId":566646168},"geometry":{"type":"Point","coordinates":[7.82039,46.09352]}},{"type":"Feature","properties":{"name":"Grand Tournalin - Punta Sud","nameDe":null,"elevationM":3371.0,"prominenceM":null,"osmId":1308004907},"geometry":{"type":"Point","coordinates":[7.68726,45.8712]}},{"type":"Feature","properties":{"name":"Wisse Schijen","nameDe":null,"elevationM":3369.0,"prominenceM":null,"osmId":11537892945},"geometry":{"type":"Point","coordinates":[7.74313,46.09384]}},{"type":"Feature","properties":{"name":"Egginer","nameDe":null,"elevationM":3367.0,"prominenceM":null,"osmId":918915761},"geometry":{"type":"Point","coordinates":[7.93013,46.07518]}},{"type":"Feature","properties":{"name":"Blattje","nameDe":null,"elevationM":3361.0,"prominenceM":null,"osmId":401234365},"geometry":{"type":"Point","coordinates":[7.8304,45.94977]}},{"type":"Feature","properties":{"name":"Eseltschuggen","nameDe":null,"elevationM":3359.0,"prominenceM":null,"osmId":12040710945},"geometry":{"type":"Point","coordinates":[7.6968,46.05047]}},{"type":"Feature","properties":{"name":"Platthorn","nameDe":null,"elevationM":3345.0,"prominenceM":null,"osmId":444277135},"geometry":{"type":"Point","coordinates":[7.7364,46.05371]}},{"type":"Feature","properties":{"name":"Steinchalchhorn / Cresta di Stenigalchi","nameDe":"Steinchalchhorn Westgipfel","elevationM":3345.0,"prominenceM":null,"osmId":1373116311},"geometry":{"type":"Point","coordinates":[7.93262,45.99599]}},{"type":"Feature","properties":{"name":null,"nameDe":null,"elevationM":3337.0,"prominenceM":null,"osmId":3149414030},"geometry":{"type":"Point","coordinates":[7.91453,46.05299]}},{"type":"Feature","properties":{"name":"Mont Roisetta (Punta Nord)","nameDe":null,"elevationM":3334.0,"prominenceM":null,"osmId":1290254281},"geometry":{"type":"Point","coordinates":[7.68099,45.88723]}},{"type":"Feature","properties":{"name":"Steinchalchhorn","nameDe":"Steinchalchhorn Ostgipfel","elevationM":3333.0,"prominenceM":null,"osmId":1373116366},"geometry":{"type":"Point","coordinates":[7.9374,45.99692]}},{"type":"Feature","properties":{"name":"Hinter Allalin","nameDe":null,"elevationM":3330.0,"prominenceM":null,"osmId":11397637592},"geometry":{"type":"Point","coordinates":[7.92061,46.06325]}},{"type":"Feature","properties":{"name":"Mont Roisetta (Punta Sud)","nameDe":null,"elevationM":3324.0,"prominenceM":null,"osmId":3745660043},"geometry":{"type":"Point","coordinates":[7.6789,45.88475]}},{"type":"Feature","properties":{"name":"Rocca di Verra","nameDe":null,"elevationM":3321.0,"prominenceM":null,"osmId":4453712876},"geometry":{"type":"Point","coordinates":[7.7384,45.90526]}},{"type":"Feature","properties":{"name":"Fluehorn","nameDe":null,"elevationM":3317.0,"prominenceM":null,"osmId":1975493071},"geometry":{"type":"Point","coordinates":[7.82831,46.02329]}},{"type":"Feature","properties":{"name":"Pfulwe","nameDe":null,"elevationM":3314.0,"prominenceM":null,"osmId":1975493089},"geometry":{"type":"Point","coordinates":[7.84768,46.01649]}},{"type":"Feature","properties":{"name":null,"nameDe":null,"elevationM":3301.0,"prominenceM":null,"osmId":3149414029},"geometry":{"type":"Point","coordinates":[7.85624,46.05091]}},{"type":"Feature","properties":{"name":"Punta di Rollin","nameDe":null,"elevationM":3296.0,"prominenceM":null,"osmId":4993593921},"geometry":{"type":"Point","coordinates":[7.70861,45.91464]}},{"type":"Feature","properties":{"name":"Hohtälli","nameDe":null,"elevationM":3286.0,"prominenceM":null,"osmId":241018682},"geometry":{"type":"Point","coordinates":[7.80223,45.98901]}},{"type":"Feature","properties":{"name":"Wisse Schijen Südgipfel","nameDe":null,"elevationM":3264.0,"prominenceM":null,"osmId":12106447791},"geometry":{"type":"Point","coordinates":[7.74376,46.09034]}},{"type":"Feature","properties":{"name":"Spitzi Flue","nameDe":null,"elevationM":3260.0,"prominenceM":null,"osmId":1975494665},"geometry":{"type":"Point","coordinates":[7.84085,46.01782]}},{"type":"Feature","properties":{"name":"Bösentrift","nameDe":null,"elevationM":3253.0,"prominenceM":null,"osmId":393192182},"geometry":{"type":"Point","coordinates":[7.80297,46.03828]}},{"type":"Feature","properties":{"name":"Bösentrift","nameDe":null,"elevationM":3248.0,"prominenceM":null,"osmId":11537755196},"geometry":{"type":"Point","coordinates":[7.80279,46.04253]}},{"type":"Feature","properties":{"name":"Rote Nase","nameDe":null,"elevationM":3247.0,"prominenceM":null,"osmId":692973189},"geometry":{"type":"Point","coordinates":[7.81245,45.98714]}},{"type":"Feature","properties":{"name":"Strahlchnubel","nameDe":null,"elevationM":3243.0,"prominenceM":null,"osmId":12040710761},"geometry":{"type":"Point","coordinates":[7.8668,46.00827]}},{"type":"Feature","properties":{"name":"Mont Rous","nameDe":null,"elevationM":3240.0,"prominenceM":null,"osmId":1430299443},"geometry":{"type":"Point","coordinates":[7.5853,45.90699]}},{"type":"Feature","properties":{"name":"Rothhorn / Corno Rosso","nameDe":"Rothorn","elevationM":3230.0,"prominenceM":null,"osmId":1373116471},"geometry":{"type":"Point","coordinates":[7.95116,45.99717]}},{"type":"Feature","properties":{"name":"Pizzo Bianco","nameDe":null,"elevationM":3215.0,"prominenceM":null,"osmId":401234279},"geometry":{"type":"Point","coordinates":[7.93974,45.93718]}},{"type":"Feature","properties":{"name":"Horn","nameDe":null,"elevationM":3214.0,"prominenceM":null,"osmId":3075889261},"geometry":{"type":"Point","coordinates":[7.813,46.07338]}},{"type":"Feature","properties":{"name":"Petit Tournalin","nameDe":null,"elevationM":3207.0,"prominenceM":null,"osmId":1308005106},"geometry":{"type":"Point","coordinates":[7.68426,45.86518]}},{"type":"Feature","properties":{"name":"Seewjinenhorn / Corno di Seewjinen","nameDe":"Seewjinenhorn","elevationM":3205.0,"prominenceM":null,"osmId":3077281519},"geometry":{"type":"Point","coordinates":[7.95902,45.99649]}},{"type":"Feature","properties":{"name":"Stolemberg","nameDe":"Stolenberg","elevationM":3202.0,"prominenceM":null,"osmId":5492537143},"geometry":{"type":"Point","coordinates":[7.86528,45.8822]}},{"type":"Feature","properties":{"name":"Punta Rizzetti","nameDe":null,"elevationM":3196.0,"prominenceM":null,"osmId":2447841064},"geometry":{"type":"Point","coordinates":[7.93869,45.91225]}},{"type":"Feature","properties":{"name":"Wissgrat","nameDe":null,"elevationM":3195.0,"prominenceM":null,"osmId":1975494280},"geometry":{"type":"Point","coordinates":[7.84231,46.05907]}},{"type":"Feature","properties":{"name":null,"nameDe":null,"elevationM":3190.0,"prominenceM":null,"osmId":8198937382},"geometry":{"type":"Point","coordinates":[7.73659,46.04834]}},{"type":"Feature","properties":{"name":"Alta Luce","nameDe":null,"elevationM":3184.0,"prominenceM":null,"osmId":1351061369},"geometry":{"type":"Point","coordinates":[7.8347,45.8833]}},{"type":"Feature","properties":{"name":"Gemsspitz","nameDe":null,"elevationM":3182.0,"prominenceM":null,"osmId":5096096405},"geometry":{"type":"Point","coordinates":[7.63449,46.00751]}},{"type":"Feature","properties":{"name":null,"nameDe":null,"elevationM":3177.0,"prominenceM":null,"osmId":1373127706},"geometry":{"type":"Point","coordinates":[7.83096,46.11683]}},{"type":"Feature","properties":{"name":"Gran Sometta","nameDe":null,"elevationM":3166.0,"prominenceM":null,"osmId":3024677444},"geometry":{"type":"Point","coordinates":[7.67704,45.91435]}},{"type":"Feature","properties":{"name":"Sattelspitz","nameDe":null,"elevationM":3162.0,"prominenceM":null,"osmId":1975494658},"geometry":{"type":"Point","coordinates":[7.80385,46.04635]}},{"type":"Feature","properties":{"name":"Punta Calderini","nameDe":null,"elevationM":3145.0,"prominenceM":null,"osmId":2447841055},"geometry":{"type":"Point","coordinates":[7.94131,45.90969]}},{"type":"Feature","properties":{"name":"Mittaghorn","nameDe":null,"elevationM":3143.0,"prominenceM":null,"osmId":413448231},"geometry":{"type":"Point","coordinates":[7.93773,46.08457]}},{"type":"Feature","properties":{"name":"Gornergrat","nameDe":null,"elevationM":3135.0,"prominenceM":null,"osmId":8925949718},"geometry":{"type":"Point","coordinates":[7.78499,45.98334]}},{"type":"Feature","properties":{"name":"Pointe d'Arpitetta","nameDe":null,"elevationM":3132.0,"prominenceM":null,"osmId":3019948777},"geometry":{"type":"Point","coordinates":[7.66638,46.1108]}},{"type":"Feature","properties":{"name":"Corno di Faller","nameDe":null,"elevationM":3128.0,"prominenceM":null,"osmId":2447841046},"geometry":{"type":"Point","coordinates":[7.94278,45.90682]}},{"type":"Feature","properties":{"name":"Unterrothorn","nameDe":null,"elevationM":3103.0,"prominenceM":null,"osmId":11537289295},"geometry":{"type":"Point","coordinates":[7.79754,46.02083]}},{"type":"Feature","properties":{"name":"Le Mammouth","nameDe":null,"elevationM":3100.0,"prominenceM":null,"osmId":6354819928},"geometry":{"type":"Point","coordinates":[7.65355,46.06372]}},{"type":"Feature","properties":{"name":"Chli Haupt","nameDe":null,"elevationM":3098.0,"prominenceM":null,"osmId":3075889255},"geometry":{"type":"Point","coordinates":[7.81977,46.09843]}},{"type":"Feature","properties":{"name":"Stockje","nameDe":null,"elevationM":3097.0,"prominenceM":null,"osmId":393169860},"geometry":{"type":"Point","coordinates":[7.61044,45.9944]}},{"type":"Feature","properties":{"name":null,"nameDe":null,"elevationM":3091.0,"prominenceM":null,"osmId":3077280649},"geometry":{"type":"Point","coordinates":[7.9407,46.00281]}},{"type":"Feature","properties":{"name":"Grünberghorn","nameDe":null,"elevationM":3074.0,"prominenceM":null,"osmId":3077280639},"geometry":{"type":"Point","coordinates":[7.94472,46.00985]}},{"type":"Feature","properties":{"name":"Klein Allalin","nameDe":null,"elevationM":3070.0,"prominenceM":null,"osmId":460379074},"geometry":{"type":"Point","coordinates":[7.93739,46.0596]}},{"type":"Feature","properties":{"name":"Unterer Blausatz","nameDe":null,"elevationM":3066.0,"prominenceM":null,"osmId":12040710558},"geometry":{"type":"Point","coordinates":[7.63705,46.0069]}},{"type":"Feature","properties":{"name":null,"nameDe":null,"elevationM":3052.0,"prominenceM":null,"osmId":13296673160},"geometry":{"type":"Point","coordinates":[7.62149,46.01199]}},{"type":"Feature","properties":{"name":"Stockchnubel","nameDe":null,"elevationM":3047.0,"prominenceM":null,"osmId":12040710129},"geometry":{"type":"Point","coordinates":[7.83188,45.97938]}},{"type":"Feature","properties":{"name":"Monte Rosso Di Verra","nameDe":null,"elevationM":3034.0,"prominenceM":null,"osmId":1328595052},"geometry":{"type":"Point","coordinates":[7.76504,45.88326]}},{"type":"Feature","properties":{"name":"Üssere Turu","nameDe":"Äußerer Turm","elevationM":3030.0,"prominenceM":null,"osmId":918917610},"geometry":{"type":"Point","coordinates":[7.93657,46.04116]}},{"type":"Feature","properties":{"name":"Corno del Camoscio","nameDe":null,"elevationM":3024.0,"prominenceM":null,"osmId":2437491757},"geometry":{"type":"Point","coordinates":[7.86776,45.87311]}},{"type":"Feature","properties":{"name":"Corno Rosso","nameDe":null,"elevationM":3022.7,"prominenceM":null,"osmId":4352239989},"geometry":{"type":"Point","coordinates":[7.86893,45.8672]}},{"type":"Feature","properties":{"name":"Motta di Pleté Orientale","nameDe":null,"elevationM":3018.0,"prominenceM":null,"osmId":1785652045},"geometry":{"type":"Point","coordinates":[7.66648,45.91652]}},{"type":"Feature","properties":{"name":"Signal","nameDe":null,"elevationM":3015.0,"prominenceM":null,"osmId":3077281521},"geometry":{"type":"Point","coordinates":[7.94648,46.0173]}},{"type":"Feature","properties":{"name":"Bec Carre'","nameDe":null,"elevationM":3003.0,"prominenceM":null,"osmId":4993592084},"geometry":{"type":"Point","coordinates":[7.67854,45.90702]}},{"type":"Feature","properties":{"name":"Punta Bettolina","nameDe":null,"elevationM":2996.0,"prominenceM":null,"osmId":7295434125},"geometry":{"type":"Point","coordinates":[7.78109,45.87617]}},{"type":"Feature","properties":{"name":"Monte Moro","nameDe":null,"elevationM":2985.0,"prominenceM":null,"osmId":401234369},"geometry":{"type":"Point","coordinates":[7.97499,45.99919]}},{"type":"Feature","properties":{"name":null,"nameDe":null,"elevationM":2983.0,"prominenceM":null,"osmId":1373127795},"geometry":{"type":"Point","coordinates":[7.82473,46.11758]}},{"type":"Feature","properties":{"name":"Monte Bettaforca","nameDe":null,"elevationM":2980.0,"prominenceM":null,"osmId":1328531177},"geometry":{"type":"Point","coordinates":[7.77994,45.86403]}},{"type":"Feature","properties":{"name":"Pointe Sud","nameDe":null,"elevationM":2973.0,"prominenceM":null,"osmId":4993593023},"geometry":{"type":"Point","coordinates":[7.67926,45.90323]}},{"type":"Feature","properties":{"name":"Guglen","nameDe":null,"elevationM":2966.0,"prominenceM":null,"osmId":566646179},"geometry":{"type":"Point","coordinates":[7.89324,46.1004]}},{"type":"Feature","properties":{"name":"Monte Tagliaferro","nameDe":null,"elevationM":2964.0,"prominenceM":null,"osmId":26863982},"geometry":{"type":"Point","coordinates":[7.9707,45.87301]}},{"type":"Feature","properties":{"name":"Schwarzhörnli","nameDe":null,"elevationM":2963.0,"prominenceM":null,"osmId":12040711068},"geometry":{"type":"Point","coordinates":[7.75165,46.09251]}},{"type":"Feature","properties":{"name":"Becca d'Aran","nameDe":null,"elevationM":2953.0,"prominenceM":null,"osmId":665115543},"geometry":{"type":"Point","coordinates":[7.66274,45.87746]}},{"type":"Feature","properties":{"name":null,"nameDe":null,"elevationM":2938.0,"prominenceM":null,"osmId":8176673028},"geometry":{"type":"Point","coordinates":[7.61698,45.99626]}},{"type":"Feature","properties":{"name":"Wisshorn","nameDe":null,"elevationM":2936.0,"prominenceM":null,"osmId":5175490924},"geometry":{"type":"Point","coordinates":[7.7345,46.03695]}},{"type":"Feature","properties":{"name":null,"nameDe":null,"elevationM":2930.0,"prominenceM":null,"osmId":918916353},"geometry":{"type":"Point","coordinates":[7.94036,46.04179]}},{"type":"Feature","properties":{"name":"Riffelhorn","nameDe":null,"elevationM":2927.0,"prominenceM":null,"osmId":393165629},"geometry":{"type":"Point","coordinates":[7.75815,45.98158]}},{"type":"Feature","properties":{"name":"La Malfatta","nameDe":null,"elevationM":2912.0,"prominenceM":null,"osmId":5314800138},"geometry":{"type":"Point","coordinates":[7.88673,45.88777]}},{"type":"Feature","properties":{"name":null,"nameDe":null,"elevationM":2908.0,"prominenceM":null,"osmId":8176673029},"geometry":{"type":"Point","coordinates":[7.60707,45.98766]}},{"type":"Feature","properties":{"name":"Monte Croce","nameDe":null,"elevationM":2895.0,"prominenceM":null,"osmId":1290254273},"geometry":{"type":"Point","coordinates":[7.70432,45.86865]}},{"type":"Feature","properties":{"name":"Corno Piglimò","nameDe":null,"elevationM":2894.0,"prominenceM":null,"osmId":3663683338},"geometry":{"type":"Point","coordinates":[7.96134,45.89724]}},{"type":"Feature","properties":{"name":"Gross Kastel","nameDe":null,"elevationM":2893.0,"prominenceM":null,"osmId":5152598454},"geometry":{"type":"Point","coordinates":[7.75622,46.11682]}},{"type":"Feature","properties":{"name":"Hirli","nameDe":null,"elevationM":2890.0,"prominenceM":null,"osmId":3400248360},"geometry":{"type":"Point","coordinates":[7.69688,45.99024]}},{"type":"Feature","properties":{"name":"Gross Haupt","nameDe":null,"elevationM":2872.0,"prominenceM":null,"osmId":3075889260},"geometry":{"type":"Point","coordinates":[7.81509,46.09872]}},{"type":"Feature","properties":{"name":"Motta di Pleté Centrale","nameDe":null,"elevationM":2870.0,"prominenceM":null,"osmId":3676440276},"geometry":{"type":"Point","coordinates":[7.65385,45.91823]}},{"type":"Feature","properties":{"name":"Schwarzbergchopf","nameDe":null,"elevationM":2869.0,"prominenceM":null,"osmId":918917322},"geometry":{"type":"Point","coordinates":[7.94273,46.0436]}},{"type":"Feature","properties":{"name":"Getschung","nameDe":null,"elevationM":2863.0,"prominenceM":null,"osmId":12040710420},"geometry":{"type":"Point","coordinates":[7.75128,46.06516]}},{"type":"Feature","properties":{"name":"Motta di Plété Occidentale","nameDe":null,"elevationM":2840.0,"prominenceM":null,"osmId":3048781775},"geometry":{"type":"Point","coordinates":[7.64874,45.91246]}},{"type":"Feature","properties":{"name":"Punta Telcio","nameDe":null,"elevationM":2833.0,"prominenceM":null,"osmId":1958925788},"geometry":{"type":"Point","coordinates":[7.82386,45.87045]}},{"type":"Feature","properties":{"name":null,"nameDe":null,"elevationM":2830.0,"prominenceM":null,"osmId":5152598453},"geometry":{"type":"Point","coordinates":[7.7606,46.11636]}},{"type":"Feature","properties":{"name":"Unters Horn","nameDe":null,"elevationM":2811.0,"prominenceM":null,"osmId":12040710817},"geometry":{"type":"Point","coordinates":[7.97787,46.09222]}},{"type":"Feature","properties":{"name":"Oberes Distelhorn","nameDe":null,"elevationM":2806.0,"prominenceM":null,"osmId":566646180},"geometry":{"type":"Point","coordinates":[7.89933,46.10956]}},{"type":"Feature","properties":{"name":"Corno Mud","nameDe":null,"elevationM":2802.0,"prominenceM":null,"osmId":2493482414},"geometry":{"type":"Point","coordinates":[7.96322,45.88431]}},{"type":"Feature","properties":{"name":null,"nameDe":null,"elevationM":2786.0,"prominenceM":null,"osmId":5096117476},"geometry":{"type":"Point","coordinates":[7.69805,45.9863]}},{"type":"Feature","properties":{"name":"Chli Kastel","nameDe":null,"elevationM":2786.0,"prominenceM":null,"osmId":5152598455},"geometry":{"type":"Point","coordinates":[7.75332,46.11338]}},{"type":"Feature","properties":{"name":"Palon di Nana","nameDe":null,"elevationM":2764.0,"prominenceM":null,"osmId":9988617475},"geometry":{"type":"Point","coordinates":[7.70665,45.86195]}},{"type":"Feature","properties":{"name":"Dosso Grinner","nameDe":null,"elevationM":2761.0,"prominenceM":null,"osmId":5290723787},"geometry":{"type":"Point","coordinates":[7.97396,45.86751]}},{"type":"Feature","properties":{"name":"Punta Battisti","nameDe":null,"elevationM":2754.0,"prominenceM":null,"osmId":7817884364},"geometry":{"type":"Point","coordinates":[7.93242,45.94791]}},{"type":"Feature","properties":{"name":"Mont Seriola","nameDe":null,"elevationM":2752.0,"prominenceM":null,"osmId":7933709685},"geometry":{"type":"Point","coordinates":[7.59719,45.89949]}},{"type":"Feature","properties":{"name":"Tällihorn","nameDe":null,"elevationM":2749.0,"prominenceM":null,"osmId":566646183},"geometry":{"type":"Point","coordinates":[7.8993,46.11266]}},{"type":"Feature","properties":{"name":"Punta Chiara","nameDe":null,"elevationM":2747.0,"prominenceM":null,"osmId":4543649360},"geometry":{"type":"Point","coordinates":[7.96327,45.89243]}},{"type":"Feature","properties":{"name":"Pizzo Nero","nameDe":null,"elevationM":2738.0,"prominenceM":null,"osmId":2445421379},"geometry":{"type":"Point","coordinates":[7.9545,45.94757]}},{"type":"Feature","properties":{"name":"Gugle","nameDe":null,"elevationM":2721.0,"prominenceM":null,"osmId":393165636},"geometry":{"type":"Point","coordinates":[7.76802,45.99803]}},{"type":"Feature","properties":{"name":"Mällig","nameDe":null,"elevationM":2700.0,"prominenceM":null,"osmId":566646184},"geometry":{"type":"Point","coordinates":[7.90924,46.11856]}},{"type":"Feature","properties":{"name":"Crestone Marinelli","nameDe":null,"elevationM":2675.0,"prominenceM":null,"osmId":3018567022},"geometry":{"type":"Point","coordinates":[7.89762,45.94725]}},{"type":"Feature","properties":{"name":"Palon di Résy","nameDe":null,"elevationM":2673.0,"prominenceM":null,"osmId":7295538230},"geometry":{"type":"Point","coordinates":[7.75211,45.87562]}},{"type":"Feature","properties":{"name":"Palon di Tzere","nameDe":null,"elevationM":2671.0,"prominenceM":null,"osmId":1288626069},"geometry":{"type":"Point","coordinates":[7.71321,45.89328]}},{"type":"Feature","properties":{"name":"Unteres Distelhorn","nameDe":null,"elevationM":2638.0,"prominenceM":null,"osmId":566646181},"geometry":{"type":"Point","coordinates":[7.90145,46.10784]}},{"type":"Feature","properties":{"name":"Piccolo Altare","nameDe":null,"elevationM":2627.0,"prominenceM":null,"osmId":2448116389},"geometry":{"type":"Point","coordinates":[7.97009,45.90319]}},{"type":"Feature","properties":{"name":"Bec Pio Merlo","nameDe":null,"elevationM":2620.0,"prominenceM":null,"osmId":3048645660},"geometry":{"type":"Point","coordinates":[7.64059,45.91959]}},{"type":"Feature","properties":{"name":null,"nameDe":null,"elevationM":2618.0,"prominenceM":null,"osmId":4619381415},"geometry":{"type":"Point","coordinates":[7.61181,46.10143]}},{"type":"Feature","properties":{"name":"Monte Pancherot","nameDe":null,"elevationM":2614.0,"prominenceM":null,"osmId":1287766598},"geometry":{"type":"Point","coordinates":[7.60207,45.88373]}},{"type":"Feature","properties":{"name":"Roc de la Vache","nameDe":null,"elevationM":2581.0,"prominenceM":null,"osmId":1370179227},"geometry":{"type":"Point","coordinates":[7.64519,46.11892]}},{"type":"Feature","properties":{"name":"Gagenhaupt","nameDe":null,"elevationM":2568.0,"prominenceM":null,"osmId":12040710191},"geometry":{"type":"Point","coordinates":[7.74439,45.9859]}},{"type":"Feature","properties":{"name":"Corno d'Olen","nameDe":null,"elevationM":2556.0,"prominenceM":null,"osmId":2891603514},"geometry":{"type":"Point","coordinates":[7.91067,45.87478]}},{"type":"Feature","properties":{"name":"Mont de Molar","nameDe":null,"elevationM":2502.0,"prominenceM":null,"osmId":4011231028},"geometry":{"type":"Point","coordinates":[7.65463,45.87347]}},{"type":"Feature","properties":{"name":"Ruppenstein","nameDe":null,"elevationM":2501.0,"prominenceM":null,"osmId":3077281518},"geometry":{"type":"Point","coordinates":[7.97742,45.98777]}},{"type":"Feature","properties":{"name":"Mont de Molar Ovest","nameDe":null,"elevationM":2485.0,"prominenceM":null,"osmId":4011231158},"geometry":{"type":"Point","coordinates":[7.65227,45.87243]}},{"type":"Feature","properties":{"name":"Faderhorn","nameDe":null,"elevationM":2475.0,"prominenceM":null,"osmId":2727160058},"geometry":{"type":"Point","coordinates":[7.94968,45.9833]}},{"type":"Feature","properties":{"name":"Corno di Stofful occidentale","nameDe":null,"elevationM":2466.0,"prominenceM":null,"osmId":4505444110},"geometry":{"type":"Point","coordinates":[7.91455,45.87677]}},{"type":"Feature","properties":{"name":"Corno Molera","nameDe":null,"elevationM":2423.0,"prominenceM":null,"osmId":4536190293},"geometry":{"type":"Point","coordinates":[7.90174,45.87727]}},{"type":"Feature","properties":{"name":"Troäre","nameDe":null,"elevationM":2396.0,"prominenceM":null,"osmId":3075893049},"geometry":{"type":"Point","coordinates":[7.7985,46.08339]}},{"type":"Feature","properties":{"name":"Corno di Stofful orientale","nameDe":null,"elevationM":2385.0,"prominenceM":null,"osmId":4505549031},"geometry":{"type":"Point","coordinates":[7.9223,45.87658]}},{"type":"Feature","properties":{"name":"Dossen","nameDe":null,"elevationM":1954.0,"prominenceM":null,"osmId":12040711016},"geometry":{"type":"Point","coordinates":[7.73358,45.99656]}},{"type":"Feature","properties":{"name":"Bielti","nameDe":null,"elevationM":null,"prominenceM":null,"osmId":3666226118},"geometry":{"type":"Point","coordinates":[7.72653,46.00282]}},{"type":"Feature","properties":{"name":"Kleiner Pollux","nameDe":null,"elevationM":null,"prominenceM":null,"osmId":4399727779},"geometry":{"type":"Point","coordinates":[7.79467,45.94851]}}]}