{"type":"FeatureCollection","features":[{"type":"Feature","properties":{"name":"Britanniahütte","kind":"hut","elevationM":3030.0,"osmId":316985701},"geometry":{"type":"Point","coordinates":[7.93502,46.06006]}},{"type":"Feature","properties":{"name":"Cabane d'Arpitettaz","kind":"hut","elevationM":2786.0,"osmId":4399549524},"geometry":{"type":"Point","coordinates":[7.67936,46.10089]}},{"type":"Feature","properties":{"name":"Cabane de Moiry","kind":"hut","elevationM":2825.0,"osmId":4399562394},"geometry":{"type":"Point","coordinates":[7.59549,46.09069]}},{"type":"Feature","properties":{"name":"Cabane du Mountet CAS","kind":"hut","elevationM":2886.0,"osmId":8210223277},"geometry":{"type":"Point","coordinates":[7.65354,46.06005]}},{"type":"Feature","properties":{"name":"Col de la Dent Blanche CAS Bivouac","kind":"hut","elevationM":3540.0,"osmId":502559811},"geometry":{"type":"Point","coordinates":[7.60709,46.04193]}},{"type":"Feature","properties":{"name":"Grünsee Mountain Lodge","kind":"hut","elevationM":2296.0,"osmId":13729864528},"geometry":{"type":"Point","coordinates":[7.7797,46.00599]}},{"type":"Feature","properties":{"name":"Hörnlihütte","kind":"hut","elevationM":3260.0,"osmId":9070906905},"geometry":{"type":"Point","coordinates":[7.67701,45.9822]}},{"type":"Feature","properties":{"name":"Kinhütte","kind":"hut","elevationM":2584.0,"osmId":1458720984},"geometry":{"type":"Point","coordinates":[7.80709,46.08853]}},{"type":"Feature","properties":{"name":"Mischabelhütte","kind":"hut","elevationM":3340.0,"osmId":251403227},"geometry":{"type":"Point","coordinates":[7.8888,46.10942]}},{"type":"Feature","properties":{"name":"Monte Rosa Hütte","kind":"hut","elevationM":2883.0,"osmId":11063882922},"geometry":{"type":"Point","coordinates":[7.81457,45.95693]}},{"type":"Feature","properties":{"name":"Rifugio Alpe Campo Superiore","kind":"hut","elevationM":1923.0,"osmId":2187413315},"geometry":{"type":"Point","coordinates":[7.95417,45.86092]}},{"type":"Feature","properties":{"name":"Rifugio Barba Ferrero","kind":"hut","elevationM":2247.0,"osmId":2119277094},"geometry":{"type":"Point","coordinates":[7.90997,45.90276]}},{"type":"Feature","properties":{"name":"Rifugio CAI di Saronno","kind":"hut","elevationM":1827.0,"osmId":9427942452},"geometry":{"type":"Point","coordinates":[7.92474,45.96644]}},{"type":"Feature","properties":{"name":"Rifugio Città di Mortara - Grande Halte","kind":"hut","elevationM":1945.0,"osmId":2196135325},"geometry":{"type":"Point","coordinates":[7.90944,45.86392]}},{"type":"Feature","properties":{"name":"Rifugio G.B. Ferraro","kind":"hut","elevationM":2077.0,"osmId":353049800},"geometry":{"type":"Point","coordinates":[7.73988,45.86602]}},{"type":"Feature","properties":{"name":"Rifugio Gaspare Oberto e Paolo Maroli","kind":"hut","elevationM":null,"osmId":9427942453},"geometry":{"type":"Point","coordinates":[7.97883,45.99651]}},{"type":"Feature","properties":{"name":"Rifugio Guide d'Ayas","kind":"hut","elevationM":3388.0,"osmId":353049786},"geometry":{"type":"Point","coordinates":[7.76714,45.9206]}},{"type":"Feature","properties":{"name":"Rifugio Guide di Frachey","kind":"hut","elevationM":2072.0,"osmId":353049803},"geometry":{"type":"Point","coordinates":[7.73938,45.86578]}},{"type":"Feature","properties":{"name":"Rifugio Jean Barmasse","kind":"hut","elevationM":2165.0,"osmId":353049817},"geometry":{"type":"Point","coordinates":[7.59335,45.87669]}},{"type":"Feature","properties":{"name":"Rifugio Ottorino Mezzalama","kind":"hut","elevationM":3036.0,"osmId":353049783},"geometry":{"type":"Point","coordinates":[7.75943,45.9137]}},{"type":"Feature","properties":{"name":"Rifugio Rodolfo Zamboni e Mario Zappa","kind":"hut","elevationM":2066.0,"osmId":9425858364},"geometry":{"type":"Point","coordinates":[7.9179,45.95316]}},{"type":"Feature","properties":{"name":"Rifugio Santino Ferioli","kind":"hut","elevationM":2264.0,"osmId":2187349647},"geometry":{"type":"Point","coordinates":[7.95891,45.87748]}},{"type":"Feature","properties":{"name":"Schönbielhütte SAC","kind":"hut","elevationM":2694.0,"osmId":10167539308},"geometry":{"type":"Point","coordinates":[7.62896,46.00198]}},{"type":"Feature","properties":{"name":"Täschhütte","kind":"hut","elevationM":2701.0,"osmId":502559963},"geometry":{"type":"Point","coordinates":[7.83001,46.05157]}},{"type":"Feature","properties":{"name":"Weisshornhütte SAC","kind":"hut","elevationM":2932.0,"osmId":502559977},"geometry":{"type":"Point","coordinates":[7.74359,46.08596]}},{"type":"Feature","properties":{"name":"Alpe Bill","kind":"lift-station","elevationM":null,"osmId":4583853883},"geometry":{"type":"Point","coordinates":[7.96782,45.9754]}},{"type":"Feature","properties":{"name":"Alpe Bill","kind":"lift-station","elevationM":null,"osmId":4583853886},"geometry":{"type":"Point","coordinates":[7.96786,45.97546]}},{"type":"Feature","properties":{"name":"Alpe Burki","kind":"lift-station","elevationM":null,"osmId":454099714},"geometry":{"type":"Point","coordinates":[7.93194,45.96693]}},{"type":"Feature","properties":{"name":"Alpe Mandria","kind":"lift-station","elevationM":null,"osmId":372783741},"geometry":{"type":"Point","coordinates":[7.75973,45.86012]}},{"type":"Feature","properties":{"name":"Alpin Express I","kind":"lift-station","elevationM":null,"osmId":288316708},"geometry":{"type":"Point","coordinates":[7.91786,46.0816]}},{"type":"Feature","properties":{"name":"Alpin Express I","kind":"lift-station","elevationM":1798.0,"osmId":339812510},"geometry":{"type":"Point","coordinates":[7.92817,46.10606]}},{"type":"Feature","properties":{"name":"Alpin Express II","kind":"lift-station","elevationM":2989.0,"osmId":339812515},"geometry":{"type":"Point","coordinates":[7.91534,46.0686]}},{"type":"Feature","properties":{"name":"Alpin Express II","kind":"lift-station","elevationM":null,"osmId":643465607},"geometry":{"type":"Point","coordinates":[7.91753,46.08163]}},{"type":"Feature","properties":{"name":"Aroleid","kind":"lift-station","elevationM":null,"osmId":682186791},"geometry":{"type":"Point","coordinates":[7.7194,45.99645]}},{"type":"Feature","properties":{"name":"Bec Carré","kind":"lift-station","elevationM":2420.0,"osmId":342786443},"geometry":{"type":"Point","coordinates":[7.6526,45.90576]}},{"type":"Feature","properties":{"name":"Bec Carré","kind":"lift-station","elevationM":2893.0,"osmId":342786447},"geometry":{"type":"Point","coordinates":[7.67754,45.9097]}},{"type":"Feature","properties":{"name":"Becca d'Aran","kind":"lift-station","elevationM":null,"osmId":1083805352},"geometry":{"type":"Point","coordinates":[7.65835,45.89691]}},{"type":"Feature","properties":{"name":"Becca d'Aran","kind":"lift-station","elevationM":null,"osmId":1109870652},"geometry":{"type":"Point","coordinates":[7.65111,45.89119]}},{"type":"Feature","properties":{"name":"Belvedere","kind":"lift-station","elevationM":null,"osmId":454099715},"geometry":{"type":"Point","coordinates":[7.92209,45.96583]}},{"type":"Feature","properties":{"name":"Bergstation Spielbodenbahn","kind":"lift-station","elevationM":null,"osmId":233807949},"geometry":{"type":"Point","coordinates":[7.89964,46.09202]}},{"type":"Feature","properties":{"name":"Bettaforca","kind":"lift-station","elevationM":2704.5,"osmId":372783719},"geometry":{"type":"Point","coordinates":[7.78071,45.86984]}},{"type":"Feature","properties":{"name":"Bettaforca","kind":"lift-station","elevationM":2297.2,"osmId":1019436111},"geometry":{"type":"Point","coordinates":[7.76117,45.86668]}},{"type":"Feature","properties":{"name":"Blauherd","kind":"lift-station","elevationM":2576.0,"osmId":240139870},"geometry":{"type":"Point","coordinates":[7.78832,46.0166]}},{"type":"Feature","properties":{"name":"Blauherd","kind":"lift-station","elevationM":null,"osmId":1678698573},"geometry":{"type":"Point","coordinates":[7.78525,46.01707]}},{"type":"Feature","properties":{"name":"Blauherd","kind":"lift-station","elevationM":2586.0,"osmId":3412067144},"geometry":{"type":"Point","coordinates":[7.78571,46.01705]}},{"type":"Feature","properties":{"name":"Bocchetta","kind":"lift-station","elevationM":null,"osmId":12419311715},"geometry":{"type":"Point","coordinates":[7.90222,45.87505]}},{"type":"Feature","properties":{"name":"Bontadini","kind":"lift-station","elevationM":3301.0,"osmId":240324465},"geometry":{"type":"Point","coordinates":[7.70848,45.94488]}},{"type":"Feature","properties":{"name":"Bontadini","kind":"lift-station","elevationM":3041.0,"osmId":332858458},"geometry":{"type":"Point","coordinates":[7.69496,45.94797]}},{"type":"Feature","properties":{"name":"Breitboden","kind":"lift-station","elevationM":2430.0,"osmId":313522504},"geometry":{"type":"Point","coordinates":[7.77266,46.00183]}},{"type":"Feature","properties":{"name":"Campetto","kind":"lift-station","elevationM":2009.0,"osmId":330240665},"geometry":{"type":"Point","coordinates":[7.63139,45.93737]}},{"type":"Feature","properties":{"name":"Campetto","kind":"lift-station","elevationM":2470.0,"osmId":330240666},"geometry":{"type":"Point","coordinates":[7.63529,45.94025]}},{"type":"Feature","properties":{"name":"Cieloalto","kind":"lift-station","elevationM":null,"osmId":638688095},"geometry":{"type":"Point","coordinates":[7.6415,45.92223]}},{"type":"Feature","properties":{"name":"Cieloalto","kind":"lift-station","elevationM":null,"osmId":638688133},"geometry":{"type":"Point","coordinates":[7.63326,45.92934]}},{"type":"Feature","properties":{"name":"Cimalegna","kind":"lift-station","elevationM":2650.0,"osmId":5331411025},"geometry":{"type":"Point","coordinates":[7.88717,45.87136]}},{"type":"Feature","properties":{"name":"Cime Bianche Laghi","kind":"lift-station","elevationM":2812.0,"osmId":114941952},"geometry":{"type":"Point","coordinates":[7.68033,45.93005]}},{"type":"Feature","properties":{"name":"Colle Betta","kind":"lift-station","elevationM":2727.0,"osmId":373915147},"geometry":{"type":"Point","coordinates":[7.78236,45.87006]}},{"type":"Feature","properties":{"name":"Colle Salati","kind":"lift-station","elevationM":3030.0,"osmId":5331411026},"geometry":{"type":"Point","coordinates":[7.86754,45.87833]}},{"type":"Feature","properties":{"name":"Colle Superiore delle Cime Bianche","kind":"lift-station","elevationM":3092.0,"osmId":13333884963},"geometry":{"type":"Point","coordinates":[7.69087,45.91882]}},{"type":"Feature","properties":{"name":"Cretaz","kind":"lift-station","elevationM":2009.0,"osmId":240324474},"geometry":{"type":"Point","coordinates":[7.63137,45.93713]}},{"type":"Feature","properties":{"name":"Cretaz","kind":"lift-station","elevationM":2470.0,"osmId":1172229162},"geometry":{"type":"Point","coordinates":[7.64859,45.94567]}},{"type":"Feature","properties":{"name":"Du Col","kind":"lift-station","elevationM":2858.0,"osmId":342786460},"geometry":{"type":"Point","coordinates":[7.68082,45.91091]}},{"type":"Feature","properties":{"name":"Du Col","kind":"lift-station","elevationM":2893.0,"osmId":1109895025},"geometry":{"type":"Point","coordinates":[7.67785,45.90948]}},{"type":"Feature","properties":{"name":"Du Col","kind":"lift-station","elevationM":2858.0,"osmId":1109895123},"geometry":{"type":"Point","coordinates":[7.68023,45.91037]}},{"type":"Feature","properties":{"name":"Eisfluh","kind":"lift-station","elevationM":2190.0,"osmId":313520439},"geometry":{"type":"Point","coordinates":[7.76394,46.01742]}},{"type":"Feature","properties":{"name":"Eja","kind":"lift-station","elevationM":2035.0,"osmId":313522501},"geometry":{"type":"Point","coordinates":[7.76949,46.00987]}},{"type":"Feature","properties":{"name":"Ex Funivia Bocchetta delle Pisse","kind":"lift-station","elevationM":null,"osmId":208087302},"geometry":{"type":"Point","coordinates":[7.90142,45.8751]}},{"type":"Feature","properties":{"name":"Ex Funivia Punta Indren","kind":"lift-station","elevationM":3260.0,"osmId":149862631},"geometry":{"type":"Point","coordinates":[7.86596,45.88862]}},{"type":"Feature","properties":{"name":"Ex-Cestovia balma","kind":"lift-station","elevationM":null,"osmId":208087300},"geometry":{"type":"Point","coordinates":[7.90141,45.87499]}},{"type":"Feature","properties":{"name":"Felskinn","kind":"lift-station","elevationM":1798.0,"osmId":339812592},"geometry":{"type":"Point","coordinates":[7.91993,46.09981]}},{"type":"Feature","properties":{"name":"Felskinn","kind":"lift-station","elevationM":2989.0,"osmId":339812596},"geometry":{"type":"Point","coordinates":[7.91612,46.06893]}},{"type":"Feature","properties":{"name":"Fornet","kind":"lift-station","elevationM":null,"osmId":166368557},"geometry":{"type":"Point","coordinates":[7.68428,45.94465]}},{"type":"Feature","properties":{"name":"Fornet","kind":"lift-station","elevationM":3041.0,"osmId":332858459},"geometry":{"type":"Point","coordinates":[7.69541,45.94767]}},{"type":"Feature","properties":{"name":"Furgg","kind":"lift-station","elevationM":null,"osmId":240324384},"geometry":{"type":"Point","coordinates":[7.71403,45.98796]}},{"type":"Feature","properties":{"name":"Furgg","kind":"lift-station","elevationM":2445.0,"osmId":597252982},"geometry":{"type":"Point","coordinates":[7.71061,45.98749]}},{"type":"Feature","properties":{"name":"Furgg","kind":"lift-station","elevationM":2432.0,"osmId":296185315},"geometry":{"type":"Point","coordinates":[7.71377,45.98794]}},{"type":"Feature","properties":{"name":"Furgg","kind":"lift-station","elevationM":null,"osmId":296190998},"geometry":{"type":"Point","coordinates":[7.71062,45.98753]}},{"type":"Feature","properties":{"name":"Furggsattel","kind":"lift-station","elevationM":3365.0,"osmId":713084121},"geometry":{"type":"Point","coordinates":[7.70432,45.95073]}},{"type":"Feature","properties":{"name":"Furggstalden","kind":"lift-station","elevationM":1905.0,"osmId":944587062},"geometry":{"type":"Point","coordinates":[7.96341,46.08964]}},{"type":"Feature","properties":{"name":"Furggstalden","kind":"lift-station","elevationM":1683.0,"osmId":11537866315},"geometry":{"type":"Point","coordinates":[7.95796,46.09222]}},{"type":"Feature","properties":{"name":"Furi","kind":"lift-station","elevationM":1864.0,"osmId":240240209},"geometry":{"type":"Point","coordinates":[7.73196,46.00167]}},{"type":"Feature","properties":{"name":"Furi","kind":"lift-station","elevationM":1864.0,"osmId":240240211},"geometry":{"type":"Point","coordinates":[7.7323,46.00134]}},{"type":"Feature","properties":{"name":"Furi","kind":"lift-station","elevationM":1864.0,"osmId":240240218},"geometry":{"type":"Point","coordinates":[7.73205,46.00123]}},{"type":"Feature","properties":{"name":"Furi","kind":"lift-station","elevationM":1864.0,"osmId":240287133},"geometry":{"type":"Point","coordinates":[7.73215,46.00147]}},{"type":"Feature","properties":{"name":"Gant","kind":"lift-station","elevationM":2226.0,"osmId":240139875},"geometry":{"type":"Point","coordinates":[7.78752,46.00901]}},{"type":"Feature","properties":{"name":"Gant","kind":"lift-station","elevationM":2230.0,"osmId":3400307808},"geometry":{"type":"Point","coordinates":[7.78828,46.00853]}},{"type":"Feature","properties":{"name":"Gant","kind":"lift-station","elevationM":2223.0,"osmId":217957569},"geometry":{"type":"Point","coordinates":[7.78756,46.00899]}},{"type":"Feature","properties":{"name":"Gant","kind":"lift-station","elevationM":2223.0,"osmId":217957573},"geometry":{"type":"Point","coordinates":[7.78824,46.00868]}},{"type":"Feature","properties":{"name":"Gifthittli","kind":"lift-station","elevationM":2935.0,"osmId":3400293499},"geometry":{"type":"Point","coordinates":[7.77515,45.98614]}},{"type":"Feature","properties":{"name":"Gifthittli","kind":"lift-station","elevationM":2935.0,"osmId":295875980},"geometry":{"type":"Point","coordinates":[7.7751,45.98617]}},{"type":"Feature","properties":{"name":"Goillet","kind":"lift-station","elevationM":3092.0,"osmId":361167858},"geometry":{"type":"Point","coordinates":[7.69019,45.91901]}},{"type":"Feature","properties":{"name":"Hannig","kind":"lift-station","elevationM":2340.0,"osmId":1678698638},"geometry":{"type":"Point","coordinates":[7.91664,46.11502]}},{"type":"Feature","properties":{"name":"Hannig","kind":"lift-station","elevationM":1798.0,"osmId":1678698735},"geometry":{"type":"Point","coordinates":[7.92733,46.11016]}},{"type":"Feature","properties":{"name":"Heidbodme","kind":"lift-station","elevationM":2347.0,"osmId":921712372},"geometry":{"type":"Point","coordinates":[7.97544,46.08212]}},{"type":"Feature","properties":{"name":"Heidbodme","kind":"lift-station","elevationM":1833.0,"osmId":1414410678},"geometry":{"type":"Point","coordinates":[7.96138,46.08743]}},{"type":"Feature","properties":{"name":"Hirli","kind":"lift-station","elevationM":2769.0,"osmId":4018131518},"geometry":{"type":"Point","coordinates":[7.69909,45.98917]}},{"type":"Feature","properties":{"name":"Hohtälli","kind":"lift-station","elevationM":3280.0,"osmId":3412069661},"geometry":{"type":"Point","coordinates":[7.80247,45.98871]}},{"type":"Feature","properties":{"name":"Hohtälli","kind":"lift-station","elevationM":3283.0,"osmId":3412070913},"geometry":{"type":"Point","coordinates":[7.8021,45.98901]}},{"type":"Feature","properties":{"name":"Hohtälli","kind":"lift-station","elevationM":3286.0,"osmId":332912537},"geometry":{"type":"Point","coordinates":[7.80215,45.98899]}},{"type":"Feature","properties":{"name":"Hohtälli","kind":"lift-station","elevationM":3286.0,"osmId":332912538},"geometry":{"type":"Point","coordinates":[7.80247,45.98875]}},{"type":"Feature","properties":{"name":"Joscht","kind":"lift-station","elevationM":2070.0,"osmId":4017943134},"geometry":{"type":"Point","coordinates":[7.69745,46.00716]}},{"type":"Feature","properties":{"name":"Lago Goillet","kind":"lift-station","elevationM":null,"osmId":361167851},"geometry":{"type":"Point","coordinates":[7.67296,45.92277]}},{"type":"Feature","properties":{"name":"Leeboden","kind":"lift-station","elevationM":null,"osmId":288323006},"geometry":{"type":"Point","coordinates":[7.92304,46.10384]}},{"type":"Feature","properties":{"name":"Längfluh","kind":"lift-station","elevationM":2461.0,"osmId":288320080},"geometry":{"type":"Point","coordinates":[7.89936,46.09199]}},{"type":"Feature","properties":{"name":"Längfluh","kind":"lift-station","elevationM":2872.0,"osmId":288322499},"geometry":{"type":"Point","coordinates":[7.89579,46.08453]}},{"type":"Feature","properties":{"name":"Längfluh Sessel","kind":"lift-station","elevationM":null,"osmId":288322516},"geometry":{"type":"Point","coordinates":[7.89441,46.09061]}},{"type":"Feature","properties":{"name":"Längfluh Sessel","kind":"lift-station","elevationM":null,"osmId":288322518},"geometry":{"type":"Point","coordinates":[7.89468,46.08044]}},{"type":"Feature","properties":{"name":"Macugnaga","kind":"lift-station","elevationM":null,"osmId":845006561},"geometry":{"type":"Point","coordinates":[7.965,45.9699]}},{"type":"Feature","properties":{"name":"Matterhorn Glacier Paradise","kind":"lift-station","elevationM":3820.0,"osmId":240324415},"geometry":{"type":"Point","coordinates":[7.7295,45.93927]}},{"type":"Feature","properties":{"name":"Matterhorn Glacier Paradise","kind":"lift-station","elevationM":null,"osmId":5069111999},"geometry":{"type":"Point","coordinates":[7.7292,45.93842]}},{"type":"Feature","properties":{"name":"Matterhorn Glacier Paradise","kind":"lift-station","elevationM":3883.0,"osmId":11017749649},"geometry":{"type":"Point","coordinates":[7.72914,45.93822]}},{"type":"Feature","properties":{"name":"Morenia","kind":"lift-station","elevationM":null,"osmId":288322520},"geometry":{"type":"Point","coordinates":[7.91345,46.0854]}},{"type":"Feature","properties":{"name":"Morenia","kind":"lift-station","elevationM":null,"osmId":288322521},"geometry":{"type":"Point","coordinates":[7.91191,46.07275]}},{"type":"Feature","properties":{"name":"Motta","kind":"lift-station","elevationM":2266.0,"osmId":342786434},"geometry":{"type":"Point","coordinates":[7.64639,45.89452]}},{"type":"Feature","properties":{"name":"Motta","kind":"lift-station","elevationM":2446.0,"osmId":342786439},"geometry":{"type":"Point","coordinates":[7.65365,45.90381]}},{"type":"Feature","properties":{"name":"Pancheron","kind":"lift-station","elevationM":null,"osmId":633780554},"geometry":{"type":"Point","coordinates":[7.64942,45.94783]}},{"type":"Feature","properties":{"name":"Pancheron","kind":"lift-station","elevationM":null,"osmId":661383650},"geometry":{"type":"Point","coordinates":[7.66891,45.95676]}},{"type":"Feature","properties":{"name":"Passo Moro","kind":"lift-station","elevationM":null,"osmId":454099701},"geometry":{"type":"Point","coordinates":[7.97719,45.99661]}},{"type":"Feature","properties":{"name":"Passo dei Salati","kind":"lift-station","elevationM":null,"osmId":372779270},"geometry":{"type":"Point","coordinates":[7.86769,45.87687]}},{"type":"Feature","properties":{"name":"Passo dei Salati","kind":"lift-station","elevationM":2980.0,"osmId":372783776},"geometry":{"type":"Point","coordinates":[7.86946,45.87797]}},{"type":"Feature","properties":{"name":"Patrullarve","kind":"lift-station","elevationM":1993.0,"osmId":240139863},"geometry":{"type":"Point","coordinates":[7.7681,46.02613]}},{"type":"Feature","properties":{"name":"Pecetto","kind":"lift-station","elevationM":null,"osmId":454099713},"geometry":{"type":"Point","coordinates":[7.9516,45.97076]}},{"type":"Feature","properties":{"name":"Pianalunga-Bocchetta","kind":"lift-station","elevationM":null,"osmId":736755509},"geometry":{"type":"Point","coordinates":[7.90554,45.86515]}},{"type":"Feature","properties":{"name":"Plan Maison","kind":"lift-station","elevationM":2050.0,"osmId":240324438},"geometry":{"type":"Point","coordinates":[7.63366,45.93428]}},{"type":"Feature","properties":{"name":"Plan Maison","kind":"lift-station","elevationM":2555.0,"osmId":240324453},"geometry":{"type":"Point","coordinates":[7.65645,45.94174]}},{"type":"Feature","properties":{"name":"Plan Maison","kind":"lift-station","elevationM":2050.0,"osmId":240324468},"geometry":{"type":"Point","coordinates":[7.63364,45.93413]}},{"type":"Feature","properties":{"name":"Plan Maison","kind":"lift-station","elevationM":null,"osmId":330249976},"geometry":{"type":"Point","coordinates":[7.65708,45.94143]}},{"type":"Feature","properties":{"name":"Plan Maison","kind":"lift-station","elevationM":2555.0,"osmId":166320768},"geometry":{"type":"Point","coordinates":[7.65432,45.94073]}},{"type":"Feature","properties":{"name":"Plan Maison","kind":"lift-station","elevationM":2555.0,"osmId":166320782},"geometry":{"type":"Point","coordinates":[7.65396,45.94052]}},{"type":"Feature","properties":{"name":"Plan Maison","kind":"lift-station","elevationM":2876.0,"osmId":166368556},"geometry":{"type":"Point","coordinates":[7.68487,45.94523]}},{"type":"Feature","properties":{"name":"Plateau Rosa","kind":"lift-station","elevationM":3480.0,"osmId":60356687},"geometry":{"type":"Point","coordinates":[7.70757,45.93446]}},{"type":"Feature","properties":{"name":"Plattjen","kind":"lift-station","elevationM":null,"osmId":288339189},"geometry":{"type":"Point","coordinates":[7.94304,46.09062]}},{"type":"Feature","properties":{"name":"Plattjen","kind":"lift-station","elevationM":1806.0,"osmId":339812611},"geometry":{"type":"Point","coordinates":[7.92638,46.10253]}},{"type":"Feature","properties":{"name":"Riffelberg","kind":"lift-station","elevationM":2560.0,"osmId":240287137},"geometry":{"type":"Point","coordinates":[7.75484,45.99412]}},{"type":"Feature","properties":{"name":"Riffelberg","kind":"lift-station","elevationM":2582.0,"osmId":2996363814},"geometry":{"type":"Point","coordinates":[7.7543,45.99309]}},{"type":"Feature","properties":{"name":"Riffelberg","kind":"lift-station","elevationM":2582.0,"osmId":295875979},"geometry":{"type":"Point","coordinates":[7.75488,45.99411]}},{"type":"Feature","properties":{"name":"Riffelberg-Express","kind":"lift-station","elevationM":null,"osmId":964591256},"geometry":{"type":"Point","coordinates":[7.7544,45.99305]}},{"type":"Feature","properties":{"name":"Rote Nase","kind":"lift-station","elevationM":3269.0,"osmId":690806721},"geometry":{"type":"Point","coordinates":[7.81121,45.98684]}},{"type":"Feature","properties":{"name":"Rothorn","kind":"lift-station","elevationM":3100.0,"osmId":3400307817},"geometry":{"type":"Point","coordinates":[7.79735,46.02149]}},{"type":"Feature","properties":{"name":"Rothorn","kind":"lift-station","elevationM":null,"osmId":8404662658},"geometry":{"type":"Point","coordinates":[7.79828,46.02103]}},{"type":"Feature","properties":{"name":"Rothorn VS","kind":"lift-station","elevationM":3103.0,"osmId":217957562},"geometry":{"type":"Point","coordinates":[7.79729,46.02149]}},{"type":"Feature","properties":{"name":"Ruppenstein","kind":"lift-station","elevationM":null,"osmId":2659947760},"geometry":{"type":"Point","coordinates":[7.96992,45.98824]}},{"type":"Feature","properties":{"name":"Saas-Fee Bifig","kind":"lift-station","elevationM":1834.0,"osmId":4359216572},"geometry":{"type":"Point","coordinates":[7.92003,46.10009]}},{"type":"Feature","properties":{"name":"Salette","kind":"lift-station","elevationM":null,"osmId":342786424},"geometry":{"type":"Point","coordinates":[7.624,45.88823]}},{"type":"Feature","properties":{"name":"Salette","kind":"lift-station","elevationM":2245.0,"osmId":342786429},"geometry":{"type":"Point","coordinates":[7.64729,45.89315]}},{"type":"Feature","properties":{"name":"Sandiger Boden","kind":"lift-station","elevationM":null,"osmId":3404209877},"geometry":{"type":"Point","coordinates":[7.7199,45.9775]}},{"type":"Feature","properties":{"name":"Sandiger Boden","kind":"lift-station","elevationM":null,"osmId":296189774},"geometry":{"type":"Point","coordinates":[7.71986,45.9775]}},{"type":"Feature","properties":{"name":"Schwarzsee","kind":"lift-station","elevationM":2588.0,"osmId":3404216693},"geometry":{"type":"Point","coordinates":[7.70907,45.9922]}},{"type":"Feature","properties":{"name":"Schwarzsee","kind":"lift-station","elevationM":2588.0,"osmId":13929162486},"geometry":{"type":"Point","coordinates":[7.70898,45.99191]}},{"type":"Feature","properties":{"name":"Schwarzsee paradise","kind":"lift-station","elevationM":2583.0,"osmId":296185310},"geometry":{"type":"Point","coordinates":[7.70901,45.99213]}},{"type":"Feature","properties":{"name":"Schweigmatten","kind":"lift-station","elevationM":null,"osmId":240240214},"geometry":{"type":"Point","coordinates":[7.73522,46.00027]}},{"type":"Feature","properties":{"name":"Spielboden","kind":"lift-station","elevationM":1806.0,"osmId":288320079},"geometry":{"type":"Point","coordinates":[7.92602,46.10236]}},{"type":"Feature","properties":{"name":"Spielboden","kind":"lift-station","elevationM":null,"osmId":3041898208},"geometry":{"type":"Point","coordinates":[7.89967,46.09197]}},{"type":"Feature","properties":{"name":"Stafal","kind":"lift-station","elevationM":null,"osmId":12168918050},"geometry":{"type":"Point","coordinates":[7.8128,45.86093]}},{"type":"Feature","properties":{"name":"Stazione Inermedia Funifor","kind":"lift-station","elevationM":2650.0,"osmId":549919522},"geometry":{"type":"Point","coordinates":[7.8875,45.87157]}},{"type":"Feature","properties":{"name":"Stazione Passo dei Salati","kind":"lift-station","elevationM":2970.0,"osmId":825310936},"geometry":{"type":"Point","coordinates":[7.86411,45.87746]}},{"type":"Feature","properties":{"name":"Stazione Punta Indren","kind":"lift-station","elevationM":3275.0,"osmId":825310928},"geometry":{"type":"Point","coordinates":[7.85717,45.89051]}},{"type":"Feature","properties":{"name":"Stockhorn","kind":"lift-station","elevationM":null,"osmId":332912540},"geometry":{"type":"Point","coordinates":[7.82297,45.98669]}},{"type":"Feature","properties":{"name":"Sunegga","kind":"lift-station","elevationM":2277.0,"osmId":313520440},"geometry":{"type":"Point","coordinates":[7.76829,46.01641]}},{"type":"Feature","properties":{"name":"Sunnegga","kind":"lift-station","elevationM":null,"osmId":632377709},"geometry":{"type":"Point","coordinates":[7.76991,46.01738]}},{"type":"Feature","properties":{"name":"Sunnegga","kind":"lift-station","elevationM":2290.0,"osmId":8404986452},"geometry":{"type":"Point","coordinates":[7.77092,46.01688]}},{"type":"Feature","properties":{"name":"Talstation Längfluh","kind":"lift-station","elevationM":null,"osmId":438186996},"geometry":{"type":"Point","coordinates":[7.89935,46.09197]}},{"type":"Feature","properties":{"name":"Trockener Steg","kind":"lift-station","elevationM":2929.0,"osmId":240240219},"geometry":{"type":"Point","coordinates":[7.72224,45.97181]}},{"type":"Feature","properties":{"name":"Trockener Steg","kind":"lift-station","elevationM":2932.0,"osmId":597252977},"geometry":{"type":"Point","coordinates":[7.72163,45.97161]}},{"type":"Feature","properties":{"name":"Trockener Steg","kind":"lift-station","elevationM":2913.0,"osmId":3400287969},"geometry":{"type":"Point","coordinates":[7.72156,45.97016]}},{"type":"Feature","properties":{"name":"Trockener Steg","kind":"lift-station","elevationM":2929.0,"osmId":3412059221},"geometry":{"type":"Point","coordinates":[7.72235,45.97093]}},{"type":"Feature","properties":{"name":"Trockener Steg","kind":"lift-station","elevationM":2923.0,"osmId":5069111993},"geometry":{"type":"Point","coordinates":[7.72137,45.97155]}},{"type":"Feature","properties":{"name":"Trockener Steg","kind":"lift-station","elevationM":2939.0,"osmId":295875963},"geometry":{"type":"Point","coordinates":[7.722,45.97138]}},{"type":"Feature","properties":{"name":"Trockener Steg","kind":"lift-station","elevationM":2939.0,"osmId":295875964},"geometry":{"type":"Point","coordinates":[7.72162,45.97018]}},{"type":"Feature","properties":{"name":"Tuftern","kind":"lift-station","elevationM":2135.0,"osmId":6180872899},"geometry":{"type":"Point","coordinates":[7.77308,46.03561]}},{"type":"Feature","properties":{"name":"Tufternkumme","kind":"lift-station","elevationM":2660.0,"osmId":6180872900},"geometry":{"type":"Point","coordinates":[7.78937,46.03627]}},{"type":"Feature","properties":{"name":"Zermatt","kind":"lift-station","elevationM":1620.0,"osmId":240240207},"geometry":{"type":"Point","coordinates":[7.74266,46.01464]}},{"type":"Feature","properties":{"name":"Zermatt","kind":"lift-station","elevationM":1620.0,"osmId":240287130},"geometry":{"type":"Point","coordinates":[7.74299,46.01474]}},{"type":"Feature","properties":{"name":"Felskinn","kind":"rail-station","elevationM":2989.0,"osmId":354498113},"geometry":{"type":"Point","coordinates":[7.9157,46.06881]}},{"type":"Feature","properties":{"name":"Findelbach","kind":"rail-station","elevationM":1770.0,"osmId":3110648194},"geometry":{"type":"Point","coordinates":[7.74885,46.00962]}},{"type":"Feature","properties":{"name":"Gornergrat","kind":"rail-station","elevationM":3089.0,"osmId":296195270},"geometry":{"type":"Point","coordinates":[7.78219,45.98326]}},{"type":"Feature","properties":{"name":"Hohlaub","kind":"rail-station","elevationM":null,"osmId":10760595126},"geometry":{"type":"Point","coordinates":[7.911,46.06242]}},{"type":"Feature","properties":{"name":"Landtunnel","kind":"rail-station","elevationM":null,"osmId":3110648196},"geometry":{"type":"Point","coordinates":[7.74472,46.00241]}},{"type":"Feature","properties":{"name":"Legendär","kind":"rail-station","elevationM":null,"osmId":6636864655},"geometry":{"type":"Point","coordinates":[7.75011,46.01643]}},{"type":"Feature","properties":{"name":"Mittelallalin","kind":"rail-station","elevationM":3462.0,"osmId":354498114},"geometry":{"type":"Point","coordinates":[7.90511,46.0576]}},{"type":"Feature","properties":{"name":"Randa","kind":"rail-station","elevationM":1406.0,"osmId":240052658},"geometry":{"type":"Point","coordinates":[7.78153,46.0999]}},{"type":"Feature","properties":{"name":"Riffelalp","kind":"rail-station","elevationM":2210.0,"osmId":964538475},"geometry":{"type":"Point","coordinates":[7.75392,46.00482]}},{"type":"Feature","properties":{"name":"Riffelberg","kind":"rail-station","elevationM":2582.0,"osmId":3110648198},"geometry":{"type":"Point","coordinates":[7.75508,45.99294]}},{"type":"Feature","properties":{"name":"Rotenboden","kind":"rail-station","elevationM":2819.0,"osmId":3110648199},"geometry":{"type":"Point","coordinates":[7.76524,45.98451]}},{"type":"Feature","properties":{"name":"Sunnegga Paradise","kind":"rail-station","elevationM":1604.0,"osmId":240135050},"geometry":{"type":"Point","coordinates":[7.77006,46.01729]}},{"type":"Feature","properties":{"name":"Sunneggabahn Talstation","kind":"rail-station","elevationM":1604.0,"osmId":247119169},"geometry":{"type":"Point","coordinates":[7.75173,46.02251]}},{"type":"Feature","properties":{"name":"Täsch","kind":"rail-station","elevationM":1438.0,"osmId":240052843},"geometry":{"type":"Point","coordinates":[7.77454,46.06718]}},{"type":"Feature","properties":{"name":"Täsch Monte Rosa","kind":"rail-station","elevationM":1431.0,"osmId":10760597933},"geometry":{"type":"Point","coordinates":[7.77482,46.07456]}},{"type":"Feature","properties":{"name":"Zermatt","kind":"rail-station","elevationM":1605.0,"osmId":240052938},"geometry":{"type":"Point","coordinates":[7.74813,46.02457]}},{"type":"Feature","properties":{"name":"Zermatt GGB","kind":"rail-station","elevationM":null,"osmId":13306669016},"geometry":{"type":"Point","coordinates":[7.74862,46.02394]}},{"type":"Feature","properties":{"name":"Alpe Brunne","kind":"settlement","elevationM":2151.0,"osmId":5239988316,"place":"hamlet"},"geometry":{"type":"Point","coordinates":[7.92973,45.89476]}},{"type":"Feature","properties":{"name":"Alpe Burki","kind":"settlement","elevationM":1581.0,"osmId":2444540294,"place":"isolated_dwelling"},"geometry":{"type":"Point","coordinates":[7.93326,45.96854]}},{"type":"Feature","properties":{"name":"Alpe Champlong","kind":"settlement","elevationM":null,"osmId":1264721392,"place":"isolated_dwelling"},"geometry":{"type":"Point","coordinates":[7.62793,45.91103]}},{"type":"Feature","properties":{"name":"Alpe Jazza Superiore","kind":"settlement","elevationM":2081.0,"osmId":2187377830,"place":"hamlet"},"geometry":{"type":"Point","coordinates":[7.94406,45.88625]}},{"type":"Feature","properties":{"name":"Alpe Layet","kind":"settlement","elevationM":null,"osmId":1264734699,"place":"isolated_dwelling"},"geometry":{"type":"Point","coordinates":[7.62204,45.92181]}},{"type":"Feature","properties":{"name":"Alpe Molar","kind":"settlement","elevationM":null,"osmId":1264721314,"place":"hamlet"},"geometry":{"type":"Point","coordinates":[7.6387,45.89834]}},{"type":"Feature","properties":{"name":"Alpe Pedriola","kind":"settlement","elevationM":2045.0,"osmId":2445421372,"place":"isolated_dwelling"},"geometry":{"type":"Point","coordinates":[7.91788,45.95371]}},{"type":"Feature","properties":{"name":"Alpe Perreres","kind":"settlement","elevationM":null,"osmId":1264721356,"place":"hamlet"},"geometry":{"type":"Point","coordinates":[7.61776,45.90901]}},{"type":"Feature","properties":{"name":"Alpe Priero","kind":"settlement","elevationM":null,"osmId":2185682204,"place":"hamlet"},"geometry":{"type":"Point","coordinates":[7.91036,45.86158]}},{"type":"Feature","properties":{"name":"Alpe Promindoz-Damon","kind":"settlement","elevationM":null,"osmId":1264721284,"place":"hamlet"},"geometry":{"type":"Point","coordinates":[7.62264,45.91003]}},{"type":"Feature","properties":{"name":"Alpe Promindoz-Desot","kind":"settlement","elevationM":null,"osmId":1264721133,"place":"hamlet"},"geometry":{"type":"Point","coordinates":[7.61975,45.91376]}},{"type":"Feature","properties":{"name":"Alpe Promindoz-Di-Meiten","kind":"settlement","elevationM":null,"osmId":1264721330,"place":"hamlet"},"geometry":{"type":"Point","coordinates":[7.62092,45.9119]}},{"type":"Feature","properties":{"name":"Alpe Sapien","kind":"settlement","elevationM":1972.0,"osmId":9579656182,"place":"isolated_dwelling"},"geometry":{"type":"Point","coordinates":[7.71971,45.86118]}},{"type":"Feature","properties":{"name":"Alpe Tzere","kind":"settlement","elevationM":2533.0,"osmId":4513390005,"place":"hamlet"},"geometry":{"type":"Point","coordinates":[7.71451,45.89041]}},{"type":"Feature","properties":{"name":"Alpe Ventina","kind":"settlement","elevationM":null,"osmId":1283015789,"place":"hamlet"},"geometry":{"type":"Point","coordinates":[7.71883,45.87654]}},{"type":"Feature","properties":{"name":"Alpe Verser","kind":"settlement","elevationM":null,"osmId":1264721213,"place":"isolated_dwelling"},"geometry":{"type":"Point","coordinates":[7.63077,45.90721]}},{"type":"Feature","properties":{"name":"Alpe Vigne Inferiore","kind":"settlement","elevationM":null,"osmId":3040199921,"place":"isolated_dwelling"},"geometry":{"type":"Point","coordinates":[7.91071,45.8997]}},{"type":"Feature","properties":{"name":"Alpe Vittine","kind":"settlement","elevationM":null,"osmId":2185682205,"place":"hamlet"},"geometry":{"type":"Point","coordinates":[7.92321,45.86131]}},{"type":"Feature","properties":{"name":"Alpe Zaroltu","kind":"settlement","elevationM":null,"osmId":2185682203,"place":"hamlet"},"geometry":{"type":"Point","coordinates":[7.9134,45.86125]}},{"type":"Feature","properties":{"name":"Alpe della Forca Inferiore","kind":"settlement","elevationM":null,"osmId":1288184858,"place":"hamlet"},"geometry":{"type":"Point","coordinates":[7.74812,45.86636]}},{"type":"Feature","properties":{"name":"Alpe della Forca Superiore","kind":"settlement","elevationM":2333.0,"osmId":1288683689,"place":"hamlet"},"geometry":{"type":"Point","coordinates":[7.76392,45.86835]}},{"type":"Feature","properties":{"name":"Alpe di Tzere","kind":"settlement","elevationM":null,"osmId":3485828467,"place":"hamlet"},"geometry":{"type":"Point","coordinates":[7.72147,45.88139]}},{"type":"Feature","properties":{"name":"Arsines","kind":"settlement","elevationM":null,"osmId":1794202774,"place":"hamlet"},"geometry":{"type":"Point","coordinates":[7.62896,45.88279]}},{"type":"Feature","properties":{"name":"Avuil","kind":"settlement","elevationM":null,"osmId":1784739308,"place":"hamlet"},"geometry":{"type":"Point","coordinates":[7.61842,45.92717]}},{"type":"Feature","properties":{"name":"Barmaz","kind":"settlement","elevationM":null,"osmId":1300423257,"place":"isolated_dwelling"},"geometry":{"type":"Point","coordinates":[7.64931,45.93502]}},{"type":"Feature","properties":{"name":"Batse","kind":"settlement","elevationM":null,"osmId":1855394543,"place":"hamlet"},"geometry":{"type":"Point","coordinates":[7.63115,45.94536]}},{"type":"Feature","properties":{"name":"Beau Bois","kind":"settlement","elevationM":1918.0,"osmId":1282441243,"place":"hamlet"},"geometry":{"type":"Point","coordinates":[7.7304,45.87102]}},{"type":"Feature","properties":{"name":"Berggasthaus Trift","kind":"settlement","elevationM":2337.0,"osmId":294171060,"place":"isolated_dwelling"},"geometry":{"type":"Point","coordinates":[7.72107,46.03004]}},{"type":"Feature","properties":{"name":"Beriou","kind":"settlement","elevationM":null,"osmId":12178453439,"place":"isolated_dwelling"},"geometry":{"type":"Point","coordinates":[7.63624,45.87039]}},{"type":"Feature","properties":{"name":"Biel","kind":"settlement","elevationM":null,"osmId":459832275,"place":"hamlet"},"geometry":{"type":"Point","coordinates":[7.6946,46.00687]}},{"type":"Feature","properties":{"name":"Blanchard","kind":"settlement","elevationM":null,"osmId":1282625564,"place":"hamlet"},"geometry":{"type":"Point","coordinates":[7.72835,45.86591]}},{"type":"Feature","properties":{"name":"Blatten","kind":"settlement","elevationM":null,"osmId":4058038687,"place":"hamlet"},"geometry":{"type":"Point","coordinates":[7.73604,46.00762]}},{"type":"Feature","properties":{"name":"Bois Noir","kind":"settlement","elevationM":null,"osmId":1794202775,"place":"isolated_dwelling"},"geometry":{"type":"Point","coordinates":[7.64278,45.88645]}},{"type":"Feature","properties":{"name":"Bord","kind":"settlement","elevationM":2051.0,"osmId":13928691171,"place":"hamlet"},"geometry":{"type":"Point","coordinates":[7.76736,46.01158]}},{"type":"Feature","properties":{"name":"Breuil-Cervinia","kind":"settlement","elevationM":2050.0,"osmId":253338916,"place":"village"},"geometry":{"type":"Point","coordinates":[7.63044,45.9356]}},{"type":"Feature","properties":{"name":"Bärgji","kind":"settlement","elevationM":null,"osmId":6653844271,"place":"hamlet"},"geometry":{"type":"Point","coordinates":[7.79613,46.11859]}},{"type":"Feature","properties":{"name":"Chalbermatten","kind":"settlement","elevationM":null,"osmId":3444475335,"place":"isolated_dwelling"},"geometry":{"type":"Point","coordinates":[7.69108,46.00876]}},{"type":"Feature","properties":{"name":"Champlève","kind":"settlement","elevationM":null,"osmId":1794386333,"place":"hamlet"},"geometry":{"type":"Point","coordinates":[7.63798,45.87677]}},{"type":"Feature","properties":{"name":"Chapellette","kind":"settlement","elevationM":2377.0,"osmId":3444480469,"place":"isolated_dwelling"},"geometry":{"type":"Point","coordinates":[7.64008,45.92623]}},{"type":"Feature","properties":{"name":"Chavannon","kind":"settlement","elevationM":null,"osmId":1300422487,"place":"isolated_dwelling"},"geometry":{"type":"Point","coordinates":[7.64296,45.93233]}},{"type":"Feature","properties":{"name":"Cheneil","kind":"settlement","elevationM":2105.0,"osmId":1306437041,"place":"hamlet"},"geometry":{"type":"Point","coordinates":[7.64372,45.86426]}},{"type":"Feature","properties":{"name":"Cheperon","kind":"settlement","elevationM":null,"osmId":1795947947,"place":"hamlet"},"geometry":{"type":"Point","coordinates":[7.62898,45.87929]}},{"type":"Feature","properties":{"name":"Chucoz","kind":"settlement","elevationM":null,"osmId":1283015942,"place":"hamlet"},"geometry":{"type":"Point","coordinates":[7.72667,45.87336]}},{"type":"Feature","properties":{"name":"Chüebodmen","kind":"settlement","elevationM":null,"osmId":3075889256,"place":"hamlet"},"geometry":{"type":"Point","coordinates":[7.79437,46.11326]}},{"type":"Feature","properties":{"name":"Cielo Alto","kind":"settlement","elevationM":null,"osmId":1784397363,"place":"hamlet"},"geometry":{"type":"Point","coordinates":[7.63112,45.92957]}},{"type":"Feature","properties":{"name":"Cleva-Della-Seya","kind":"settlement","elevationM":null,"osmId":1264721332,"place":"isolated_dwelling"},"geometry":{"type":"Point","coordinates":[7.63862,45.90588]}},{"type":"Feature","properties":{"name":"Cleyva Grossa","kind":"settlement","elevationM":null,"osmId":1786975612,"place":"hamlet"},"geometry":{"type":"Point","coordinates":[7.64205,45.89517]}},{"type":"Feature","properties":{"name":"Closaz","kind":"settlement","elevationM":null,"osmId":13345281074,"place":"isolated_dwelling"},"geometry":{"type":"Point","coordinates":[7.62036,45.86655]}},{"type":"Feature","properties":{"name":"Colombé","kind":"settlement","elevationM":null,"osmId":1794386334,"place":"hamlet"},"geometry":{"type":"Point","coordinates":[7.64186,45.87587]}},{"type":"Feature","properties":{"name":"Cortinaz Inferiore","kind":"settlement","elevationM":1971.0,"osmId":1288044693,"place":"hamlet"},"geometry":{"type":"Point","coordinates":[7.594,45.86314]}},{"type":"Feature","properties":{"name":"Cortinaz Superiore","kind":"settlement","elevationM":2097.0,"osmId":1264846191,"place":"hamlet"},"geometry":{"type":"Point","coordinates":[7.59337,45.86731]}},{"type":"Feature","properties":{"name":"Courtlys","kind":"settlement","elevationM":null,"osmId":1351061388,"place":"hamlet"},"geometry":{"type":"Point","coordinates":[7.80929,45.86769]}},{"type":"Feature","properties":{"name":"Crebuchette","kind":"settlement","elevationM":null,"osmId":1794386335,"place":"hamlet"},"geometry":{"type":"Point","coordinates":[7.64876,45.88114]}},{"type":"Feature","properties":{"name":"Creton","kind":"settlement","elevationM":null,"osmId":1787876230,"place":"hamlet"},"geometry":{"type":"Point","coordinates":[7.60953,45.91238]}},{"type":"Feature","properties":{"name":"Crot de Labies","kind":"settlement","elevationM":2487.0,"osmId":9909273762,"place":"hamlet"},"geometry":{"type":"Point","coordinates":[7.63152,45.95158]}},{"type":"Feature","properties":{"name":"Croux","kind":"settlement","elevationM":null,"osmId":1803222898,"place":"hamlet"},"geometry":{"type":"Point","coordinates":[7.62873,45.86999]}},{"type":"Feature","properties":{"name":"Cré-du-Pont","kind":"settlement","elevationM":null,"osmId":1795711038,"place":"hamlet"},"geometry":{"type":"Point","coordinates":[7.62199,45.88302]}},{"type":"Feature","properties":{"name":"Crépin","kind":"settlement","elevationM":null,"osmId":1794606488,"place":"hamlet"},"geometry":{"type":"Point","coordinates":[7.62215,45.88654]}},{"type":"Feature","properties":{"name":"Crétaz","kind":"settlement","elevationM":null,"osmId":1778184221,"place":"hamlet"},"geometry":{"type":"Point","coordinates":[7.63222,45.93943]}},{"type":"Feature","properties":{"name":"Djomein","kind":"settlement","elevationM":null,"osmId":1283016229,"place":"hamlet"},"geometry":{"type":"Point","coordinates":[7.71874,45.87295]}},{"type":"Feature","properties":{"name":"Dorf","kind":"settlement","elevationM":1327.0,"osmId":2445903473,"place":"hamlet"},"geometry":{"type":"Point","coordinates":[7.96403,45.97117]}},{"type":"Feature","properties":{"name":"Dzandzevé","kind":"settlement","elevationM":null,"osmId":1787006583,"place":"isolated_dwelling"},"geometry":{"type":"Point","coordinates":[7.65869,45.89179]}},{"type":"Feature","properties":{"name":"Eau Noire Inferiore","kind":"settlement","elevationM":null,"osmId":1787876233,"place":"isolated_dwelling"},"geometry":{"type":"Point","coordinates":[7.60847,45.906]}},{"type":"Feature","properties":{"name":"Eau Noire Superiore","kind":"settlement","elevationM":null,"osmId":1787876237,"place":"isolated_dwelling"},"geometry":{"type":"Point","coordinates":[7.60495,45.90633]}},{"type":"Feature","properties":{"name":"Eggen","kind":"settlement","elevationM":2177.0,"osmId":3444468891,"place":"hamlet"},"geometry":{"type":"Point","coordinates":[7.77134,46.01323]}},{"type":"Feature","properties":{"name":"Eggenstadel","kind":"settlement","elevationM":null,"osmId":6154131906,"place":"hamlet"},"geometry":{"type":"Point","coordinates":[7.79375,46.06561]}},{"type":"Feature","properties":{"name":"Euillaz Perron","kind":"settlement","elevationM":null,"osmId":1787006584,"place":"hamlet"},"geometry":{"type":"Point","coordinates":[7.65002,45.89233]}},{"type":"Feature","properties":{"name":"Falegnon","kind":"settlement","elevationM":1914.0,"osmId":1288044842,"place":"hamlet"},"geometry":{"type":"Point","coordinates":[7.60219,45.87136]}},{"type":"Feature","properties":{"name":"Falinière","kind":"settlement","elevationM":1790.0,"osmId":1803222900,"place":"hamlet"},"geometry":{"type":"Point","coordinates":[7.6248,45.86236]}},{"type":"Feature","properties":{"name":"Fontaney","kind":"settlement","elevationM":1723.0,"osmId":12297155735,"place":"isolated_dwelling"},"geometry":{"type":"Point","coordinates":[7.6254,45.86403]}},{"type":"Feature","properties":{"name":"Frachey","kind":"settlement","elevationM":null,"osmId":1794386336,"place":"hamlet"},"geometry":{"type":"Point","coordinates":[7.64337,45.88036]}},{"type":"Feature","properties":{"name":"Furi","kind":"settlement","elevationM":null,"osmId":459834520,"place":"hamlet"},"geometry":{"type":"Point","coordinates":[7.7302,46.00196]}},{"type":"Feature","properties":{"name":"Gere","kind":"settlement","elevationM":null,"osmId":9067865342,"place":"hamlet"},"geometry":{"type":"Point","coordinates":[7.7902,46.10728]}},{"type":"Feature","properties":{"name":"Goilette","kind":"settlement","elevationM":null,"osmId":1777747180,"place":"isolated_dwelling"},"geometry":{"type":"Point","coordinates":[7.65541,45.92926]}},{"type":"Feature","properties":{"name":"Goreto","kind":"settlement","elevationM":null,"osmId":2185792261,"place":"hamlet"},"geometry":{"type":"Point","coordinates":[7.93174,45.86096]}},{"type":"Feature","properties":{"name":"Grenne","kind":"settlement","elevationM":null,"osmId":1350384617,"place":"hamlet"},"geometry":{"type":"Point","coordinates":[7.81201,45.86155]}},{"type":"Feature","properties":{"name":"Grillon","kind":"settlement","elevationM":null,"osmId":1287766442,"place":"isolated_dwelling"},"geometry":{"type":"Point","coordinates":[7.61241,45.90277]}},{"type":"Feature","properties":{"name":"Ilierette","kind":"settlement","elevationM":null,"osmId":1794202777,"place":"isolated_dwelling"},"geometry":{"type":"Point","coordinates":[7.64044,45.88641]}},{"type":"Feature","properties":{"name":"Illiaz","kind":"settlement","elevationM":null,"osmId":1794202778,"place":"hamlet"},"geometry":{"type":"Point","coordinates":[7.64277,45.88889]}},{"type":"Feature","properties":{"name":"In d'Mèrlette / Merletti","kind":"settlement","elevationM":1271.0,"osmId":1731159839,"place":"isolated_dwelling"},"geometry":{"type":"Point","coordinates":[7.93726,45.86651]}},{"type":"Feature","properties":{"name":"La Barmasse","kind":"settlement","elevationM":null,"osmId":1263619301,"place":"hamlet"},"geometry":{"type":"Point","coordinates":[7.61825,45.87462]}},{"type":"Feature","properties":{"name":"La Brengaz","kind":"settlement","elevationM":null,"osmId":1795667807,"place":"hamlet"},"geometry":{"type":"Point","coordinates":[7.63065,45.87976]}},{"type":"Feature","properties":{"name":"La Fontanaz","kind":"settlement","elevationM":null,"osmId":1263619326,"place":"hamlet"},"geometry":{"type":"Point","coordinates":[7.61406,45.87197]}},{"type":"Feature","properties":{"name":"La Maisonnasse","kind":"settlement","elevationM":null,"osmId":1263619502,"place":"hamlet"},"geometry":{"type":"Point","coordinates":[7.61633,45.8661]}},{"type":"Feature","properties":{"name":"La Montat","kind":"settlement","elevationM":null,"osmId":1263619498,"place":"hamlet"},"geometry":{"type":"Point","coordinates":[7.62264,45.87253]}},{"type":"Feature","properties":{"name":"La Murenche","kind":"settlement","elevationM":null,"osmId":1796700779,"place":"hamlet"},"geometry":{"type":"Point","coordinates":[7.62955,45.87524]}},{"type":"Feature","properties":{"name":"La Servaz","kind":"settlement","elevationM":null,"osmId":1263619343,"place":"hamlet"},"geometry":{"type":"Point","coordinates":[7.62281,45.8682]}},{"type":"Feature","properties":{"name":"La Venal","kind":"settlement","elevationM":null,"osmId":1263619496,"place":"hamlet"},"geometry":{"type":"Point","coordinates":[7.61505,45.87057]}},{"type":"Feature","properties":{"name":"Lago Bleu","kind":"settlement","elevationM":null,"osmId":13478057107,"place":"isolated_dwelling"},"geometry":{"type":"Point","coordinates":[7.61734,45.92295]}},{"type":"Feature","properties":{"name":"Lavussè","kind":"settlement","elevationM":null,"osmId":1794386337,"place":"hamlet"},"geometry":{"type":"Point","coordinates":[7.63943,45.87949]}},{"type":"Feature","properties":{"name":"Le Cortot","kind":"settlement","elevationM":2019.0,"osmId":1283015694,"place":"hamlet"},"geometry":{"type":"Point","coordinates":[7.71456,45.87387]}},{"type":"Feature","properties":{"name":"Le Crest","kind":"settlement","elevationM":null,"osmId":1283628683,"place":"hamlet"},"geometry":{"type":"Point","coordinates":[7.71968,45.86847]}},{"type":"Feature","properties":{"name":"Le Crêt","kind":"settlement","elevationM":null,"osmId":1785651278,"place":"hamlet"},"geometry":{"type":"Point","coordinates":[7.61821,45.90618]}},{"type":"Feature","properties":{"name":"Le Loz","kind":"settlement","elevationM":null,"osmId":1787574473,"place":"hamlet"},"geometry":{"type":"Point","coordinates":[7.62899,45.88833]}},{"type":"Feature","properties":{"name":"Le Mase","kind":"settlement","elevationM":null,"osmId":1283628834,"place":"hamlet"},"geometry":{"type":"Point","coordinates":[7.70319,45.89303]}},{"type":"Feature","properties":{"name":"Le Mont-Mené","kind":"settlement","elevationM":null,"osmId":1668339968,"place":"hamlet"},"geometry":{"type":"Point","coordinates":[7.60245,45.86079]}},{"type":"Feature","properties":{"name":"Le Mont-Perron","kind":"settlement","elevationM":null,"osmId":1259822211,"place":"hamlet"},"geometry":{"type":"Point","coordinates":[7.60774,45.86327]}},{"type":"Feature","properties":{"name":"Le Moulin","kind":"settlement","elevationM":null,"osmId":1263619395,"place":"hamlet"},"geometry":{"type":"Point","coordinates":[7.61138,45.86525]}},{"type":"Feature","properties":{"name":"Le Vasé","kind":"settlement","elevationM":null,"osmId":1283016003,"place":"hamlet"},"geometry":{"type":"Point","coordinates":[7.72601,45.87165]}},{"type":"Feature","properties":{"name":"Les Battendières","kind":"settlement","elevationM":null,"osmId":1796700778,"place":"hamlet"},"geometry":{"type":"Point","coordinates":[7.63126,45.8752]}},{"type":"Feature","properties":{"name":"Les Clous","kind":"settlement","elevationM":null,"osmId":1261246433,"place":"hamlet"},"geometry":{"type":"Point","coordinates":[7.60999,45.86372]}},{"type":"Feature","properties":{"name":"Les Droles","kind":"settlement","elevationM":1760.0,"osmId":1289866396,"place":"isolated_dwelling"},"geometry":{"type":"Point","coordinates":[7.72793,45.86176]}},{"type":"Feature","properties":{"name":"Les Fiéry","kind":"settlement","elevationM":1878.0,"osmId":1282441448,"place":"hamlet"},"geometry":{"type":"Point","coordinates":[7.72796,45.86955]}},{"type":"Feature","properties":{"name":"Les Perrères","kind":"settlement","elevationM":null,"osmId":1287766585,"place":"hamlet"},"geometry":{"type":"Point","coordinates":[7.61597,45.90833]}},{"type":"Feature","properties":{"name":"Les Péyoz","kind":"settlement","elevationM":1722.0,"osmId":1325111094,"place":"isolated_dwelling"},"geometry":{"type":"Point","coordinates":[7.72903,45.86343]}},{"type":"Feature","properties":{"name":"Liortere","kind":"settlement","elevationM":null,"osmId":1788250384,"place":"hamlet"},"geometry":{"type":"Point","coordinates":[7.6152,45.88869]}},{"type":"Feature","properties":{"name":"Losanche","kind":"settlement","elevationM":null,"osmId":1794202779,"place":"hamlet"},"geometry":{"type":"Point","coordinates":[7.6272,45.88537]}},{"type":"Feature","properties":{"name":"Macugnaga","kind":"settlement","elevationM":null,"osmId":10965553307,"place":"village"},"geometry":{"type":"Point","coordinates":[7.96727,45.96838]}},{"type":"Feature","properties":{"name":"Maen","kind":"settlement","elevationM":null,"osmId":1261246438,"place":"hamlet"},"geometry":{"type":"Point","coordinates":[7.61615,45.86891]}},{"type":"Feature","properties":{"name":"Manda","kind":"settlement","elevationM":null,"osmId":1785651281,"place":"isolated_dwelling"},"geometry":{"type":"Point","coordinates":[7.62711,45.90513]}},{"type":"Feature","properties":{"name":"Manda Damon","kind":"settlement","elevationM":null,"osmId":1785651279,"place":"isolated_dwelling"},"geometry":{"type":"Point","coordinates":[7.6361,45.9009]}},{"type":"Feature","properties":{"name":"Manda Desot","kind":"settlement","elevationM":null,"osmId":1785651280,"place":"hamlet"},"geometry":{"type":"Point","coordinates":[7.62751,45.90136]}},{"type":"Feature","properties":{"name":"Mont de l'Eura","kind":"settlement","elevationM":null,"osmId":1777747184,"place":"hamlet"},"geometry":{"type":"Point","coordinates":[7.63964,45.95429]}},{"type":"Feature","properties":{"name":"Oluc","kind":"settlement","elevationM":null,"osmId":3876653345,"place":"isolated_dwelling"},"geometry":{"type":"Point","coordinates":[7.61348,45.90275]}},{"type":"Feature","properties":{"name":"Opaco","kind":"settlement","elevationM":1330.0,"osmId":2445421376,"place":"hamlet"},"geometry":{"type":"Point","coordinates":[7.96012,45.96789]}},{"type":"Feature","properties":{"name":"Ottafe","kind":"settlement","elevationM":2205.0,"osmId":804764993,"place":"hamlet"},"geometry":{"type":"Point","coordinates":[7.81097,46.05927]}},{"type":"Feature","properties":{"name":"Palud","kind":"settlement","elevationM":2108.0,"osmId":1288044771,"place":"hamlet"},"geometry":{"type":"Point","coordinates":[7.6011,45.87702]}},{"type":"Feature","properties":{"name":"Pecou","kind":"settlement","elevationM":null,"osmId":1263619424,"place":"hamlet"},"geometry":{"type":"Point","coordinates":[7.61705,45.86664]}},{"type":"Feature","properties":{"name":"Pesontse","kind":"settlement","elevationM":null,"osmId":1785651282,"place":"isolated_dwelling"},"geometry":{"type":"Point","coordinates":[7.61692,45.90278]}},{"type":"Feature","properties":{"name":"Pessey","kind":"settlement","elevationM":null,"osmId":13289434359,"place":"hamlet"},"geometry":{"type":"Point","coordinates":[7.6339,45.88812]}},{"type":"Feature","properties":{"name":"Pessey-Damon","kind":"settlement","elevationM":1508.0,"osmId":12297155734,"place":"isolated_dwelling"},"geometry":{"type":"Point","coordinates":[7.61763,45.86021]}},{"type":"Feature","properties":{"name":"Plan Bois Inferiore","kind":"settlement","elevationM":null,"osmId":1794202783,"place":"isolated_dwelling"},"geometry":{"type":"Point","coordinates":[7.63908,45.88555]}},{"type":"Feature","properties":{"name":"Plan Bois Superiore","kind":"settlement","elevationM":null,"osmId":1794202784,"place":"isolated_dwelling"},"geometry":{"type":"Point","coordinates":[7.6442,45.8901]}},{"type":"Feature","properties":{"name":"Promindoz","kind":"settlement","elevationM":null,"osmId":1803222901,"place":"isolated_dwelling"},"geometry":{"type":"Point","coordinates":[7.63276,45.87015]}},{"type":"Feature","properties":{"name":"Promoron","kind":"settlement","elevationM":1812.0,"osmId":1288044164,"place":"hamlet"},"geometry":{"type":"Point","coordinates":[7.60668,45.8724]}},{"type":"Feature","properties":{"name":"Proz","kind":"settlement","elevationM":null,"osmId":1788250388,"place":"hamlet"},"geometry":{"type":"Point","coordinates":[7.61918,45.892]}},{"type":"Feature","properties":{"name":"Raccard","kind":"settlement","elevationM":1911.0,"osmId":1288683573,"place":"isolated_dwelling"},"geometry":{"type":"Point","coordinates":[7.73667,45.86416]}},{"type":"Feature","properties":{"name":"Raccard","kind":"settlement","elevationM":null,"osmId":1794202785,"place":"isolated_dwelling"},"geometry":{"type":"Point","coordinates":[7.63826,45.88615]}},{"type":"Feature","properties":{"name":"Randa","kind":"settlement","elevationM":null,"osmId":240125755,"place":"village"},"geometry":{"type":"Point","coordinates":[7.78241,46.10028]}},{"type":"Feature","properties":{"name":"Ras Gaveno","kind":"settlement","elevationM":null,"osmId":1958925791,"place":"hamlet"},"geometry":{"type":"Point","coordinates":[7.80502,45.87187]}},{"type":"Feature","properties":{"name":"Rejache","kind":"settlement","elevationM":1800.0,"osmId":1288684137,"place":"isolated_dwelling"},"geometry":{"type":"Point","coordinates":[7.73653,45.86337]}},{"type":"Feature","properties":{"name":"Riffelalp","kind":"settlement","elevationM":2222.0,"osmId":3444469294,"place":"hamlet"},"geometry":{"type":"Point","coordinates":[7.75053,46.00167]}},{"type":"Feature","properties":{"name":"Robe","kind":"settlement","elevationM":null,"osmId":12518531273,"place":"isolated_dwelling"},"geometry":{"type":"Point","coordinates":[7.63364,45.87322]}},{"type":"Feature","properties":{"name":"Ronco","kind":"settlement","elevationM":1273.0,"osmId":9425832043,"place":"hamlet"},"geometry":{"type":"Point","coordinates":[7.97007,45.96527]}},{"type":"Feature","properties":{"name":"Ronco","kind":"settlement","elevationM":null,"osmId":9879005178,"place":"hamlet"},"geometry":{"type":"Point","coordinates":[7.93975,45.86147]}},{"type":"Feature","properties":{"name":"Ronco Superiore","kind":"settlement","elevationM":null,"osmId":2187302063,"place":"hamlet"},"geometry":{"type":"Point","coordinates":[7.94061,45.86225]}},{"type":"Feature","properties":{"name":"Résy","kind":"settlement","elevationM":null,"osmId":1327117943,"place":"hamlet"},"geometry":{"type":"Point","coordinates":[7.73964,45.86595]}},{"type":"Feature","properties":{"name":"Saas-Almagell","kind":"settlement","elevationM":null,"osmId":240087357,"place":"village"},"geometry":{"type":"Point","coordinates":[7.95823,46.09389]}},{"type":"Feature","properties":{"name":"Saas-Fee","kind":"settlement","elevationM":1798.0,"osmId":240116105,"place":"village"},"geometry":{"type":"Point","coordinates":[7.92471,46.10734]}},{"type":"Feature","properties":{"name":"Saint-Jacques-des-Allemands","kind":"settlement","elevationM":1697.0,"osmId":376452015,"place":"hamlet"},"geometry":{"type":"Point","coordinates":[7.73089,45.86276]}},{"type":"Feature","properties":{"name":"Salza Inferiore","kind":"settlement","elevationM":null,"osmId":1351061391,"place":"hamlet"},"geometry":{"type":"Point","coordinates":[7.81813,45.87547]}},{"type":"Feature","properties":{"name":"Salza Superiore","kind":"settlement","elevationM":null,"osmId":1351061394,"place":"hamlet"},"geometry":{"type":"Point","coordinates":[7.81697,45.87881]}},{"type":"Feature","properties":{"name":"San Nicolao","kind":"settlement","elevationM":null,"osmId":11156542705,"place":"hamlet"},"geometry":{"type":"Point","coordinates":[7.93741,45.86184]}},{"type":"Feature","properties":{"name":"Schwarzsee","kind":"settlement","elevationM":2588.0,"osmId":9502362483,"place":"hamlet"},"geometry":{"type":"Point","coordinates":[7.71,45.99124]}},{"type":"Feature","properties":{"name":"Seewy","kind":"settlement","elevationM":null,"osmId":2196135326,"place":"isolated_dwelling"},"geometry":{"type":"Point","coordinates":[7.90881,45.86465]}},{"type":"Feature","properties":{"name":"Singlin Inferiore","kind":"settlement","elevationM":null,"osmId":1787516025,"place":"hamlet"},"geometry":{"type":"Point","coordinates":[7.62533,45.89056]}},{"type":"Feature","properties":{"name":"Singlin Superiore","kind":"settlement","elevationM":null,"osmId":1787516026,"place":"hamlet"},"geometry":{"type":"Point","coordinates":[7.62258,45.89452]}},{"type":"Feature","properties":{"name":"Singlin di mezzo","kind":"settlement","elevationM":null,"osmId":1787516027,"place":"hamlet"},"geometry":{"type":"Point","coordinates":[7.62456,45.89374]}},{"type":"Feature","properties":{"name":"Stafel","kind":"settlement","elevationM":2139.0,"osmId":3400248361,"place":"hamlet"},"geometry":{"type":"Point","coordinates":[7.68985,46.00577]}},{"type":"Feature","properties":{"name":"Staffa","kind":"settlement","elevationM":1307.0,"osmId":9427910483,"place":"village"},"geometry":{"type":"Point","coordinates":[7.96815,45.96789]}},{"type":"Feature","properties":{"name":"Sécke","kind":"settlement","elevationM":null,"osmId":1958925794,"place":"hamlet"},"geometry":{"type":"Point","coordinates":[7.80642,45.86681]}},{"type":"Feature","properties":{"name":"Testa","kind":"settlement","elevationM":1249.0,"osmId":2445927799,"place":"hamlet"},"geometry":{"type":"Point","coordinates":[7.9739,45.96546]}},{"type":"Feature","properties":{"name":"Tola","kind":"settlement","elevationM":1856.0,"osmId":1287766469,"place":"isolated_dwelling"},"geometry":{"type":"Point","coordinates":[7.61282,45.91173]}},{"type":"Feature","properties":{"name":"Tourtourouse","kind":"settlement","elevationM":null,"osmId":1263619497,"place":"hamlet"},"geometry":{"type":"Point","coordinates":[7.62329,45.88365]}},{"type":"Feature","properties":{"name":"Tufteren","kind":"settlement","elevationM":2215.0,"osmId":3444468890,"place":"hamlet"},"geometry":{"type":"Point","coordinates":[7.77395,46.02963]}},{"type":"Feature","properties":{"name":"Tza De Vieille","kind":"settlement","elevationM":2438.0,"osmId":5514874039,"place":"isolated_dwelling"},"geometry":{"type":"Point","coordinates":[7.65331,45.93874]}},{"type":"Feature","properties":{"name":"Tza Grillon","kind":"settlement","elevationM":null,"osmId":1287766705,"place":"hamlet"},"geometry":{"type":"Point","coordinates":[7.60836,45.89741]}},{"type":"Feature","properties":{"name":"Täsch","kind":"settlement","elevationM":1449.0,"osmId":240123898,"place":"village"},"geometry":{"type":"Point","coordinates":[7.77702,46.06768]}},{"type":"Feature","properties":{"name":"Undre Wittwosma","kind":"settlement","elevationM":null,"osmId":2187302064,"place":"hamlet"},"geometry":{"type":"Point","coordinates":[7.94251,45.86182]}},{"type":"Feature","properties":{"name":"Uterio","kind":"settlement","elevationM":null,"osmId":11156542706,"place":"hamlet"},"geometry":{"type":"Point","coordinates":[7.93633,45.86148]}},{"type":"Feature","properties":{"name":"Valmartin","kind":"settlement","elevationM":null,"osmId":1796677339,"place":"hamlet"},"geometry":{"type":"Point","coordinates":[7.61653,45.8724]}},{"type":"Feature","properties":{"name":"Valtournenche","kind":"settlement","elevationM":1528.0,"osmId":5523734363,"place":"village"},"geometry":{"type":"Point","coordinates":[7.62279,45.87698]}},{"type":"Feature","properties":{"name":"Varvoies","kind":"settlement","elevationM":null,"osmId":1287766352,"place":"hamlet"},"geometry":{"type":"Point","coordinates":[7.61395,45.90738]}},{"type":"Feature","properties":{"name":"Verraz-Dessous","kind":"settlement","elevationM":2050.0,"osmId":1282441436,"place":"hamlet"},"geometry":{"type":"Point","coordinates":[7.7389,45.88182]}},{"type":"Feature","properties":{"name":"Verraz-Dessus","kind":"settlement","elevationM":2382.0,"osmId":1282441692,"place":"isolated_dwelling"},"geometry":{"type":"Point","coordinates":[7.76033,45.8952]}},{"type":"Feature","properties":{"name":"Vieille","kind":"settlement","elevationM":null,"osmId":5779462319,"place":"hamlet"},"geometry":{"type":"Point","coordinates":[7.64119,45.93727]}},{"type":"Feature","properties":{"name":"Vofrède","kind":"settlement","elevationM":1980.0,"osmId":7551934036,"place":"isolated_dwelling"},"geometry":{"type":"Point","coordinates":[7.6101,45.91746]}},{"type":"Feature","properties":{"name":"Vorpilles","kind":"settlement","elevationM":null,"osmId":7551934035,"place":"isolated_dwelling"},"geometry":{"type":"Point","coordinates":[7.61317,45.9141]}},{"type":"Feature","properties":{"name":"Weilfsch Gaveno","kind":"settlement","elevationM":null,"osmId":1351061405,"place":"hamlet"},"geometry":{"type":"Point","coordinates":[7.84351,45.86484]}},{"type":"Feature","properties":{"name":"Wigguhüs","kind":"settlement","elevationM":null,"osmId":13947874704,"place":"hamlet"},"geometry":{"type":"Point","coordinates":[7.72355,46.0069]}},{"type":"Feature","properties":{"name":"Wold","kind":"settlement","elevationM":null,"osmId":2985799960,"place":"hamlet"},"geometry":{"type":"Point","coordinates":[7.93975,45.86516]}},{"type":"Feature","properties":{"name":"Z'Kantmud / Pedemonte","kind":"settlement","elevationM":1246.0,"osmId":1731155926,"place":"hamlet"},"geometry":{"type":"Point","coordinates":[7.93735,45.86049]}},{"type":"Feature","properties":{"name":"Ze Gassen","kind":"settlement","elevationM":2051.0,"osmId":3444468892,"place":"hamlet"},"geometry":{"type":"Point","coordinates":[7.76551,46.01107]}},{"type":"Feature","properties":{"name":"Zermatt","kind":"settlement","elevationM":1608.0,"osmId":80387968,"place":"town"},"geometry":{"type":"Point","coordinates":[7.74925,46.02121]}},{"type":"Feature","properties":{"name":"Zmutt","kind":"settlement","elevationM":null,"osmId":682201392,"place":"hamlet"},"geometry":{"type":"Point","coordinates":[7.71709,46.00648]}},{"type":"Feature","properties":{"name":"Zum See","kind":"settlement","elevationM":null,"osmId":2525093059,"place":"hamlet"},"geometry":{"type":"Point","coordinates":[7.73207,46.00649]}}]}