{"type":"FeatureCollection","features":[{"type":"Feature","properties":{"name":"Gornergratbahn","osmId":548320},"geometry":{"type":"LineString","coordinates":[[7.74934,46.01027],[7.74911,46.01],[7.7488,46.00969],[7.74863,46.0095],[7.74802,46.00871]]}},{"type":"Feature","properties":{"name":"Gornergratbahn","osmId":548320},"geometry":{"type":"LineString","coordinates":[[7.74934,46.01027],[7.74884,46.00981],[7.74856,46.00951],[7.74834,46.00922],[7.74802,46.00871]]}},{"type":"Feature","properties":{"name":"Gornergratbahn","osmId":548320},"geometry":{"type":"LineString","coordinates":[[7.74802,46.00871],[7.7476,46.00824],[7.74731,46.00785],[7.74713,46.00766],[7.74613,46.00684],[7.74586,46.00667],[7.7455,46.00646],[7.74537,46.00635],[7.74519,46.00615],[7.74497,46.00574],[7.74382,46.00467],[7.74356,46.00451],[7.74313,46.00434],[7.74286,46.00419],[7.74279,46.00413],[7.74222,46.00332],[7.74207,46.00314],[7.74187,46.00295],[7.74159,46.00274],[7.74148,46.00252],[7.74146,46.00237],[7.74158,46.00151],[7.74164,46.00132],[7.74171,46.00124],[7.74189,46.00109],[7.74199,46.00103],[7.74219,46.00095],[7.74234,46.00092],[7.74254,46.0009],[7.74273,46.00091],[7.74289,46.00094],[7.74318,46.00104],[7.74329,46.00111],[7.74343,46.00126],[7.74381,46.0019],[7.74398,46.00209],[7.74409,46.00216],[7.74598,46.00303],[7.74613,46.00309],[7.74647,46.00314],[7.74841,46.00321],[7.74873,46.00325],[7.74889,46.00331],[7.75015,46.00388],[7.75155,46.00478],[7.75182,46.0049],[7.75211,46.00496],[7.75229,46.00497],[7.75331,46.00491]]}},{"type":"Feature","properties":{"name":"Gornergratbahn","osmId":548320},"geometry":{"type":"LineString","coordinates":[[7.74883,46.02388],[7.74977,46.02358],[7.75021,46.02333],[7.75059,46.02314],[7.75071,46.02304],[7.75084,46.02288],[7.75091,46.02267],[7.75109,46.02089],[7.75104,46.02007],[7.75105,46.01995],[7.75136,46.01924],[7.75142,46.01903],[7.75137,46.01872],[7.75107,46.01738],[7.751,46.01717],[7.75089,46.01703],[7.75076,46.01692],[7.75006,46.01639],[7.7499,46.01625],[7.74981,46.01611],[7.74975,46.01596],[7.74969,46.01553],[7.7497,46.01538],[7.74976,46.01524],[7.75009,46.01474],[7.75013,46.01458],[7.75013,46.01439],[7.75004,46.01393],[7.74983,46.01349],[7.74979,46.01329],[7.74982,46.01314],[7.75003,46.01261],[7.75003,46.01245],[7.74947,46.01052],[7.74942,46.0104],[7.74934,46.01027]]}},{"type":"Feature","properties":{"name":"Gornergratbahn","osmId":548320},"geometry":{"type":"LineString","coordinates":[[7.75331,46.00491],[7.75432,46.00487],[7.75538,46.00501],[7.75589,46.00511],[7.75611,46.00512],[7.75659,46.0051],[7.75687,46.00506],[7.75709,46.00497],[7.75729,46.00482],[7.75743,46.00462],[7.75747,46.00444],[7.75744,46.00426],[7.75733,46.00408],[7.75714,46.00392],[7.75689,46.00379],[7.75656,46.00366],[7.7549,46.00301],[7.75466,46.00288],[7.75448,46.0027],[7.75437,46.00249],[7.75435,46.00233],[7.75445,46.00167],[7.75449,46.00154],[7.75457,46.00143],[7.75466,46.00133],[7.75482,46.00122],[7.75499,46.00114],[7.75519,46.00108],[7.75539,46.00105],[7.75565,46.00105],[7.75892,46.0014],[7.75947,46.0015]]}},{"type":"Feature","properties":{"name":"Gornergratbahn","osmId":548320},"geometry":{"type":"LineString","coordinates":[[7.75331,46.00491],[7.75388,46.00493],[7.75441,46.00492],[7.75545,46.00507],[7.75588,46.00515],[7.75615,46.00516],[7.75658,46.00514],[7.75692,46.00509],[7.75715,46.00499],[7.75736,46.00482],[7.75749,46.00461],[7.75752,46.00453],[7.75753,46.00439],[7.75749,46.00422],[7.75739,46.00407],[7.75719,46.0039],[7.75684,46.00372],[7.7549,46.00296],[7.75477,46.0029],[7.75463,46.00279],[7.75454,46.0027],[7.75446,46.00257],[7.75442,46.00239],[7.75442,46.00228],[7.7545,46.00169],[7.75454,46.00158],[7.75463,46.00144],[7.75469,46.00137],[7.75486,46.00125],[7.75506,46.00116],[7.75524,46.00111],[7.75542,46.00109],[7.7556,46.00109],[7.75947,46.0015]]}},{"type":"Feature","properties":{"name":"Gornergratbahn","osmId":548320},"geometry":{"type":"LineString","coordinates":[[7.75947,46.0015],[7.75966,46.00151],[7.75985,46.00151],[7.76,46.00149],[7.76019,46.00144],[7.76036,46.00136],[7.76051,46.00127],[7.76067,46.00112],[7.76072,46.00103],[7.7608,46.00081],[7.76078,46.00033],[7.76079,46.00019],[7.76082,46.00011],[7.76095,45.9999],[7.76132,45.99947],[7.76139,45.99937],[7.76144,45.99926],[7.76146,45.99914],[7.76145,45.999],[7.76137,45.99877],[7.76136,45.99867],[7.76141,45.99829],[7.76137,45.99813],[7.76129,45.99799],[7.76118,45.99787],[7.76104,45.99777],[7.7607,45.9976],[7.76055,45.99748],[7.76048,45.99741],[7.76036,45.9972],[7.76026,45.99687],[7.76012,45.99669],[7.75998,45.99658],[7.75956,45.99632],[7.75916,45.99593],[7.75898,45.99581],[7.75795,45.99533],[7.75706,45.99508],[7.75634,45.99497],[7.75622,45.99494],[7.75599,45.99485],[7.75582,45.99473],[7.7557,45.99461],[7.75562,45.99447],[7.75559,45.99436],[7.75559,45.99425],[7.75569,45.99381],[7.7557,45.9937],[7.75565,45.99354],[7.75555,45.99337]]}},{"type":"Feature","properties":{"name":"Gornergratbahn","osmId":548320},"geometry":{"type":"LineString","coordinates":[[7.75555,45.99337],[7.75482,45.99234],[7.75477,45.99214],[7.75477,45.992],[7.75482,45.99187],[7.7549,45.99172],[7.75629,45.98989],[7.75634,45.98976],[7.7569,45.98777],[7.75699,45.98757],[7.75713,45.98742],[7.7573,45.9873],[7.75844,45.98675],[7.75868,45.98669],[7.75901,45.98668],[7.76111,45.98688],[7.76138,45.98686],[7.76163,45.98679],[7.76178,45.98672],[7.76543,45.98447],[7.76571,45.98435],[7.76624,45.98424],[7.76645,45.98422],[7.76668,45.98424],[7.76857,45.98463],[7.76885,45.98472],[7.76939,45.98497],[7.76951,45.98501],[7.7697,45.98505],[7.76984,45.98506],[7.77001,45.98506],[7.77058,45.98496],[7.77079,45.98495],[7.77101,45.98498],[7.77213,45.98516],[7.77245,45.98517],[7.77559,45.98488],[7.77625,45.98476],[7.77639,45.98472],[7.7766,45.98462],[7.77674,45.98452],[7.77723,45.98398],[7.77735,45.98389],[7.77748,45.98381],[7.77823,45.98352],[7.77842,45.98342],[7.77878,45.98319],[7.77908,45.98307],[7.77927,45.98304],[7.77941,45.98303],[7.77963,45.98304],[7.7798,45.98307],[7.78002,45.98316],[7.78038,45.98339]]}},{"type":"Feature","properties":{"name":"Gornergratbahn","osmId":548320},"geometry":{"type":"LineString","coordinates":[[7.75555,45.99337],[7.75536,45.99297],[7.75517,45.99275],[7.75486,45.9923],[7.75481,45.9921],[7.75485,45.99191],[7.75495,45.99173],[7.75626,45.99002],[7.75636,45.98985],[7.75693,45.98782],[7.75698,45.98767],[7.75704,45.98758],[7.75719,45.98742],[7.75731,45.98734],[7.75841,45.9868],[7.75867,45.98673],[7.7589,45.98671],[7.76104,45.9869],[7.76135,45.9869],[7.76158,45.98684],[7.76185,45.98672],[7.76552,45.98446],[7.76575,45.98437],[7.76623,45.98427],[7.76647,45.98425],[7.76676,45.98429],[7.76854,45.98466],[7.76874,45.98471],[7.76938,45.985],[7.76964,45.98507],[7.76985,45.98509],[7.77005,45.98509],[7.77061,45.98499],[7.77084,45.98499],[7.77216,45.9852],[7.77246,45.9852],[7.77551,45.98492],[7.77619,45.98481],[7.77636,45.98477],[7.77659,45.98467],[7.77677,45.98455],[7.77727,45.984],[7.77742,45.98389],[7.77755,45.98382],[7.77824,45.98355],[7.77841,45.98347],[7.77884,45.9832],[7.77901,45.98313],[7.77915,45.98309],[7.77946,45.98306],[7.77977,45.9831],[7.77994,45.98316],[7.78038,45.98339]]}},{"type":"Feature","properties":{"name":"Gornergratbahn","osmId":548320},"geometry":{"type":"LineString","coordinates":[[7.78038,45.98339],[7.78042,45.98342]]}},{"type":"Feature","properties":{"name":"Gornergratbahn","osmId":548320},"geometry":{"type":"LineString","coordinates":[[7.78042,45.98342],[7.78062,45.98355],[7.78091,45.98366],[7.78116,45.9837],[7.78142,45.9837],[7.78159,45.98367],[7.78181,45.9836],[7.78271,45.98308]]}},{"type":"Feature","properties":{"name":"Gornergratbahn","osmId":548320},"geometry":{"type":"LineString","coordinates":[[7.78042,45.98342],[7.78061,45.98358],[7.78082,45.98368],[7.78114,45.98374],[7.78148,45.98372],[7.7817,45.98368],[7.78184,45.98362],[7.78251,45.98327],[7.78283,45.98313]]}}]}