{"type":"FeatureCollection","features":[{"type":"Feature","properties":{"name":null,"elevationM":4606.0,"osmId":13383075211},"geometry":{"type":"Point","coordinates":[7.8675,45.93694]}},{"type":"Feature","properties":{"name":null,"elevationM":4535.0,"osmId":3018568144},"geometry":{"type":"Point","coordinates":[7.86912,45.93948]}},{"type":"Feature","properties":{"name":"Silbersattel","elevationM":4516.0,"osmId":1243390242},"geometry":{"type":"Point","coordinates":[7.86859,45.93761]}},{"type":"Feature","properties":{"name":"Colle Gnifetti","elevationM":4452.0,"osmId":2428064301},"geometry":{"type":"Point","coordinates":[7.87504,45.9298]}},{"type":"Feature","properties":{"name":"Sella del Liskamm","elevationM":4417.0,"osmId":2304704036},"geometry":{"type":"Point","coordinates":[7.8306,45.9251]}},{"type":"Feature","properties":{"name":null,"elevationM":4320.0,"osmId":918917235},"geometry":{"type":"Point","coordinates":[7.86406,46.10897]}},{"type":"Feature","properties":{"name":"Seserjoch","elevationM":4300.0,"osmId":12040719456},"geometry":{"type":"Point","coordinates":[7.87511,45.92232]}},{"type":"Feature","properties":{"name":"Domjoch","elevationM":4281.0,"osmId":3075889257},"geometry":{"type":"Point","coordinates":[7.85953,46.08817]}},{"type":"Feature","properties":{"name":"Colle della Fronte","elevationM":4260.0,"osmId":2304704013},"geometry":{"type":"Point","coordinates":[7.83634,45.91833]}},{"type":"Feature","properties":{"name":"Colle Del Lys","elevationM":4255.0,"osmId":5379031155},"geometry":{"type":"Point","coordinates":[7.86056,45.91895]}},{"type":"Feature","properties":{"name":"Nadeljoch","elevationM":4208.0,"osmId":566652847},"geometry":{"type":"Point","coordinates":[7.86668,46.10644]}},{"type":"Feature","properties":{"name":null,"elevationM":4202.0,"osmId":1373111956},"geometry":{"type":"Point","coordinates":[7.79332,45.92167]}},{"type":"Feature","properties":{"name":null,"elevationM":4178.0,"osmId":1373121648},"geometry":{"type":"Point","coordinates":[7.86427,46.06616]}},{"type":"Feature","properties":{"name":"Lisjoch","elevationM":4152.0,"osmId":2304704016},"geometry":{"type":"Point","coordinates":[7.85328,45.92019]}},{"type":"Feature","properties":{"name":"Hohbärgjoch","elevationM":4144.0,"osmId":918917722},"geometry":{"type":"Point","coordinates":[7.85597,46.11216]}},{"type":"Feature","properties":{"name":"Stecknadeljoch","elevationM":4142.0,"osmId":566652850},"geometry":{"type":"Point","coordinates":[7.86119,46.11077]}},{"type":"Feature","properties":{"name":"Passo del Naso","elevationM":4130.0,"osmId":903282217},"geometry":{"type":"Point","coordinates":[7.83506,45.91466]}},{"type":"Feature","properties":{"name":"Lenzjoch","elevationM":4121.0,"osmId":3075889262},"geometry":{"type":"Point","coordinates":[7.86743,46.10106]}},{"type":"Feature","properties":{"name":"Colle Vincent","elevationM":4088.0,"osmId":7276560563},"geometry":{"type":"Point","coordinates":[7.86074,45.91089]}},{"type":"Feature","properties":{"name":null,"elevationM":4076.0,"osmId":1356298373},"geometry":{"type":"Point","coordinates":[7.75238,45.93977]}},{"type":"Feature","properties":{"name":null,"elevationM":4063.0,"osmId":1373111728},"geometry":{"type":"Point","coordinates":[7.80438,45.91866]}},{"type":"Feature","properties":{"name":"Colle del Felik","elevationM":4062.0,"osmId":903274341},"geometry":{"type":"Point","coordinates":[7.80179,45.91681]}},{"type":"Feature","properties":{"name":"Weisshornjoch","elevationM":4061.0,"osmId":12985331924},"geometry":{"type":"Point","coordinates":[7.71304,46.11528]}},{"type":"Feature","properties":{"name":"Selle","elevationM":4022.0,"osmId":2304704012},"geometry":{"type":"Point","coordinates":[7.76332,45.93801]}},{"type":"Feature","properties":{"name":"Rimpfischsattel","elevationM":3985.0,"osmId":3206071881},"geometry":{"type":"Point","coordinates":[7.88114,46.0217]}},{"type":"Feature","properties":{"name":"Jägerjoch","elevationM":3913.0,"osmId":1373113440},"geometry":{"type":"Point","coordinates":[7.8772,45.95039]}},{"type":"Feature","properties":{"name":"Dirrujoch","elevationM":3910.0,"osmId":918916382},"geometry":{"type":"Point","coordinates":[7.85029,46.11708]}},{"type":"Feature","properties":{"name":"Windjoch","elevationM":3850.0,"osmId":566652852},"geometry":{"type":"Point","coordinates":[7.87328,46.1163]}},{"type":"Feature","properties":{"name":"Mischabeljoch","elevationM":3847.0,"osmId":1373122437},"geometry":{"type":"Point","coordinates":[7.86578,46.07439]}},{"type":"Feature","properties":{"name":"Zwillingsjoch","elevationM":3845.0,"osmId":2304704037},"geometry":{"type":"Point","coordinates":[7.7889,45.92572]}},{"type":"Feature","properties":{"name":"Ober Rothornjoch","elevationM":3835.0,"osmId":12040719437},"geometry":{"type":"Point","coordinates":[7.6854,46.05994]}},{"type":"Feature","properties":{"name":"Col des Grandes Murailles","elevationM":3827.0,"osmId":1725081202},"geometry":{"type":"Point","coordinates":[7.60347,45.96379]}},{"type":"Feature","properties":{"name":"P3824","elevationM":3824.0,"osmId":2304704017},"geometry":{"type":"Point","coordinates":[7.74305,45.93188]}},{"type":"Feature","properties":{"name":null,"elevationM":3818.0,"osmId":1373119749},"geometry":{"type":"Point","coordinates":[7.87842,46.04959]}},{"type":"Feature","properties":{"name":"Breithornpass","elevationM":3814.0,"osmId":2304704011},"geometry":{"type":"Point","coordinates":[7.73797,45.92966]}},{"type":"Feature","properties":{"name":"Feejoch","elevationM":3810.0,"osmId":3149410224},"geometry":{"type":"Point","coordinates":[7.88692,46.04686]}},{"type":"Feature","properties":{"name":"Adlerpass","elevationM":3789.0,"osmId":316985741},"geometry":{"type":"Point","coordinates":[7.8876,46.01827]}},{"type":"Feature","properties":{"name":"Col de Moming","elevationM":3776.0,"osmId":7195966004},"geometry":{"type":"Point","coordinates":[7.698,46.0756]}},{"type":"Feature","properties":{"name":"Alphubeljoch","elevationM":3772.0,"osmId":804913052},"geometry":{"type":"Point","coordinates":[7.87446,46.05383]}},{"type":"Feature","properties":{"name":"Colle Signal","elevationM":3769.0,"osmId":1506070214},"geometry":{"type":"Point","coordinates":[7.88947,45.9259]}},{"type":"Feature","properties":{"name":"Schalijoch","elevationM":3749.0,"osmId":7195966058},"geometry":{"type":"Point","coordinates":[7.70784,46.0922]}},{"type":"Feature","properties":{"name":"Hohlichtpass","elevationM":3734.0,"osmId":1373124018},"geometry":{"type":"Point","coordinates":[7.70155,46.08068]}},{"type":"Feature","properties":{"name":"Festi-Kin-Lücke","elevationM":3734.0,"osmId":1458867995},"geometry":{"type":"Point","coordinates":[7.84197,46.09324]}},{"type":"Feature","properties":{"name":"Schwarztor","elevationM":3731.0,"osmId":2304704035},"geometry":{"type":"Point","coordinates":[7.77707,45.93026]}},{"type":"Feature","properties":{"name":null,"elevationM":3730.0,"osmId":1373119072},"geometry":{"type":"Point","coordinates":[7.89108,46.04168]}},{"type":"Feature","properties":{"name":"Colle dei Cors","elevationM":3714.0,"osmId":8591677607},"geometry":{"type":"Point","coordinates":[7.60058,45.94825]}},{"type":"Feature","properties":{"name":"Wandfluelücke","elevationM":3701.0,"osmId":1725081467},"geometry":{"type":"Point","coordinates":[7.60624,46.02073]}},{"type":"Feature","properties":{"name":"Passo di Ventina Sud","elevationM":3666.0,"osmId":12040719066},"geometry":{"type":"Point","coordinates":[7.71642,45.92703]}},{"type":"Feature","properties":{"name":"Col du Mountet","elevationM":3655.0,"osmId":12040719336},"geometry":{"type":"Point","coordinates":[7.67993,46.05228]}},{"type":"Feature","properties":{"name":"Kinlücke","elevationM":3640.0,"osmId":1373122940},"geometry":{"type":"Point","coordinates":[7.83591,46.07773]}},{"type":"Feature","properties":{"name":"Ober Äschjoch","elevationM":3621.0,"osmId":12040719030},"geometry":{"type":"Point","coordinates":[7.70375,46.05783]}},{"type":"Feature","properties":{"name":null,"elevationM":3600.0,"osmId":3018568387},"geometry":{"type":"Point","coordinates":[7.90535,45.99119]}},{"type":"Feature","properties":{"name":"Ober Gabeljoch","elevationM":3594.0,"osmId":12040718946},"geometry":{"type":"Point","coordinates":[7.67426,46.03571]}},{"type":"Feature","properties":{"name":"Col du Lion","elevationM":3579.0,"osmId":876510181},"geometry":{"type":"Point","coordinates":[7.64482,45.97169]}},{"type":"Feature","properties":{"name":"Col Budden","elevationM":3576.0,"osmId":9289869194},"geometry":{"type":"Point","coordinates":[7.58773,45.93665]}},{"type":"Feature","properties":{"name":"Ost Tiefmattenjoch","elevationM":3572.0,"osmId":7276492616},"geometry":{"type":"Point","coordinates":[7.58958,45.97063]}},{"type":"Feature","properties":{"name":"West Tiefmattenjoch","elevationM":3565.0,"osmId":1725081466},"geometry":{"type":"Point","coordinates":[7.58628,45.97138]}},{"type":"Feature","properties":{"name":null,"elevationM":3563.0,"osmId":3018568394},"geometry":{"type":"Point","coordinates":[7.90774,45.99832]}},{"type":"Feature","properties":{"name":"Allalinpass","elevationM":3557.0,"osmId":3206071359},"geometry":{"type":"Point","coordinates":[7.8865,46.0384]}},{"type":"Feature","properties":{"name":"Altes Weisstor","elevationM":3556.0,"osmId":3018567019},"geometry":{"type":"Point","coordinates":[7.88064,45.96714]}},{"type":"Feature","properties":{"name":"Unter Äschjoch","elevationM":3550.0,"osmId":12040719213},"geometry":{"type":"Point","coordinates":[7.71118,46.05997]}},{"type":"Feature","properties":{"name":"Arbenjoch","elevationM":3543.0,"osmId":12040719348},"geometry":{"type":"Point","coordinates":[7.65565,46.03594]}},{"type":"Feature","properties":{"name":"Schwarzberg-Weisstor","elevationM":3535.0,"osmId":1373116794},"geometry":{"type":"Point","coordinates":[7.906,46.00125]}},{"type":"Feature","properties":{"name":"Col de la Crête de Vofrède","elevationM":3532.0,"osmId":8268220642},"geometry":{"type":"Point","coordinates":[7.58581,45.92671]}},{"type":"Feature","properties":{"name":"Col de la Dent Blanche","elevationM":3530.0,"osmId":12040719262},"geometry":{"type":"Point","coordinates":[7.60817,46.04117]}},{"type":"Feature","properties":{"name":"Triftjoch","elevationM":3527.0,"osmId":12040705352},"geometry":{"type":"Point","coordinates":[7.67725,46.04931]}},{"type":"Feature","properties":{"name":"Col des Petites Murailles","elevationM":3520.0,"osmId":8268220640},"geometry":{"type":"Point","coordinates":[7.58653,45.9306]}},{"type":"Feature","properties":{"name":"Roffelpass Westsattel","elevationM":3517.0,"osmId":1373116370},"geometry":{"type":"Point","coordinates":[7.91605,45.99639]}},{"type":"Feature","properties":{"name":"Neues Weisstor","elevationM":3499.0,"osmId":1373115886},"geometry":{"type":"Point","coordinates":[7.90114,45.98791]}},{"type":"Feature","properties":{"name":"Col des Rosses","elevationM":3499.0,"osmId":12040719200},"geometry":{"type":"Point","coordinates":[7.58898,46.06983]}},{"type":"Feature","properties":{"name":"Chli Triftjisattel","elevationM":3489.0,"osmId":12040705333},"geometry":{"type":"Point","coordinates":[7.76979,45.94378]}},{"type":"Feature","properties":{"name":"Col de Zinal","elevationM":3488.0,"osmId":12040719146},"geometry":{"type":"Point","coordinates":[7.62662,46.03089]}},{"type":"Feature","properties":{"name":"Col Valtournenche","elevationM":3486.0,"osmId":7276500565},"geometry":{"type":"Point","coordinates":[7.63491,45.97033]}},{"type":"Feature","properties":{"name":"Col d'Hérens","elevationM":3458.0,"osmId":6711004552},"geometry":{"type":"Point","coordinates":[7.58608,45.9945]}},{"type":"Feature","properties":{"name":"Passo di Ventina Nord","elevationM":3443.0,"osmId":12040719075},"geometry":{"type":"Point","coordinates":[7.70964,45.93356]}},{"type":"Feature","properties":{"name":"Roffelpass Ostsattel","elevationM":3442.0,"osmId":3077281517},"geometry":{"type":"Point","coordinates":[7.92448,45.9972]}},{"type":"Feature","properties":{"name":"Wandfluejoch","elevationM":3441.0,"osmId":12040719367},"geometry":{"type":"Point","coordinates":[7.59227,46.00016]}},{"type":"Feature","properties":{"name":"Col Durand","elevationM":3436.0,"osmId":393192169},"geometry":{"type":"Point","coordinates":[7.63987,46.0296]}},{"type":"Feature","properties":{"name":"Stockhornpass","elevationM":3384.0,"osmId":3018568583},"geometry":{"type":"Point","coordinates":[7.85712,45.98389]}},{"type":"Feature","properties":{"name":"Steinchalchlücke / Bocchetta di Stenigalchi","elevationM":3360.0,"osmId":1373116423},"geometry":{"type":"Point","coordinates":[7.92972,45.99695]}},{"type":"Feature","properties":{"name":"Furggsattel","elevationM":3348.0,"osmId":12040718890},"geometry":{"type":"Point","coordinates":[7.70288,45.95155]}},{"type":"Feature","properties":{"name":"Colle delle Locce","elevationM":3334.0,"osmId":2119339858},"geometry":{"type":"Point","coordinates":[7.91347,45.92307]}},{"type":"Feature","properties":{"name":"Breuiljoch","elevationM":3323.0,"osmId":3400262454},"geometry":{"type":"Point","coordinates":[7.67027,45.97081]}},{"type":"Feature","properties":{"name":"P3321","elevationM":3321.0,"osmId":3018568391},"geometry":{"type":"Point","coordinates":[7.93385,45.99642]}},{"type":"Feature","properties":{"name":"Äbilücke","elevationM":3321.0,"osmId":12040719264},"geometry":{"type":"Point","coordinates":[7.64997,46.01796]}},{"type":"Feature","properties":{"name":"Unter Gabeljoch","elevationM":3315.0,"osmId":12040719366},"geometry":{"type":"Point","coordinates":[7.69039,46.02688]}},{"type":"Feature","properties":{"name":"Col de Créton","elevationM":3307.0,"osmId":8268197254},"geometry":{"type":"Point","coordinates":[7.58504,45.92059]}},{"type":"Feature","properties":{"name":"Hangende Gletscherjoch","elevationM":3306.0,"osmId":3149410226},"geometry":{"type":"Point","coordinates":[7.92475,46.03177]}},{"type":"Feature","properties":{"name":"Theodulpass","elevationM":3295.0,"osmId":3444480468},"geometry":{"type":"Point","coordinates":[7.70871,45.9435]}},{"type":"Feature","properties":{"name":"Furggjoch","elevationM":3271.0,"osmId":3400262455},"geometry":{"type":"Point","coordinates":[7.67381,45.96793]}},{"type":"Feature","properties":{"name":"Längfluejoch","elevationM":3265.0,"osmId":1975493084},"geometry":{"type":"Point","coordinates":[7.85014,46.01609]}},{"type":"Feature","properties":{"name":"Hinterallalinpass","elevationM":3250.0,"osmId":918917538},"geometry":{"type":"Point","coordinates":[7.91529,46.06291]}},{"type":"Feature","properties":{"name":"Triftjisattel","elevationM":3232.0,"osmId":12040718966},"geometry":{"type":"Point","coordinates":[7.75464,45.9512]}},{"type":"Feature","properties":{"name":null,"elevationM":3230.0,"osmId":1975493482},"geometry":{"type":"Point","coordinates":[7.8181,46.02434]}},{"type":"Feature","properties":{"name":"Fluehorelicke","elevationM":3225.0,"osmId":1975493065},"geometry":{"type":"Point","coordinates":[7.82612,46.02363]}},{"type":"Feature","properties":{"name":null,"elevationM":3210.0,"osmId":3018568393},"geometry":{"type":"Point","coordinates":[7.95015,45.99744]}},{"type":"Feature","properties":{"name":"La Forcle","elevationM":3187.0,"osmId":6354819929},"geometry":{"type":"Point","coordinates":[7.65941,46.06625]}},{"type":"Feature","properties":{"name":"Rothornpass / Bocchetta del Corno Rosso","elevationM":3167.0,"osmId":3018568581},"geometry":{"type":"Point","coordinates":[7.94778,45.99758]}},{"type":"Feature","properties":{"name":null,"elevationM":3150.0,"osmId":1975493205},"geometry":{"type":"Point","coordinates":[7.8354,46.0193]}},{"type":"Feature","properties":{"name":"Furggji","elevationM":3150.0,"osmId":12040719391},"geometry":{"type":"Point","coordinates":[7.73079,46.05453]}},{"type":"Feature","properties":{"name":"Colle del Tournalin","elevationM":3145.0,"osmId":1308004948},"geometry":{"type":"Point","coordinates":[7.6858,45.86687]}},{"type":"Feature","properties":{"name":"Col du Pigne","elevationM":3140.0,"osmId":3039871976},"geometry":{"type":"Point","coordinates":[7.60869,46.08715]}},{"type":"Feature","properties":{"name":"Wissgrat","elevationM":3139.0,"osmId":1975494258},"geometry":{"type":"Point","coordinates":[7.83993,46.0586]}},{"type":"Feature","properties":{"name":"Chummenchlene","elevationM":3121.0,"osmId":1373118652},"geometry":{"type":"Point","coordinates":[7.80384,46.03514]}},{"type":"Feature","properties":{"name":"Col de Vofrède","elevationM":3121.0,"osmId":1430299441},"geometry":{"type":"Point","coordinates":[7.58485,45.90908]}},{"type":"Feature","properties":{"name":"Colle delle Pisse","elevationM":3109.0,"osmId":4439581694},"geometry":{"type":"Point","coordinates":[7.86519,45.88366]}},{"type":"Feature","properties":{"name":"Seewjinenlücke / Bocchetta di Seewjinen","elevationM":3108.0,"osmId":3077281520},"geometry":{"type":"Point","coordinates":[7.95457,45.99709]}},{"type":"Feature","properties":{"name":"Colle della Bettolina Superiore","elevationM":3100.0,"osmId":917996074},"geometry":{"type":"Point","coordinates":[7.78345,45.88815]}},{"type":"Feature","properties":{"name":null,"elevationM":3090.0,"osmId":3018567024},"geometry":{"type":"Point","coordinates":[7.94057,46.00249]}},{"type":"Feature","properties":{"name":"Grünbergsattel","elevationM":3037.0,"osmId":3077280640},"geometry":{"type":"Point","coordinates":[7.94294,46.00655]}},{"type":"Feature","properties":{"name":"Egginerjoch","elevationM":2990.0,"osmId":3075891289},"geometry":{"type":"Point","coordinates":[7.92578,46.06823]}},{"type":"Feature","properties":{"name":"Colle superiore delle Cime Bianche","elevationM":2982.0,"osmId":2603255881},"geometry":{"type":"Point","coordinates":[7.69069,45.91895]}},{"type":"Feature","properties":{"name":"P2982","elevationM":2982.0,"osmId":3077280647},"geometry":{"type":"Point","coordinates":[7.945,46.01403]}},{"type":"Feature","properties":{"name":"Colle Superiore Delle Cime Bianche","elevationM":2982.0,"osmId":12184390100},"geometry":{"type":"Point","coordinates":[7.68655,45.91859]}},{"type":"Feature","properties":{"name":"Furggji","elevationM":2981.0,"osmId":1951409036},"geometry":{"type":"Point","coordinates":[7.80591,46.02264]}},{"type":"Feature","properties":{"name":"Passo dei Salati","elevationM":2980.0,"osmId":372779698},"geometry":{"type":"Point","coordinates":[7.86826,45.87589]}},{"type":"Feature","properties":{"name":null,"elevationM":2980.0,"osmId":3018568168},"geometry":{"type":"Point","coordinates":[7.89116,45.94536]}},{"type":"Feature","properties":{"name":"Col de Milon","elevationM":2976.0,"osmId":3039898667},"geometry":{"type":"Point","coordinates":[7.67329,46.112]}},{"type":"Feature","properties":{"name":"Sattelti","elevationM":2961.0,"osmId":12040718913},"geometry":{"type":"Point","coordinates":[7.63665,45.98535]}},{"type":"Feature","properties":{"name":null,"elevationM":2960.0,"osmId":3018568169},"geometry":{"type":"Point","coordinates":[7.89185,45.94546]}},{"type":"Feature","properties":{"name":null,"elevationM":2915.0,"osmId":3744160659},"geometry":{"type":"Point","coordinates":[7.66281,45.87684]}},{"type":"Feature","properties":{"name":"Uf de Galkernen / Bocchetta di Galkerne","elevationM":2906.0,"osmId":3077281522},"geometry":{"type":"Point","coordinates":[7.96768,45.99773]}},{"type":"Feature","properties":{"name":"Colle della Bettolina Inferiore","elevationM":2905.0,"osmId":917994768},"geometry":{"type":"Point","coordinates":[7.78337,45.87955]}},{"type":"Feature","properties":{"name":"Colle Inferiore delle Cime Bianche","elevationM":2896.0,"osmId":5088847150},"geometry":{"type":"Point","coordinates":[7.67756,45.90939]}},{"type":"Feature","properties":{"name":"Colle Salza","elevationM":2882.0,"osmId":1438256966},"geometry":{"type":"Point","coordinates":[7.83821,45.87872]}},{"type":"Feature","properties":{"name":"Col d'Olen","elevationM":2880.0,"osmId":2185191297},"geometry":{"type":"Point","coordinates":[7.86879,45.8705]}},{"type":"Feature","properties":{"name":"Passo di Zube","elevationM":2874.0,"osmId":3828577526},"geometry":{"type":"Point","coordinates":[7.87459,45.86064]}},{"type":"Feature","properties":{"name":"Monte Moropass Westsattel","elevationM":2846.0,"osmId":3077280641},"geometry":{"type":"Point","coordinates":[7.97913,45.9992]}},{"type":"Feature","properties":{"name":"Valico di Cimalegna","elevationM":2832.0,"osmId":454570053},"geometry":{"type":"Point","coordinates":[7.88067,45.87585]}},{"type":"Feature","properties":{"name":"Colle della Roisette","elevationM":2830.0,"osmId":1401272634},"geometry":{"type":"Point","coordinates":[7.67863,45.89878]}},{"type":"Feature","properties":{"name":null,"elevationM":2810.0,"osmId":3048781803},"geometry":{"type":"Point","coordinates":[7.65006,45.91324]}},{"type":"Feature","properties":{"name":"Colle Croce","elevationM":2800.0,"osmId":1290254194},"geometry":{"type":"Point","coordinates":[7.70086,45.86895]}},{"type":"Feature","properties":{"name":null,"elevationM":2775.0,"osmId":4296735374},"geometry":{"type":"Point","coordinates":[7.82676,45.87177]}},{"type":"Feature","properties":{"name":null,"elevationM":2769.0,"osmId":4296735385},"geometry":{"type":"Point","coordinates":[7.8274,45.87196]}},{"type":"Feature","properties":{"name":"Colle di Turlo","elevationM":2738.0,"osmId":454293199},"geometry":{"type":"Point","coordinates":[7.958,45.90273]}},{"type":"Feature","properties":{"name":"Passo del Gatto","elevationM":2730.0,"osmId":4512058584},"geometry":{"type":"Point","coordinates":[7.97298,45.86877]}},{"type":"Feature","properties":{"name":"Bocchetta del Bambino","elevationM":2690.0,"osmId":5087309152},"geometry":{"type":"Point","coordinates":[7.96277,45.89401]}},{"type":"Feature","properties":{"name":"Colle Della Bettaforca","elevationM":2672.0,"osmId":917996027},"geometry":{"type":"Point","coordinates":[7.78118,45.86847]}},{"type":"Feature","properties":{"name":null,"elevationM":2670.0,"osmId":3018568178},"geometry":{"type":"Point","coordinates":[7.89738,45.9468]}},{"type":"Feature","properties":{"name":"Colletto Di Nana","elevationM":2651.0,"osmId":1290383080},"geometry":{"type":"Point","coordinates":[7.70425,45.86384]}},{"type":"Feature","properties":{"name":"Colle del Piccolo Altare","elevationM":2627.0,"osmId":2469087495},"geometry":{"type":"Point","coordinates":[7.96835,45.90212]}},{"type":"Feature","properties":{"name":null,"elevationM":2486.0,"osmId":4011231157},"geometry":{"type":"Point","coordinates":[7.65387,45.87315]}},{"type":"Feature","properties":{"name":"Colle Piglimò","elevationM":2485.0,"osmId":3396939243},"geometry":{"type":"Point","coordinates":[7.96199,45.88697]}},{"type":"Feature","properties":{"name":"Finestra Di Cignana","elevationM":2445.0,"osmId":1280127368},"geometry":{"type":"Point","coordinates":[7.59707,45.89049]}},{"type":"Feature","properties":{"name":"Bocchetta della Moanda","elevationM":2422.0,"osmId":2187413314},"geometry":{"type":"Point","coordinates":[7.9709,45.86259]}},{"type":"Feature","properties":{"name":"Bocchetta delle Pisse","elevationM":2396.0,"osmId":2184042581},"geometry":{"type":"Point","coordinates":[7.90228,45.87518]}},{"type":"Feature","properties":{"name":"Bocchetta Stoful","elevationM":2390.0,"osmId":3016781695},"geometry":{"type":"Point","coordinates":[7.9132,45.87562]}},{"type":"Feature","properties":{"name":null,"elevationM":2351.0,"osmId":1401272709},"geometry":{"type":"Point","coordinates":[7.65448,45.8843]}},{"type":"Feature","properties":{"name":"Colle di Mud","elevationM":2324.0,"osmId":1400385932},"geometry":{"type":"Point","coordinates":[7.96568,45.87839]}},{"type":"Feature","properties":{"name":"Ober Sattla","elevationM":null,"osmId":851599885},"geometry":{"type":"Point","coordinates":[7.799,46.05381]}},{"type":"Feature","properties":{"name":"Pfulwe","elevationM":null,"osmId":851670396},"geometry":{"type":"Point","coordinates":[7.84283,46.01697]}},{"type":"Feature","properties":{"name":null,"elevationM":null,"osmId":852694534},"geometry":{"type":"Point","coordinates":[7.90008,46.04615]}},{"type":"Feature","properties":{"name":null,"elevationM":null,"osmId":918916654},"geometry":{"type":"Point","coordinates":[7.94208,46.04319]}},{"type":"Feature","properties":{"name":"Sella Roisettaz","elevationM":null,"osmId":1290253968},"geometry":{"type":"Point","coordinates":[7.68128,45.88597]}},{"type":"Feature","properties":{"name":"Festijoch","elevationM":null,"osmId":1350577332},"geometry":{"type":"Point","coordinates":[7.84809,46.10141]}},{"type":"Feature","properties":{"name":null,"elevationM":null,"osmId":1768937903},"geometry":{"type":"Point","coordinates":[7.71718,46.11852]}},{"type":"Feature","properties":{"name":"Colle Bortolon","elevationM":null,"osmId":2444541321},"geometry":{"type":"Point","coordinates":[7.93056,45.95183]}},{"type":"Feature","properties":{"name":"Colletto del Pizzo Nero","elevationM":null,"osmId":2728705580},"geometry":{"type":"Point","coordinates":[7.95016,45.94628]}},{"type":"Feature","properties":{"name":"Grenzsattel","elevationM":null,"osmId":3018567023},"geometry":{"type":"Point","coordinates":[7.87111,45.93426]}},{"type":"Feature","properties":{"name":"Passo Jacchini","elevationM":null,"osmId":3018567026},"geometry":{"type":"Point","coordinates":[7.90356,45.98796]}},{"type":"Feature","properties":{"name":null,"elevationM":null,"osmId":3149415382},"geometry":{"type":"Point","coordinates":[7.9086,46.04964]}},{"type":"Feature","properties":{"name":null,"elevationM":null,"osmId":3676448716},"geometry":{"type":"Point","coordinates":[7.66779,45.91575]}},{"type":"Feature","properties":{"name":null,"elevationM":null,"osmId":3676448719},"geometry":{"type":"Point","coordinates":[7.66078,45.91591]}},{"type":"Feature","properties":{"name":null,"elevationM":null,"osmId":4439620112},"geometry":{"type":"Point","coordinates":[7.79686,45.91332]}},{"type":"Feature","properties":{"name":null,"elevationM":null,"osmId":4439620152},"geometry":{"type":"Point","coordinates":[7.82813,45.92574]}},{"type":"Feature","properties":{"name":"Col de Bordon","elevationM":null,"osmId":4580384253},"geometry":{"type":"Point","coordinates":[7.60144,46.11844]}},{"type":"Feature","properties":{"name":null,"elevationM":null,"osmId":4580384256},"geometry":{"type":"Point","coordinates":[7.60273,46.10419]}},{"type":"Feature","properties":{"name":"Col du Gardien","elevationM":null,"osmId":4580384257},"geometry":{"type":"Point","coordinates":[7.60383,46.09293]}},{"type":"Feature","properties":{"name":"Colletto dell'Acqua","elevationM":null,"osmId":5492537141},"geometry":{"type":"Point","coordinates":[7.86549,45.88639]}}]}