{"type":"FeatureCollection","features":[{"type":"Feature","properties":{},"geometry":{"type":"MultiLineString","coordinates":[[[2.5218,51.08754],[2.53703,51.06461],[2.54706,51.02048],[2.55698,51.00118],[2.59274,50.97611],[2.60845,50.96113],[2.61165,50.94123],[2.60576,50.93524],[2.58271,50.92067],[2.57693,50.91152],[2.59667,50.86765],[2.59553,50.86113],[2.58778,50.85002],[2.58675,50.84542],[2.58995,50.84201],[2.60204,50.83809],[2.60659,50.83483],[2.61517,50.82217],[2.62044,50.81649],[2.62778,50.81442],[2.64245,50.81245],[2.65062,50.81225]],[[2.66922,50.8139],[2.67873,50.81323],[2.69186,50.80884],[2.69692,50.80305],[2.70002,50.79628],[2.70663,50.78879],[2.74384,50.7662],[2.74953,50.75959],[2.76296,50.73938],[2.76823,50.73324],[2.78673,50.72337],[2.86673,50.70009],[2.87128,50.69877],[2.88688,50.69665]],[[2.65062,50.81225],[2.66922,50.8139]],[[3.1033,50.78408],[3.12925,50.77907],[3.1462,50.76889],[3.16281,50.74994],[3.16282,50.74992],[3.17668,50.73411],[3.18898,50.7151],[3.19694,50.70921],[3.211,50.70797],[3.22443,50.70517],[3.23239,50.69593],[3.24376,50.6721],[3.22981,50.65541],[3.23787,50.62647],[3.25031,50.6]],[[2.88688,50.69665],[2.90011,50.70311],[2.93019,50.73623],[2.94838,50.74869],[2.97142,50.75783],[3.02382,50.76826],[3.1033,50.78408]]]}},{"type":"Feature","properties":{},"geometry":{"type":"MultiLineString","coordinates":[[[7.19459,53.24502],[7.19747,53.21662],[7.19851,53.20058],[7.19541,53.185],[7.18858,53.16779],[7.17443,53.14578],[7.17194,53.13771],[7.17267,53.12575],[7.17649,53.11939],[7.18135,53.11418],[7.18507,53.10544],[7.19437,53.03384],[7.19282,52.99801],[7.18362,52.96612],[7.16192,52.93264],[7.07986,52.85442],[7.07215,52.84132],[7.06198,52.82401],[7.0533,52.79058],[7.04399,52.68263],[7.03665,52.64738],[7.01846,52.62599]],[[6.91842,52.63219],[6.8654,52.64196]],[[6.8654,52.64196],[6.77052,52.64103],[6.73703,52.6347],[6.71908,52.62676],[6.70179,52.61912],[6.71016,52.60865],[6.7082,52.59969],[6.70365,52.59139],[6.70396,52.58307],[6.71099,52.57664],[6.74375,52.55971],[6.68825,52.54258],[6.67172,52.54168],[6.68401,52.52599],[6.68753,52.50814],[6.68898,52.49052],[6.69507,52.47561],[6.71481,52.46155],[6.74117,52.45367],[6.82034,52.44683],[6.87201,52.43473],[6.90023,52.43192]],[[7.01846,52.62599],[6.98281,52.63278],[6.96772,52.63666]],[[6.96772,52.63666],[6.91842,52.63219]],[[6.9733,52.45137],[7.03418,52.39078],[7.04823,52.36507],[7.03976,52.32862],[7.01971,52.30004],[7.01247,52.28495],[7.01185,52.26663],[7.02074,52.24526],[7.0266,52.23862],[7.02911,52.23578],[7.02632,52.23064],[6.98188,52.214],[6.97113,52.20627],[6.94767,52.18281],[6.92772,52.17191],[6.88483,52.16033],[6.8654,52.1478],[6.84328,52.12],[6.83067,52.11289],[6.77158,52.10879],[6.76587,52.1084],[6.74985,52.10287],[6.7329,52.09199],[6.72763,52.08631],[6.71946,52.07357],[6.7114,52.06729],[6.69942,52.06357],[6.68887,52.0631],[6.67988,52.06047],[6.67296,52.05005],[6.67502,52.03481],[6.69094,52.02786],[6.71285,52.02385],[6.77817,52.00127],[6.80401,51.98437],[6.80918,51.97954],[6.81166,51.9728],[6.81073,51.96058],[6.80566,51.95753],[6.79801,51.9567],[6.78985,51.95114],[6.76701,51.92551],[6.74375,51.90833],[6.71668,51.89926],[6.62815,51.89751],[6.52862,51.87642],[6.47943,51.85301],[6.46289,51.84836],[6.44253,51.84836]],[[6.90023,52.43192],[6.92648,52.43298],[6.95149,52.43747],[6.96079,52.44285],[6.96699,52.44956],[6.9733,52.45137]],[[6.22518,51.86255],[6.19138,51.87115],[6.15924,51.8873],[6.12699,51.89673]],[[6.12699,51.89673],[6.09299,51.88531],[6.10539,51.87947],[6.14271,51.85518],[6.15614,51.84206]],[[6.34497,51.8211],[6.34197,51.83668],[6.32574,51.84255],[6.2874,51.84616],[6.28285,51.8496],[6.27179,51.8619],[6.26466,51.86619],[6.25639,51.86681]],[[6.25639,51.86681],[6.22518,51.86255]],[[6.44253,51.84836],[6.37845,51.86012]],[[6.37845,51.86012],[6.38662,51.83756],[6.38248,51.82759],[6.34497,51.8211]],[[6.15614,51.84206],[6.14002,51.84454],[6.11645,51.84828],[6.084,51.85366]],[[6.084,51.85366],[6.04328,51.84686],[6.02891,51.84211],[6.00824,51.83257],[5.98892,51.82746],[5.94809,51.82296],[5.93145,51.81565],[5.92804,51.80674],[5.95078,51.79591],[5.96411,51.77656],[5.96235,51.75635],[5.94606,51.74629],[5.94013,51.74263],[5.93931,51.73188],[5.94923,51.72938]],[[5.97827,51.72979],[5.98974,51.72638],[6.01207,51.71586],[6.02199,51.70951],[6.00855,51.68119],[6.0315,51.663],[6.09919,51.64447],[6.08751,51.6221],[6.08214,51.60781],[6.08648,51.59553],[6.15304,51.53843],[6.19335,51.50934],[6.20048,51.47657],[6.20534,51.45844],[6.20172,51.43864],[6.19407,51.41738],[6.19273,51.39896],[6.20782,51.38767],[6.20203,51.37888],[6.19893,51.35697],[6.19355,51.34452],[6.18363,51.3357],[6.15821,51.32459],[6.14777,51.31816],[6.09651,51.25881],[6.07542,51.24266],[6.06519,51.23163],[6.05661,51.21171],[6.05372,51.18938],[6.06085,51.17091],[6.08431,51.16269]],[[5.94923,51.72938],[5.97827,51.72979]],[[6.13413,51.18422],[6.15707,51.17925],[6.14911,51.17634],[6.12627,51.16458],[6.14725,51.15225],[6.13237,51.13983],[6.07542,51.12037],[5.98292,51.07469],[5.96948,51.06492],[5.95026,51.03947],[5.93796,51.03094],[5.91957,51.0297]],[[6.08431,51.16269],[6.13413,51.18422]],[[5.91957,51.0297],[5.90623,51.0374],[5.89435,51.04714],[5.8805,51.05205]],[[5.8805,51.05205],[5.85249,51.04275],[5.85817,51.01934],[5.87357,50.99058],[5.87461,50.96537]],[[5.92773,50.97767],[5.94158,50.97648],[5.96783,50.971]],[[5.87461,50.96537],[5.88825,50.96712],[5.91419,50.97524],[5.92773,50.97767]],[[6.00369,50.97374],[6.00576,50.96852],[5.99966,50.9601],[5.99584,50.95177],[5.99729,50.93736],[5.99987,50.9294],[6.00752,50.92408],[6.03108,50.91472],[6.06374,50.90754],[6.06178,50.90351],[6.05651,50.89808],[6.05465,50.89147],[6.06312,50.8709],[6.06281,50.86294],[6.05671,50.85266],[6.04555,50.84418]],[[5.96783,50.971],[6.00369,50.97374]],[[6.04555,50.84418],[6.02302,50.84542]],[[6.02302,50.84542],[6.00928,50.84046],[6.00049,50.83044],[6.00142,50.82181],[6.00359,50.81261],[5.99832,50.80072],[5.98395,50.7922]],[[5.98395,50.7922],[5.96876,50.79463]],[[5.96876,50.79463],[5.973,50.78181],[5.98065,50.77344],[5.99057,50.76905],[5.99708,50.76295],[5.99491,50.74993]]]}},{"type":"Feature","properties":{},"geometry":{"type":"MultiLineString","coordinates":[[[5.99491,50.74993],[5.99326,50.74807],[5.99264,50.74626],[5.99274,50.74445],[5.99419,50.74259],[6.01083,50.73706],[6.01134,50.72745],[6.00762,50.7169],[6.01155,50.70853],[6.02478,50.70755]],[[6.06436,50.71448],[6.081,50.7135],[6.10023,50.7013],[6.1611,50.64218],[6.14777,50.63676],[6.15945,50.62239],[6.18002,50.61552],[6.24906,50.61443],[6.25133,50.60844],[6.24466,50.6]],[[6.02478,50.70755],[6.06436,50.71448]]]}},{"type":"Feature","properties":{},"geometry":{"type":"MultiLineString","coordinates":[[[3.45388,51.23563],[3.42194,51.23799],[3.3988,51.2447],[3.39166,51.24677],[3.36737,51.26349],[3.35321,51.2886],[3.35393,51.31191],[3.35807,51.33671],[3.34942,51.37522]],[[4.22149,51.368],[4.22096,51.36382],[4.21352,51.34054],[4.20794,51.33059],[4.16856,51.29687],[4.11895,51.2724],[3.99503,51.23323],[3.94945,51.21078],[3.92703,51.20625],[3.80869,51.20533]],[[3.80869,51.20533],[3.79629,51.20876],[3.7814,51.21987],[3.77975,51.23031],[3.7814,51.24142],[3.77623,51.25452],[3.75732,51.26232],[3.63505,51.28783],[3.60953,51.29044]],[[3.60953,51.29044],[3.58482,51.28953],[3.54503,51.28393],[3.52901,51.28333],[3.51434,51.28103],[3.50338,51.27395],[3.50152,51.2624],[3.50411,51.24974],[3.50121,51.24028],[3.45388,51.23563]]]}},{"type":"Feature","properties":{},"geometry":{"type":"MultiLineString","coordinates":[[[4.82268,51.41369],[4.81545,51.43107],[4.81989,51.44622],[4.82609,51.46055],[4.82392,51.47565],[4.81359,51.48412],[4.79684,51.49102],[4.77865,51.49536],[4.76418,51.49624]],[[4.76418,51.49624],[4.73121,51.48562],[4.65391,51.42622],[4.64357,51.42141],[4.63014,51.41821],[4.61463,51.41756]],[[4.55386,51.41929],[4.54063,51.42007],[4.52151,51.42865],[4.52337,51.43841],[4.53185,51.45087],[4.53319,51.46758],[4.52523,51.47593],[4.51262,51.47738]],[[4.51262,51.47738],[4.48306,51.47433],[4.42942,51.46198],[4.37713,51.44288],[4.38922,51.43459],[4.38715,51.42746],[4.38064,51.41965],[4.37992,51.40953],[4.38767,51.40053],[4.4101,51.38379],[4.4162,51.37397],[4.41123,51.35674],[4.39222,51.35041]],[[5.14018,51.30739],[5.12292,51.31338],[5.11806,51.31992],[5.10783,51.34198],[5.10256,51.35066],[5.06815,51.37454],[5.06174,51.38426],[5.06525,51.40591],[5.07641,51.4219],[5.07993,51.43854],[5.06029,51.46198],[5.03032,51.47443],[5.02753,51.47681]],[[5.02753,51.47681],[5.01213,51.47433],[5.00613,51.46831],[5.00272,51.459],[4.9958,51.44671],[4.98019,51.43053],[4.95714,51.411],[4.93193,51.39562],[4.91033,51.3919]],[[4.77907,51.42642],[4.82268,51.41369]],[[4.91033,51.3919],[4.87167,51.40304],[4.85327,51.40614],[4.7833,51.40764],[4.76212,51.41338],[4.7678,51.42539],[4.77907,51.42642]],[[4.61463,51.41756],[4.5827,51.4226]],[[4.5827,51.4226],[4.55386,51.41929]],[[4.39222,51.35041],[4.3456,51.35229],[4.32628,51.35643],[4.2901,51.36875],[4.28112,51.36895],[4.26107,51.36938]],[[5.23299,51.25592],[5.21542,51.25873],[5.21491,51.29434],[5.19734,51.30834],[5.17884,51.30951]],[[5.17884,51.30951],[5.14018,51.30739]],[[5.65901,51.17907],[5.64816,51.18396],[5.63855,51.19091],[5.62501,51.1969],[5.56837,51.20765],[5.55141,51.21677],[5.54553,51.21992],[5.54233,51.24266],[5.5352,51.26204],[5.5167,51.27723],[5.49324,51.28654],[5.47164,51.28809]],[[5.47164,51.28809],[5.45189,51.28212],[5.40993,51.26354],[5.38906,51.25871]],[[5.38906,51.25871],[5.27072,51.26183]],[[5.27072,51.26183],[5.23946,51.25693],[5.23299,51.25592]],[[5.78138,51.15241],[5.76805,51.15946],[5.74717,51.1776],[5.73084,51.18375],[5.71803,51.1846]],[[5.71803,51.1846],[5.67617,51.17918],[5.65901,51.17907]],[[5.8159,51.09587],[5.82665,51.09691],[5.83678,51.09949],[5.84598,51.10339],[5.82324,51.11874],[5.82644,51.13016],[5.8405,51.13892],[5.83802,51.14373],[5.82913,51.15646],[5.81208,51.15732]],[[5.81208,51.15732],[5.78138,51.15241]],[[5.80495,51.09662],[5.8159,51.09587]],[[5.79131,51.055],[5.79885,51.06148],[5.80433,51.06859],[5.81177,51.08231],[5.80898,51.08634],[5.80743,51.08939],[5.80495,51.09662]],[[5.77963,51.0613],[5.79131,51.055]],[[5.72237,50.95942],[5.76175,50.99916],[5.77756,51.02355],[5.76402,51.03518],[5.7664,51.04844],[5.77146,51.05812],[5.77963,51.0613]],[[5.71741,50.75282],[5.70656,50.75422],[5.68837,50.76083],[5.6987,50.78377],[5.70046,50.79556],[5.68485,50.7985],[5.66325,50.80506],[5.65743,50.80764],[5.64072,50.81504],[5.62449,50.83028],[5.62232,50.85266],[5.69446,50.90366],[5.70604,50.90661],[5.71761,50.90924],[5.72237,50.91167],[5.73529,50.92397],[5.75255,50.94723],[5.76402,50.95942],[5.7543,50.96309],[5.74469,50.96325]],[[5.74469,50.96325],[5.72237,50.95942]],[[5.79317,50.75215],[5.78293,50.7567],[5.76247,50.77101],[5.75244,50.77344]],[[5.75244,50.77344],[5.74356,50.7691],[5.73278,50.75885],[5.72785,50.75416],[5.71741,50.75282]],[[5.97476,50.74755],[5.9022,50.74905],[5.89132,50.75124],[5.89129,50.75125],[5.87988,50.75354]],[[5.87988,50.75354],[5.79317,50.75215]],[[5.99491,50.74993],[5.97476,50.74755]]]}}]}