{"type":"FeatureCollection","features":[{"type":"Feature","properties":{"name":"IJssel","scalerank":4.0},"geometry":{"type":"MultiLineString","coordinates":[[[5.85768,52.57677],[5.87713,52.58116],[5.91017,52.56949],[5.94711,52.53836],[5.97429,52.52086],[6.0171,52.52086],[6.03069,52.51101],[6.04282,52.50784],[6.04965,52.50532],[6.05641,52.49868],[6.06389,52.48941],[6.08155,52.47773],[6.08904,52.47378],[6.09539,52.46792],[6.10418,52.45205],[6.11199,52.4398],[6.13274,52.42129],[6.13478,52.40445],[6.12411,52.3944],[6.12005,52.38036],[6.10467,52.3769],[6.08676,52.37352],[6.08155,52.37059],[6.08733,52.35944],[6.07805,52.35098],[6.06926,52.32901],[6.06804,52.32176],[6.07065,52.31835],[6.08098,52.30931],[6.08611,52.30553],[6.10654,52.29971],[6.11248,52.28742],[6.12452,52.2709],[6.12403,52.26256],[6.12403,52.25625],[6.12794,52.2545],[6.13917,52.25129],[6.14405,52.24881],[6.14593,52.24392],[6.14194,52.23509],[6.14609,52.23029],[6.15992,52.22533],[6.167,52.23204],[6.17652,52.23692],[6.18922,52.23741],[6.18637,52.2213],[6.18637,52.20571],[6.19223,52.1824],[6.19418,52.15904],[6.19223,52.12987],[6.20582,52.11042],[6.20777,52.09484],[6.19418,52.08511],[6.17083,52.07929],[6.12216,52.06179],[6.11638,52.04816],[6.12216,52.03648],[6.13966,52.04234],[6.15528,52.03844],[6.15911,52.02871],[6.14747,52.01512],[6.12216,52.0054],[6.0949,51.99759],[6.07553,52.0054],[6.05413,52.00731],[6.02882,51.99954],[6.00156,51.98981],[5.99383,51.97427],[5.96469,51.97232],[5.95493,51.9645],[5.93938,51.95869]]]}},{"type":"Feature","properties":{"name":"Nederrijn","scalerank":4.0},"geometry":{"type":"MultiLineString","coordinates":[[[6.03102,51.87971],[6.02809,51.88984],[6.02459,51.89643],[6.01873,51.90058],[6.00921,51.90559],[5.98121,51.91633],[5.9673,51.92451],[5.96144,51.93606],[5.95183,51.95014],[5.92945,51.96503],[5.88624,51.98749],[5.86175,51.97333],[5.80397,51.97342],[5.78386,51.95958],[5.74261,51.96857],[5.7055,51.96296],[5.66822,51.95234],[5.62623,51.9466],[5.58196,51.95319],[5.50489,51.98188],[5.46168,51.98749],[5.44939,51.98542],[5.42945,51.97663],[5.42018,51.9739],[5.40895,51.97419],[5.38274,51.98009],[5.36036,51.97691],[5.33106,51.96296]]]}},{"type":"Feature","properties":{"name":"Lek","scalerank":4.0},"geometry":{"type":"MultiLineString","coordinates":[[[5.33106,51.96296],[5.31031,51.95958],[5.25416,51.97903],[5.23919,51.977],[5.2212,51.96833],[5.19728,51.96552],[5.17278,51.9676],[5.15398,51.9739],[5.14454,51.98115],[5.13063,51.99592],[5.11842,52.00182],[5.10475,52.00373],[5.09547,52.0008],[5.0866,51.99661],[5.06373,51.99274],[5.05486,51.98847],[5.04029,51.977],[5.0302,51.97423],[4.98878,51.98009],[4.98675,51.97854],[4.9546,51.96707],[4.92652,51.94916],[4.91652,51.9466],[4.851,51.94916],[4.83058,51.9466],[4.77613,51.92239],[4.74016,51.91604],[4.68092,51.89814],[4.59498,51.89814],[4.57171,51.90139],[4.52801,51.91547],[4.50904,51.91865],[4.46119,51.90559],[4.34083,51.89562],[4.30885,51.89826],[4.27703,51.91222],[4.23821,51.91865],[4.1277,51.98212],[4.0984,51.98908]]]}},{"type":"Feature","properties":{"name":"Rhine","scalerank":4.0},"geometry":{"type":"MultiLineString","coordinates":[[[7.21207,50.6],[7.20948,50.60871],[7.20899,50.63382],[7.2055,50.65107],[7.19654,50.66962],[7.18531,50.68659],[7.17498,50.699],[7.15911,50.71015],[7.12102,50.7287],[7.10597,50.73994],[7.08863,50.76374],[7.08204,50.76728],[7.07122,50.76948],[7.04339,50.78038],[7.03777,50.78469],[7.02809,50.80553],[7.0066,50.81989],[6.98536,50.83051],[6.9756,50.83991],[6.98626,50.85541],[7.03557,50.87494],[7.05144,50.89082],[6.98561,50.90172],[6.9756,50.90847],[6.97356,50.9184],[6.96461,50.93403],[6.96266,50.94265],[6.96632,50.95283],[6.9839,50.96243],[6.98927,50.97272],[6.98626,50.98017],[6.97755,50.98562],[6.96803,50.99002],[6.96266,50.99445],[6.96266,51.00397],[6.96868,51.0242],[6.96608,51.02794],[6.95061,51.03323],[6.8943,51.06891],[6.86004,51.07278],[6.85279,51.07636],[6.85133,51.08678],[6.85914,51.09304],[6.86891,51.09679],[6.87379,51.10029],[6.8781,51.11388],[6.87566,51.12067],[6.84938,51.12755],[6.84791,51.13654],[6.85279,51.15147],[6.84571,51.15969],[6.84344,51.16083],[6.83888,51.159],[6.82545,51.15831],[6.81105,51.15115],[6.80218,51.15107],[6.79811,51.16144],[6.79314,51.18354],[6.77971,51.18525],[6.75978,51.18126],[6.73609,51.18623],[6.72804,51.19648],[6.7234,51.21235],[6.72429,51.227],[6.73292,51.23342],[6.7409,51.23131],[6.74952,51.22773],[6.75831,51.22614],[6.7671,51.23029],[6.77027,51.23758],[6.76612,51.24262],[6.75978,51.24677],[6.75652,51.25109],[6.74537,51.25641],[6.72242,51.26215],[6.70387,51.27086],[6.70533,51.28559],[6.72478,51.30292],[6.72877,51.31061],[6.72991,51.32624],[6.71136,51.3371],[6.67596,51.3476],[6.65374,51.36013],[6.67457,51.37747],[6.69093,51.38044],[6.70899,51.38089],[6.72503,51.38288],[6.73609,51.39106],[6.73927,51.40681],[6.73243,51.41987],[6.70875,51.43952],[6.70875,51.44566],[6.7173,51.4534],[6.72063,51.46259],[6.71697,51.47032],[6.70533,51.47366],[6.68889,51.47541],[6.68483,51.48005],[6.68849,51.48664],[6.69508,51.49409],[6.70476,51.49994],[6.71485,51.50255],[6.71925,51.50694],[6.71217,51.51834],[6.70265,51.52574],[6.69231,51.53144],[6.6823,51.53827],[6.67457,51.54938],[6.68572,51.56497],[6.65594,51.57205],[6.59205,51.57669],[6.59205,51.58283],[6.59401,51.59418],[6.58929,51.61262],[6.58668,51.62991],[6.59588,51.63748],[6.6006,51.64073],[6.5971,51.64798],[6.59034,51.65538],[6.58587,51.65925],[6.57643,51.66096],[6.5442,51.65925],[6.51051,51.66385],[6.49171,51.66865],[6.47918,51.67536],[6.45167,51.70364],[6.43621,51.71369],[6.41399,51.72004],[6.42034,51.74091],[6.40748,51.75361],[6.38502,51.75987],[6.36305,51.76158],[6.34221,51.76569],[6.3305,51.77595],[6.32228,51.78933],[6.31153,51.80256],[6.27776,51.82087],[6.08351,51.85395],[6.06788,51.86062],[6.0547,51.86998],[6.03517,51.87934],[6.01384,51.88532],[5.99554,51.88455],[5.99098,51.87975],[5.98235,51.86274],[5.97511,51.8572],[5.96583,51.857],[5.95452,51.85969],[5.945,51.86363],[5.92945,51.87678],[5.90374,51.86998],[5.85963,51.85102],[5.84392,51.85322],[5.81324,51.86652],[5.79754,51.87018],[5.7907,51.87018],[5.76393,51.88732],[5.71876,51.89448],[5.54298,51.90058],[5.46168,51.89195],[5.43141,51.87478],[5.37379,51.81794],[5.33758,51.81],[5.32814,51.81391],[5.31389,51.82612],[5.30413,51.8299],[5.29274,51.83015],[5.27727,51.82514],[5.18059,51.81623],[5.15374,51.81839],[5.11297,51.82775],[5.09181,51.8299],[4.98536,51.82368]]]}},{"type":"Feature","properties":{"name":"Waal","scalerank":4.0},"geometry":{"type":"MultiLineString","coordinates":[[[4.98536,51.82368],[4.93458,51.83011],[4.90886,51.82978],[4.87013,51.80805],[4.84523,51.80309],[4.79021,51.80256],[4.76149,51.78893],[4.73976,51.77428],[4.7256,51.7569],[4.67555,51.71939]],[[4.40317,51.70828],[4.32399,51.7287],[4.2562,51.75702],[4.16017,51.80077],[4.07781,51.84365]]]}},{"type":"Feature","properties":{"name":"Ems","scalerank":8.0},"geometry":{"type":"MultiLineString","coordinates":[[[7.5,52.25025],[7.49855,52.25109],[7.4843,52.25422],[7.46624,52.25507],[7.45965,52.26166],[7.44288,52.293],[7.43556,52.30349],[7.3589,52.33417],[7.35296,52.34443],[7.34368,52.35257],[7.34059,52.36115],[7.34368,52.36982],[7.35296,52.378],[7.34986,52.37844],[7.33937,52.378],[7.33937,52.38544],[7.3462,52.38544],[7.3462,52.39167],[7.32569,52.39167],[7.33253,52.41214],[7.33302,52.4173],[7.33123,52.41848],[7.32814,52.41832],[7.32569,52.41954],[7.33025,52.42109],[7.33937,52.42638],[7.33937,52.43256],[7.33082,52.43903],[7.31202,52.46296],[7.29632,52.49128],[7.29347,52.50373],[7.29778,52.5294],[7.28712,52.53229],[7.27703,52.53648],[7.27198,52.54381],[7.27735,52.55671],[7.27345,52.55805],[7.26368,52.56293],[7.27735,52.56293],[7.27735,52.57038],[7.26555,52.57368],[7.25652,52.57905],[7.2527,52.58694],[7.25734,52.59772],[7.25261,52.59931],[7.24309,52.60387],[7.25335,52.61119],[7.25782,52.62104],[7.25676,52.63117],[7.24993,52.63927],[7.24993,52.64545],[7.25734,52.64545],[7.25734,52.65229],[7.24993,52.65229],[7.24993,52.65913],[7.26344,52.66555],[7.27784,52.69001],[7.29152,52.70071],[7.27076,52.7152],[7.26336,52.73871],[7.25969,52.76545],[7.24993,52.7895],[7.25994,52.79519],[7.26311,52.80207],[7.25782,52.80768],[7.24309,52.80935],[7.25139,52.82083],[7.27882,52.83108],[7.28484,52.84068],[7.29103,52.84443],[7.30372,52.86005],[7.31276,52.87706],[7.3086,52.88508],[7.30226,52.89191],[7.2968,52.90799],[7.29152,52.94029],[7.29534,52.95869],[7.31056,52.99156],[7.31202,53.00117],[7.31837,53.01166],[7.31935,53.02566],[7.31682,53.03962],[7.31202,53.05016],[7.30714,53.05358],[7.29054,53.06212],[7.28826,53.06383],[7.28346,53.06818],[7.28517,53.07791],[7.29152,53.09427],[7.30657,53.10444],[7.36231,53.11803],[7.35979,53.13211],[7.35979,53.13829],[7.36451,53.14265],[7.36647,53.14741],[7.36663,53.16279],[7.36842,53.1728],[7.37322,53.17752],[7.37989,53.18085],[7.38722,53.18671],[7.39373,53.19013],[7.40032,53.19038],[7.40553,53.19314],[7.40764,53.20413],[7.41017,53.21027],[7.41643,53.2154],[7.42359,53.2191],[7.42872,53.22089],[7.42872,53.22834],[7.40455,53.24278],[7.39674,53.25393],[7.39275,53.28885],[7.38795,53.29886],[7.37761,53.30309],[7.36663,53.3028]]]}},{"type":"Feature","properties":{"name":"Schelde","scalerank":8.0},"geometry":{"type":"MultiLineString","coordinates":[[[3.40262,50.6],[3.38299,50.6175],[3.36712,50.63654],[3.35613,50.65815],[3.35027,50.68419],[3.36736,50.71735],[3.41277,50.74738],[3.59295,50.83222],[3.60597,50.84235],[3.63689,50.87796],[3.64649,50.8843],[3.66725,50.89301],[3.67718,50.8996],[3.68336,50.91067],[3.67596,50.9173],[3.66375,50.92345],[3.65602,50.93305],[3.65528,50.94737],[3.66057,50.95136],[3.67009,50.95193],[3.68214,50.95608],[3.70769,50.97423],[3.72804,50.99421],[3.74383,51.01736],[3.7553,51.0456],[3.77947,51.04255],[3.79322,51.03372],[3.80486,51.02155],[3.82293,51.00865],[3.83644,51.00348],[3.84718,51.00288],[3.87306,51.00873],[3.98968,51.015],[4.01075,51.01313],[4.02093,51.01354],[4.03264,51.01826],[4.04168,51.02647],[4.05494,51.04527],[4.06642,51.05207],[4.07936,51.05382],[4.08937,51.05105],[4.09889,51.0465],[4.11036,51.04316],[4.12208,51.04474],[4.14186,51.05691],[4.15301,51.05952],[4.16212,51.055],[4.17034,51.04645],[4.17945,51.0408],[4.19142,51.04462],[4.1963,51.05451],[4.19329,51.06611],[4.18751,51.07742],[4.18458,51.08674],[4.18336,51.09565],[4.18206,51.09988],[4.18531,51.10428],[4.19793,51.11359],[4.21583,51.12153],[4.23561,51.12397],[4.27613,51.12397],[4.31593,51.13215],[4.32854,51.14777],[4.33302,51.1697],[4.34864,51.19664],[4.39177,51.22492],[4.39527,51.2344],[4.30836,51.26862]]]}},{"type":"Feature","properties":{"name":"Maas","scalerank":8.0},"geometry":{"type":"MultiLineString","coordinates":[[[5.69093,50.76812],[5.69825,50.784],[5.70411,50.82453],[5.70037,50.86429],[5.68141,50.88459],[5.68792,50.88935],[5.70143,50.90506],[5.7055,50.90685],[5.71705,50.90949],[5.72185,50.91193],[5.73463,50.92426],[5.75196,50.94754],[5.76344,50.95966],[5.75383,50.96332],[5.74407,50.96349],[5.72185,50.95966],[5.76116,50.99946],[5.77711,51.02387],[5.76344,51.03543],[5.7658,51.04865],[5.77093,51.05842],[5.77906,51.06159],[5.7907,51.05528],[5.79827,51.06171],[5.80388,51.06887],[5.81129,51.08259],[5.80852,51.08662],[5.80689,51.08967],[5.80445,51.09687],[5.81536,51.09614],[5.8261,51.09719],[5.83619,51.0998],[5.84539,51.1037],[5.82277,51.11909],[5.82586,51.13044],[5.85963,51.15147],[5.87477,51.15266],[5.8838,51.159],[5.89064,51.16678],[5.89934,51.17194],[5.91652,51.1715],[5.93279,51.16702],[5.9463,51.16669],[5.9546,51.17878],[5.94573,51.18077],[5.94166,51.18354],[5.93898,51.18732],[5.93409,51.19245],[5.95379,51.192],[5.96901,51.19339],[5.97902,51.2003],[5.98259,51.21699],[5.99016,51.22895],[6.00538,51.23937],[6.01564,51.2497],[6.00921,51.26134],[6.00921,51.26761],[6.03102,51.27021],[6.06471,51.29597],[6.10051,51.30886],[6.11305,51.32441],[6.12281,51.34272],[6.13331,51.35753],[6.14251,51.36266],[6.15284,51.36608],[6.16188,51.37185],[6.16749,51.38422],[6.16603,51.39179],[6.15577,51.40681],[6.15325,51.4156],[6.15675,51.4311],[6.17449,51.46393],[6.18116,51.48041],[6.18011,51.48115],[6.18035,51.50328],[6.18116,51.50837],[6.17229,51.51272],[6.14576,51.51862],[6.14031,51.52509],[6.13258,51.54397],[6.11402,51.55341],[6.0713,51.56302],[6.05926,51.56733],[6.0534,51.57026],[6.04933,51.57449],[6.04339,51.58283],[6.03102,51.61262],[6.02703,51.61701],[6.02581,51.62055],[6.00611,51.64118],[5.99708,51.6468],[5.98707,51.65066],[5.98211,51.65583],[5.9887,51.66539],[5.97316,51.67621],[5.95973,51.71227],[5.94435,51.72004],[5.90398,51.7226],[5.88811,51.72887],[5.87941,51.74116],[5.8825,51.7532],[5.86256,51.7593],[5.75978,51.76248],[5.68995,51.79259],[5.67058,51.79572],[5.66114,51.80012],[5.64886,51.81936],[5.643,51.82368],[5.5984,51.8299],[5.53443,51.8238],[5.51979,51.82677],[5.50074,51.83491],[5.48137,51.83011],[5.46168,51.82099],[5.44133,51.81623],[5.40089,51.81814],[5.38087,51.81155],[5.37249,51.79206],[5.36736,51.77526],[5.35442,51.76248],[5.33692,51.75324],[5.3178,51.74734],[5.11883,51.73367],[5.08904,51.73155],[5.07146,51.72219],[5.0608,51.72004],[4.90349,51.71967],[4.87892,51.72687],[4.86647,51.7213],[4.84083,51.71772],[4.82667,51.71381]],[[4.17718,51.68602],[4.19158,51.68],[4.2177,51.66441],[4.25082,51.65384],[4.2802,51.64822],[4.33367,51.65689],[4.37273,51.67357],[4.40317,51.70828],[4.50652,51.69522],[4.54485,51.69595],[4.5796,51.7025],[4.62078,51.71475],[4.64397,51.7191],[4.67555,51.71939],[4.74016,51.72545],[4.76222,51.72537],[4.8117,51.71276],[4.83058,51.71227]]]}},{"type":"Feature","properties":{"name":"Maas","scalerank":8.0},"geometry":{"type":"MultiLineString","coordinates":[[[5.47684,50.6],[5.49041,50.60696],[5.49903,50.61022],[5.56072,50.61022],[5.57146,50.61575],[5.57854,50.62836],[5.5844,50.6422],[5.59156,50.65188],[5.59913,50.65457],[5.61793,50.65607],[5.62623,50.65803],[5.63478,50.66327],[5.63893,50.6684],[5.64161,50.67353],[5.64617,50.67853],[5.66594,50.69343],[5.68816,50.71397],[5.69964,50.73578],[5.68767,50.75422],[5.68767,50.76105],[5.69093,50.76812]]]}}]}