{"type":"FeatureCollection","features":[{"type":"Feature","properties":{},"geometry":{"type":"MultiPolygon","coordinates":[[[[2.50668,51.08076],[2.52149,51.08739],[2.52182,51.08755],[2.542,51.09687],[2.57993,51.1048],[2.71567,51.1695],[2.9236,51.24649],[3.12485,51.32966],[3.34897,51.37515],[3.34946,51.37523],[3.51092,51.40794],[3.52573,51.4156],[3.54135,51.41673],[3.60467,51.39106],[3.70216,51.3736],[3.73422,51.35578],[3.75554,51.35008],[3.79591,51.35008],[3.83399,51.34325],[3.85817,51.34544],[3.95582,51.37177],[3.96925,51.38166],[3.97462,51.4016],[3.98414,51.41047],[4.00571,51.40982],[4.02906,51.4042],[4.04347,51.39851],[4.05006,51.39224],[4.06129,51.37665],[4.07016,51.37055],[4.08131,51.36815],[4.10548,51.36612],[4.11549,51.36099],[4.12192,51.35936],[4.15651,51.35757],[4.17368,51.37373],[4.18002,51.37743],[4.19956,51.37604],[4.22153,51.36799],[4.22218,51.36774],[4.24106,51.35659],[4.24903,51.34667],[4.25611,51.32844],[4.27263,51.31582],[4.29078,51.30589],[4.30299,51.29609],[4.30665,51.28974],[4.30812,51.28364],[4.30543,51.2766],[4.29868,51.2696],[4.29672,51.26756],[4.30836,51.27123],[4.31642,51.27684],[4.33082,51.29609],[4.29713,51.30516],[4.28932,51.30915],[4.28541,51.31802],[4.28614,51.33967],[4.28305,51.35008],[4.27564,51.3581],[4.26108,51.36937],[4.25709,51.3725],[4.24903,51.38422],[4.24635,51.39643],[4.24684,51.40672],[4.24488,51.4145],[4.23471,51.41901],[4.22299,51.40949],[4.20102,51.40534],[4.11109,51.40697],[4.09034,51.41128],[4.07016,51.41901],[4.01515,51.44892],[3.99879,51.45311],[3.95704,51.4558],[3.94313,51.45038],[3.91342,51.41527],[3.90211,51.40493],[3.88673,51.39981],[3.85076,51.39737],[3.8379,51.39224],[3.82716,51.39106],[3.81642,51.39411],[3.78907,51.41218],[3.72877,51.43081],[3.68971,51.45429],[3.674,51.45539],[3.63258,51.4457],[3.61004,51.44505],[3.5534,51.45311],[3.53541,51.45922],[3.52019,51.47337],[3.50685,51.48933],[3.4948,51.50092],[3.46192,51.51899],[3.45102,51.52973],[3.44703,51.54597],[3.45753,51.55508],[3.5604,51.59463],[3.82887,51.61274],[3.85108,51.61078],[3.86606,51.60541],[3.88217,51.5961],[3.89649,51.58381],[3.90577,51.56924],[3.89527,51.5666],[3.87827,51.55939],[3.87159,51.55557],[3.87159,51.54938],[3.9673,51.54312],[4.01588,51.53083],[4.05714,51.50837],[4.07032,51.49274],[4.09002,51.45824],[4.10483,51.4457],[4.12875,51.44135],[4.18084,51.44587],[4.20045,51.43952],[4.22023,51.44355],[4.25278,51.44253],[4.26384,51.4444],[4.28321,51.4477],[4.29672,51.47053],[4.28859,51.49213],[4.26775,51.50829],[4.23976,51.5185],[4.23048,51.51956],[4.19467,51.52359],[4.15333,51.53506],[4.13795,51.53587],[4.10629,51.53352],[4.09132,51.53506],[4.06723,51.54401],[3.98813,51.59028],[4.04119,51.60602],[4.06772,51.61066],[4.15724,51.6079],[4.18336,51.60293],[4.20688,51.59052],[4.20729,51.59028],[4.20265,51.60912],[4.18995,51.61668],[4.18613,51.61681],[4.14666,51.61787],[4.136,51.62043],[4.12599,51.6247],[4.11801,51.63068],[4.11297,51.63939],[4.10987,51.65087],[4.10963,51.6623],[4.11264,51.6708],[4.12566,51.67963],[4.14291,51.68415],[4.17693,51.68586],[4.16635,51.69269],[4.14112,51.70392],[4.07154,51.71719],[4.05714,51.73029],[4.05079,51.76349],[4.03395,51.78425],[4.00978,51.79792],[3.98146,51.81],[3.96258,51.80121],[3.93718,51.79633],[3.91139,51.79637],[3.89186,51.79295],[3.88819,51.78889],[3.88111,51.78807],[3.87159,51.78827],[3.86232,51.81607],[3.89137,51.82827],[3.95411,51.84016],[3.96266,51.84736],[3.98219,51.84829],[4.01564,51.84357],[4.04347,51.83422],[4.04762,51.83369],[4.05502,51.83422],[4.06544,51.8371],[4.07765,51.84357],[4.07008,51.85273],[4.04461,51.8745],[4.03785,51.87792],[4.03207,51.88202],[4.0298,51.88825],[4.03199,51.89606],[4.03663,51.90156],[4.04127,51.9055],[4.04347,51.90868],[4.04021,51.92406],[4.02117,51.96332],[4.01002,51.98013],[4.01564,51.9877],[4.02247,51.99437],[4.06902,51.98794],[4.10768,51.99189],[4.14186,52.0056],[4.28468,52.11294],[4.40691,52.22346],[4.50815,52.33637],[4.56861,52.44526],[4.57732,52.47358],[4.57732,52.48094],[4.59693,52.50658],[4.63933,52.70067],[4.65707,52.75019],[4.65984,52.76529],[4.66944,52.79658],[4.71168,52.8631],[4.72136,52.89594],[4.72242,52.9145],[4.72641,52.9383],[4.7339,52.95889],[4.74545,52.9676],[4.80698,52.96182],[4.81691,52.9676],[4.82439,52.96015],[4.80942,52.92959],[4.83277,52.91132],[4.87379,52.90396],[4.9131,52.90559],[4.9358,52.9134],[4.97828,52.9357],[4.99903,52.94033],[5.03891,52.94351],[5.07814,52.95401],[5.27947,53.06293],[5.2942,53.07343],[5.31276,53.08283],[5.3589,53.08934],[5.37924,53.09736],[5.39975,53.12206],[5.42709,53.19033],[5.44744,53.22089],[5.48259,53.24555],[5.50424,53.25702],[5.54103,53.26659],[5.55787,53.27802],[5.5735,53.29165],[5.59156,53.3028],[5.61183,53.30712],[5.65968,53.31196],[5.69459,53.33006],[5.85475,53.3688],[5.8908,53.38426],[5.91375,53.3854],[5.98081,53.40607],[6.07732,53.40892],[6.18605,53.411],[6.27394,53.41266],[6.28435,53.41055],[6.30193,53.40111],[6.31153,53.39899],[6.32008,53.4007],[6.34555,53.41266],[6.49439,53.43871],[6.73024,53.46064],[6.82911,53.45059],[6.84978,53.44489],[6.86687,53.43427],[6.90056,53.35179],[6.90577,53.35049],[6.93002,53.34007],[6.93189,53.33759],[6.9367,53.33539],[6.94166,53.33071],[6.94858,53.32608],[6.98015,53.31977],[7.02003,53.30614],[7.03777,53.30964],[7.04624,53.30386],[7.05828,53.30195],[7.07008,53.30394],[7.07862,53.30964],[7.08546,53.30964],[7.08546,53.3028],[7.07749,53.29865],[7.0735,53.29564],[7.07374,53.29133],[7.07862,53.28294],[7.08074,53.26679],[7.11109,53.25633],[7.18336,53.2451],[7.19459,53.24502],[7.20444,53.24828],[7.21583,53.2556],[7.22462,53.26293],[7.23357,53.27363],[7.23699,53.28555],[7.2295,53.29658],[7.25473,53.31952],[7.26832,53.32368],[7.29152,53.32392],[7.31316,53.3205],[7.34767,53.30736],[7.36655,53.3028],[7.34254,53.32404],[7.30291,53.33275],[7.07521,53.33759],[7.03826,53.34858],[7.02361,53.37641],[7.02328,53.45051],[7.02768,53.46735],[7.04705,53.49771],[7.05144,53.5126],[7.05974,53.52172],[7.07936,53.52155],[7.11964,53.5163],[7.12501,53.52436],[7.13453,53.52741],[7.14177,53.53718],[7.13999,53.54979],[7.13111,53.55695],[7.1019,53.56574],[7.08888,53.57372],[7.08676,53.58686],[7.10092,53.59789],[7.13315,53.61127],[7.16944,53.63548],[7.18898,53.6435],[7.22609,53.66649],[7.30502,53.6848],[7.45883,53.69514],[7.46957,53.69074],[7.48024,53.68203],[7.5,53.67921],[7.5,50.6],[2.5,50.6],[2.5,51.07879],[2.50668,51.08076]]]]}},{"type":"Feature","properties":{},"geometry":{"type":"MultiPolygon","coordinates":[[[[4.07838,51.67862],[4.09734,51.67023],[4.09938,51.65412],[4.08904,51.64403],[4.0726,51.63691],[4.05486,51.63264],[3.97804,51.62328],[3.9603,51.62385],[3.92311,51.63247],[3.90154,51.642],[3.89194,51.6555],[3.88559,51.66836],[3.8698,51.67609],[3.83058,51.68586],[3.8239,51.68989],[3.81764,51.69526],[3.80925,51.69953],[3.79591,51.70014],[3.77125,51.68183],[3.76539,51.67841],[3.72055,51.67683],[3.70004,51.68061],[3.6867,51.69269],[3.68946,51.72504],[3.72584,51.73973],[3.81007,51.7473],[3.81422,51.74824],[3.83058,51.7473],[3.84376,51.74283],[3.93963,51.74116],[3.96176,51.7381],[3.97804,51.73029],[4.01539,51.70173],[4.02027,51.69648],[4.02662,51.69111],[4.03663,51.68586],[4.07838,51.67862]]],[[[4.89259,53.1048],[4.9131,53.1048],[4.9061,53.0917],[4.89308,53.07612],[4.86524,53.0502],[4.81813,53.02676],[4.79566,53.00031],[4.76197,52.99433],[4.72682,53.00308],[4.70769,53.02847],[4.71388,53.05463],[4.73365,53.08422],[4.75847,53.10847],[4.80567,53.133],[4.82927,53.16299],[4.85434,53.18773],[4.88575,53.18671],[4.88982,53.18085],[4.8921,53.17573],[4.89137,53.17097],[4.88575,53.1662],[4.89991,53.15233],[4.91017,53.13459],[4.90992,53.11884],[4.89259,53.11103],[4.89259,53.1048]]]]}},{"type":"Feature","properties":{},"geometry":{"type":"MultiPolygon","coordinates":[[[[6.45509,53.55809],[6.5101,53.54361],[6.50563,53.54377],[6.50196,53.54255],[6.49887,53.53998],[6.49643,53.5362],[6.4607,53.54336],[6.44304,53.54999],[6.44117,53.55663],[6.45509,53.55809]]],[[[6.91082,53.68366],[7.04705,53.69416],[7.08546,53.687],[6.87379,53.67276],[6.91082,53.68366]]],[[[7.17897,53.72407],[7.23292,53.72944],[7.3462,53.72797],[7.34669,53.72321],[7.34506,53.72207],[7.3423,53.72211],[7.29575,53.71101],[7.17359,53.7014],[7.13315,53.70808],[7.17897,53.72407]]],[[[7.38307,53.73485],[7.40349,53.73672],[7.42262,53.7342],[7.43556,53.72797],[7.43238,53.72407],[7.42905,53.72248],[7.42124,53.72114],[7.3812,53.7285],[7.36655,53.72797],[7.38307,53.73485]]],[[[7.48194,53.72712],[7.47299,53.73188],[7.46957,53.74535],[7.47462,53.75682],[7.48699,53.76142],[7.5,53.76172],[7.5,53.72764],[7.48194,53.72712]]]]}},{"type":"Feature","properties":{},"geometry":{"type":"MultiPolygon","coordinates":[[[[4.92124,53.25373],[4.9865,53.28998],[5.05445,53.31379],[5.10483,53.30964],[5.10483,53.3028],[5.07814,53.3028],[5.0656,53.29849],[5.03647,53.29181],[4.95753,53.24555],[4.93572,53.22598],[4.91017,53.21247],[4.87892,53.22089],[4.92124,53.25373]]],[[[5.43702,53.43647],[5.5853,53.4536],[5.56202,53.43431],[5.5337,53.42837],[5.47543,53.42695],[5.47739,53.42353],[5.47975,53.4162],[5.4817,53.41266],[5.4686,53.40852],[5.42701,53.40644],[5.3825,53.39468],[5.34693,53.38923],[5.20834,53.35269],[5.17986,53.3531],[5.16765,53.36823],[5.17888,53.38544],[5.23243,53.39672],[5.25017,53.40644],[5.27296,53.40607],[5.40724,53.42255],[5.42359,53.43037],[5.43702,53.43647]]],[[[5.91383,53.47386],[5.9546,53.46109],[5.85564,53.44741],[5.75278,53.44741],[5.72706,53.44335],[5.67897,53.43012],[5.65358,53.43374],[5.63608,53.44868],[5.64194,53.46337],[5.65886,53.47187],[5.674,53.46792],[5.91383,53.47386]]],[[[6.3108,53.51415],[6.33871,53.50886],[6.33871,53.50202],[6.32504,53.50202],[6.15317,53.46882],[6.13331,53.4536],[6.12745,53.45991],[6.12713,53.46308],[6.13331,53.46792],[6.12281,53.48163],[6.14796,53.49486],[6.18539,53.50487],[6.21176,53.50886],[6.3108,53.51415]]],[[[6.77564,53.60248],[6.7409,53.59345],[6.72242,53.59077],[6.72242,53.58462],[6.73357,53.58202],[6.7422,53.57836],[6.74952,53.57241],[6.75652,53.56289],[6.74757,53.56598],[6.73463,53.57518],[6.72609,53.57713],[6.71599,53.57608],[6.70118,53.57144],[6.69508,53.5703],[6.67709,53.57563],[6.66334,53.58735],[6.65952,53.59911],[6.67115,53.60444],[6.74733,53.61835],[6.78468,53.62006],[6.79811,53.60444],[6.77564,53.60248]]]]}},{"type":"Feature","properties":{},"geometry":{"type":"MultiPolygon","coordinates":[[[[6.60605,53.54776],[6.60369,53.54532],[6.59685,53.54348],[6.59181,53.53766],[6.5857,53.53335],[6.57049,53.53811],[6.57309,53.543],[6.58359,53.54808],[6.60605,53.54776]]],[[[6.89519,53.65143],[6.917,53.64614],[6.9218,53.64195],[6.89373,53.6232],[6.87818,53.62706],[6.86598,53.63377],[6.86533,53.64444],[6.86712,53.64757],[6.87135,53.64846],[6.87704,53.65152],[6.89519,53.65143]]]]}}]}